{
"type": "FeatureCollection",
"name": "bajacalifornia_loc_monto",
"crs": { "type": "name", "properties": { "name": "urn:ogc:def:crs:OGC:1.3:CRS84" } },
"features": [
{ "type": "Feature", "properties": { "NO": 1, "ENTIDAD": "BAJA CALIFORNIA", "MUNICIPIO": "ENSENADA", "PUEBLO INDIGENA O AFROMEXICANO": "KILIWA", "LOCALIDAD": "ARROYO DE LEON (EJIDO KILIWAS)", "CLAVE LOC": 20011145, "TIPO DE ASENTAMIENTO": "COMUNIDAD INDIGENA", "NOMBRE": "COMUNIDAD INDÍGENA EJIDO TRIBU KILIWAS\nARROYO DE LEÓN", "MONTO ASIGNADO (PESOS)": 109699, "LATITUD": 31.266039, "LONGITUD": -115.64421 }, "geometry": { "type": "Point", "coordinates": [ -115.64421, 31.266039 ] } },
{ "type": "Feature", "properties": { "NO": 2, "ENTIDAD": "BAJA CALIFORNIA", "MUNICIPIO": "ENSENADA", "PUEBLO INDIGENA O AFROMEXICANO": "PA IPAI/KU'AHL", "LOCALIDAD": "COMUNIDAD INDIGENA DE SANTA CATARINA", "CLAVE LOC": 20010759, "TIPO DE ASENTAMIENTO": "COMUNIDAD INDIGENA", "NOMBRE": "COMUNIDAD INDÍGENA MISIÓN DE SANTA\nCATARINA", "MONTO ASIGNADO (PESOS)": 238229, "LATITUD": 31.654508, "LONGITUD": -115.827791 }, "geometry": { "type": "Point", "coordinates": [ -115.827791, 31.654508 ] } },
{ "type": "Feature", "properties": { "NO": 3, "ENTIDAD": "BAJA CALIFORNIA", "MUNICIPIO": "ENSENADA", "PUEBLO INDIGENA O AFROMEXICANO": "KUMIAI", "LOCALIDAD": "LA HUERTA ", "CLAVE LOC": 20010121, "TIPO DE ASENTAMIENTO": "COMUNIDAD INDIGENA", "NOMBRE": "COMUNIDAD INDÍGENA LA HUERTA", "MONTO ASIGNADO (PESOS)": 173560, "LATITUD": 31.934517, "LONGITUD": -116.132718 }, "geometry": { "type": "Point", "coordinates": [ -116.132718, 31.934517 ] } },
{ "type": "Feature", "properties": { "NO": 4, "ENTIDAD": "BAJA CALIFORNIA", "MUNICIPIO": "ENSENADA", "PUEBLO INDIGENA O AFROMEXICANO": "KUMIAI", "LOCALIDAD": "SAN ANTONIO NECUA (CAÑADA DE LOS ENCINOS)", "CLAVE LOC": 20011266, "TIPO DE ASENTAMIENTO": "COMUNIDAD INDIGENA", "NOMBRE": "COMUNIDAD INDÍGENA CAÑÓN DE LOS\nENCINOS Y SAN ANTONIO NECUA", "MONTO ASIGNADO (PESOS)": 246313, "LATITUD": 32.102628, "LONGITUD": -116.498128 }, "geometry": { "type": "Point", "coordinates": [ -116.498128, 32.102628 ] } },
{ "type": "Feature", "properties": { "NO": 5, "ENTIDAD": "BAJA CALIFORNIA", "MUNICIPIO": "ENSENADA", "PUEBLO INDIGENA O AFROMEXICANO": "PA IPAI/KU'AHL", "LOCALIDAD": "SAN ISIDORO ", "CLAVE LOC": 20011775, "TIPO DE ASENTAMIENTO": "COMUNIDAD INDIGENA", "NOMBRE": "COMUNIDAD INDÍGENA SAN ISIDORO", "MONTO ASIGNADO (PESOS)": 84639, "LATITUD": 31.293848, "LONGITUD": -115.883691 }, "geometry": { "type": "Point", "coordinates": [ -115.883691, 31.293848 ] } },
{ "type": "Feature", "properties": { "NO": 6, "ENTIDAD": "BAJA CALIFORNIA", "MUNICIPIO": "ENSENADA", "PUEBLO INDIGENA O AFROMEXICANO": "PA IPAI/KU'AHL", "LOCALIDAD": "(SIN NOMBRE)", "CLAVE LOC": 20010000, "TIPO DE ASENTAMIENTO": "COMUNIDAD INDIGENA", "NOMBRE": "COMUNIDAD INDÍGENA JAMAU", "MONTO ASIGNADO (PESOS)": 84639, "LATITUD": 31.293848, "LONGITUD": -115.883691 }, "geometry": { "type": "Point", "coordinates": [ -115.883691, 31.293848 ] } },
{ "type": "Feature", "properties": { "NO": 7, "ENTIDAD": "BAJA CALIFORNIA", "MUNICIPIO": "MEXICALI", "PUEBLO INDIGENA O AFROMEXICANO": "CUCAPÁ", "LOCALIDAD": "COMUNIDAD INDIGENA CUCAPAH EL MAYOR", "CLAVE LOC": 20021119, "TIPO DE ASENTAMIENTO": "COMUNIDAD INDIGENA", "NOMBRE": "COMUNIDAD INDÍGENA CUCAPÁ EL MAYOR", "MONTO ASIGNADO (PESOS)": 7845908, "LATITUD": 32.125502, "LONGITUD": -115.273382 }, "geometry": { "type": "Point", "coordinates": [ -115.273382, 32.125502 ] } },
{ "type": "Feature", "properties": { "NO": 8, "ENTIDAD": "BAJA CALIFORNIA", "MUNICIPIO": "PLAYAS DE ROSARITO", "PUEBLO INDIGENA O AFROMEXICANO": "KUMIAI", "LOCALIDAD": "SAN JOSE DE LA ZORRA", "CLAVE LOC": 20050466, "TIPO DE ASENTAMIENTO": "COMUNIDAD INDIGENA", "NOMBRE": "COMUNIDAD INDÍGENA SAN JOSÉ DE LA ZORRA", "MONTO ASIGNADO (PESOS)": 396191, "LATITUD": 32.176485, "LONGITUD": -116.686396 }, "geometry": { "type": "Point", "coordinates": [ -116.686396, 32.176485 ] } },
{ "type": "Feature", "properties": { "NO": 9, "ENTIDAD": "BAJA CALIFORNIA", "MUNICIPIO": "SAN QUINTIN", "PUEBLO INDIGENA O AFROMEXICANO": "MIXTECO", "LOCALIDAD": "COLONIA LOMAS DE SAN RAMON (TRIQUIS)", "CLAVE LOC": 20060082, "TIPO DE ASENTAMIENTO": "COMUNIDAD INDIGENA", "NOMBRE": "COL. LOMAS DE SAN RAMON", "MONTO ASIGNADO (PESOS)": 1922869, "LATITUD": 30.701111, "LONGITUD": -115.999776 }, "geometry": { "type": "Point", "coordinates": [ -115.999776, 30.701111 ] } },
{ "type": "Feature", "properties": { "NO": 10, "ENTIDAD": "BAJA CALIFORNIA", "MUNICIPIO": "SAN QUINTIN", "PUEBLO INDIGENA O AFROMEXICANO": "COCHIMÍ", "LOCALIDAD": "MISION SAN FRANCISCO DE BORJA ", "CLAVE LOC": 20060602, "TIPO DE ASENTAMIENTO": "COMUNIDAD INDIGENA", "NOMBRE": "MISIÓN SAN FRANCISCO DE BORJA DE ADAC", "MONTO ASIGNADO (PESOS)": 87064, "LATITUD": 28.744524, "LONGITUD": -113.754171 }, "geometry": { "type": "Point", "coordinates": [ -113.754171, 28.744524 ] } },
{ "type": "Feature", "properties": { "NO": 11, "ENTIDAD": "BAJA CALIFORNIA", "MUNICIPIO": "SAN QUINTIN", "PUEBLO INDIGENA O AFROMEXICANO": "COCHIMÍ", "LOCALIDAD": "PUNTA SAN ANTONIO", "CLAVE LOC": 20060684, "TIPO DE ASENTAMIENTO": "COMUNIDAD INDIGENA", "NOMBRE": "PUEBLO MISIÓN SANTA GERTRUDIS", "MONTO ASIGNADO (PESOS)": 85448, "LATITUD": 29.748346, "LONGITUD": -115.686704 }, "geometry": { "type": "Point", "coordinates": [ -115.686704, 29.748346 ] } },
{ "type": "Feature", "properties": { "NO": 12, "ENTIDAD": "BAJA CALIFORNIA", "MUNICIPIO": "TECATE", "PUEBLO INDIGENA O AFROMEXICANO": "KUMIAI", "LOCALIDAD": "(SIN NOMBRE)", "CLAVE LOC": 20030000, "TIPO DE ASENTAMIENTO": "COMUNIDAD INDIGENA", "NOMBRE": "COMUNIDAD INDÍGENA JUNTAS DE NEJÍ Y\nANEXAS", "MONTO ASIGNADO (PESOS)": 84639, "LATITUD": 32.556381, "LONGITUD": -116.542558 }, "geometry": { "type": "Point", "coordinates": [ -116.542558, 32.556381 ] } }
]
}
