{
"type": "FeatureCollection",
"name": "coahuila_loc_monto",
"crs": { "type": "name", "properties": { "name": "urn:ogc:def:crs:OGC:1.3:CRS84" } },
"features": [
{ "type": "Feature", "properties": { "NO": 1, "ENTIDAD": "COAHUILA DE ZARAGOZA ", "MUNICIPIO": "MUZQUIZ", "PUEBLO INDIGENA O AFROMEXICANO": "AFROMEXICANO", "LOCALIDAD": "NEGROS MASKOGOS (NACIMIENTO)", "CLAVE LOC": 50200081, "TIPO DE ASENTAMIENTO": "COMUNIDAD AFROMEXICANA", "NOMBRE": "COMUNIDAD AFROMEXICANA", "MONTO ASIGNADO (PESOS)": 302899, "LATITUD": 28.009113, "LONGITUD": -101.724659 }, "geometry": { "type": "Point", "coordinates": [ -101.724659, 28.009113 ] } },
{ "type": "Feature", "properties": { "NO": 2, "ENTIDAD": "COAHUILA DE ZARAGOZA ", "MUNICIPIO": "MUZQUIZ", "PUEBLO INDIGENA O AFROMEXICANO": "KICKAPOO", "LOCALIDAD": "TRIBU KIKAPOO", "CLAVE LOC": 50200080, "TIPO DE ASENTAMIENTO": "COMUNIDAD INDIGENA", "NOMBRE": "NACIMIENTO DE LA TRIBU KICKAPOO", "MONTO ASIGNADO (PESOS)": 626246, "LATITUD": 28.041133, "LONGITUD": -101.784453 }, "geometry": { "type": "Point", "coordinates": [ -101.784453, 28.041133 ] } }
]
}
