{
"type": "FeatureCollection",
"name": "guanajuato_loc_monto",
"crs": { "type": "name", "properties": { "name": "urn:ogc:def:crs:OGC:1.3:CRS84" } },
"features": [
{ "type": "Feature", "properties": { "NO": 1, "ENTIDAD": "GUANAJUATO", "MUNICIPIO": "ATARJEA", "PUEBLO INDIGENA O AFROMEXICANO": "CHICHIMECO", "LOCALIDAD": "EL CARRICILLO", "CLAVE LOC": 110060005, "TIPO DE ASENTAMIENTO": "COMUNIDAD INDIGENA", "NOMBRE": "EL CARRICILLO", "MONTO ASIGNADO (PESOS)": 650497, "LATITUD": 20.395829, "LONGITUD": -101.865989 }, "geometry": { "type": "Point", "coordinates": [ -101.865989, 20.395829 ] } },
{ "type": "Feature", "properties": { "NO": 2, "ENTIDAD": "GUANAJUATO", "MUNICIPIO": "ATARJEA", "PUEBLO INDIGENA O AFROMEXICANO": "CHICHIMECO", "LOCALIDAD": "EL PIÑONAL", "CLAVE LOC": 110060018, "TIPO DE ASENTAMIENTO": "COMUNIDAD INDIGENA", "NOMBRE": "EL PIÑONAL", "MONTO ASIGNADO (PESOS)": 121824, "LATITUD": 21.315208, "LONGITUD": -99.860992 }, "geometry": { "type": "Point", "coordinates": [ -99.860992, 21.315208 ] } },
{ "type": "Feature", "properties": { "NO": 3, "ENTIDAD": "GUANAJUATO", "MUNICIPIO": "ATARJEA", "PUEBLO INDIGENA O AFROMEXICANO": "CHICHIMECO", "LOCALIDAD": "SAN ANTON", "CLAVE LOC": 110060019, "TIPO DE ASENTAMIENTO": "COMUNIDAD INDIGENA", "NOMBRE": "SAN ANTÓN", "MONTO ASIGNADO (PESOS)": 213170, "LATITUD": 21.261764, "LONGITUD": -99.788863 }, "geometry": { "type": "Point", "coordinates": [ -99.788863, 21.261764 ] } },
{ "type": "Feature", "properties": { "NO": 4, "ENTIDAD": "GUANAJUATO", "MUNICIPIO": "COMONFORT", "PUEBLO INDIGENA O AFROMEXICANO": "OTOMÍ", "LOCALIDAD": "AGUA BLANCA", "CLAVE LOC": 110090052, "TIPO DE ASENTAMIENTO": "COMUNIDAD INDIGENA", "NOMBRE": "AGUA BLANCA", "MONTO ASIGNADO (PESOS)": 482926, "LATITUD": 21.286364, "LONGITUD": -100.630413 }, "geometry": { "type": "Point", "coordinates": [ -100.630413, 21.286364 ] } },
{ "type": "Feature", "properties": { "NO": 5, "ENTIDAD": "GUANAJUATO", "MUNICIPIO": "COMONFORT", "PUEBLO INDIGENA O AFROMEXICANO": "OTOMÍ", "LOCALIDAD": "COMONFORT", "CLAVE LOC": 110090001, "TIPO DE ASENTAMIENTO": "COMUNIDAD INDIGENA", "NOMBRE": "SAN AGUSTÍN", "MONTO ASIGNADO (PESOS)": 167093, "LATITUD": 20.720047, "LONGITUD": -100.761202 }, "geometry": { "type": "Point", "coordinates": [ -100.761202, 20.720047 ] } },
{ "type": "Feature", "properties": { "NO": 6, "ENTIDAD": "GUANAJUATO", "MUNICIPIO": "COMONFORT", "PUEBLO INDIGENA O AFROMEXICANO": "OTOMÍ", "LOCALIDAD": "LA BORUNDA", "CLAVE LOC": 110090003, "TIPO DE ASENTAMIENTO": "COMUNIDAD INDIGENA", "NOMBRE": "LA BORUNDA", "MONTO ASIGNADO (PESOS)": 591486, "LATITUD": 20.727462, "LONGITUD": -100.67216 }, "geometry": { "type": "Point", "coordinates": [ -100.67216, 20.727462 ] } },
{ "type": "Feature", "properties": { "NO": 7, "ENTIDAD": "GUANAJUATO", "MUNICIPIO": "COMONFORT", "PUEBLO INDIGENA O AFROMEXICANO": "OTOMÍ", "LOCALIDAD": "MORALES", "CLAVE LOC": 110090024, "TIPO DE ASENTAMIENTO": "COMUNIDAD INDIGENA", "NOMBRE": "MORALES", "MONTO ASIGNADO (PESOS)": 1288300, "LATITUD": 20.7785, "LONGITUD": -100.80747 }, "geometry": { "type": "Point", "coordinates": [ -100.80747, 20.7785 ] } },
{ "type": "Feature", "properties": { "NO": 8, "ENTIDAD": "GUANAJUATO", "MUNICIPIO": "COMONFORT", "PUEBLO INDIGENA O AFROMEXICANO": "OTOMÍ", "LOCALIDAD": "OJO DE AGUA DEL POTRERO", "CLAVE LOC": 110090028, "TIPO DE ASENTAMIENTO": "COMUNIDAD INDIGENA", "NOMBRE": "OJO DE AGUA DEL POTRERO", "MONTO ASIGNADO (PESOS)": 725676, "LATITUD": 20.77508, "LONGITUD": -100.664207 }, "geometry": { "type": "Point", "coordinates": [ -100.664207, 20.77508 ] } },
{ "type": "Feature", "properties": { "NO": 9, "ENTIDAD": "GUANAJUATO", "MUNICIPIO": "COMONFORT", "PUEBLO INDIGENA O AFROMEXICANO": "OTOMÍ", "LOCALIDAD": "ORDUÑA DE ABAJO", "CLAVE LOC": 110090029, "TIPO DE ASENTAMIENTO": "COMUNIDAD INDIGENA", "NOMBRE": "ORDUÑA DE ABAJO", "MONTO ASIGNADO (PESOS)": 1302042, "LATITUD": 20.752513, "LONGITUD": -100.777761 }, "geometry": { "type": "Point", "coordinates": [ -100.777761, 20.752513 ] } },
{ "type": "Feature", "properties": { "NO": 10, "ENTIDAD": "GUANAJUATO", "MUNICIPIO": "COMONFORT", "PUEBLO INDIGENA O AFROMEXICANO": "OTOMÍ", "LOCALIDAD": "ORDUÑA DE ARRIBA", "CLAVE LOC": 110090030, "TIPO DE ASENTAMIENTO": "COMUNIDAD INDIGENA", "NOMBRE": "ORDUÑA DE ARRIBA", "MONTO ASIGNADO (PESOS)": 867140, "LATITUD": 20.766073, "LONGITUD": -100.794723 }, "geometry": { "type": "Point", "coordinates": [ -100.794723, 20.766073 ] } },
{ "type": "Feature", "properties": { "NO": 11, "ENTIDAD": "GUANAJUATO", "MUNICIPIO": "COMONFORT", "PUEBLO INDIGENA O AFROMEXICANO": "OTOMÍ", "LOCALIDAD": "POTRERO", "CLAVE LOC": 110090035, "TIPO DE ASENTAMIENTO": "COMUNIDAD INDIGENA", "NOMBRE": "EL POTRERO", "MONTO ASIGNADO (PESOS)": 1084591, "LATITUD": 20.758518, "LONGITUD": -100.647899 }, "geometry": { "type": "Point", "coordinates": [ -100.647899, 20.758518 ] } },
{ "type": "Feature", "properties": { "NO": 12, "ENTIDAD": "GUANAJUATO", "MUNICIPIO": "COMONFORT", "PUEBLO INDIGENA O AFROMEXICANO": "OTOMÍ", "LOCALIDAD": "REFUGIO DE ARRIBA", "CLAVE LOC": 110090038, "TIPO DE ASENTAMIENTO": "COMUNIDAD INDIGENA", "NOMBRE": "EL REFUGIO DE ARRIBA", "MONTO ASIGNADO (PESOS)": 314216, "LATITUD": 20.768739, "LONGITUD": -100.776687 }, "geometry": { "type": "Point", "coordinates": [ -100.776687, 20.768739 ] } },
{ "type": "Feature", "properties": { "NO": 13, "ENTIDAD": "GUANAJUATO", "MUNICIPIO": "COMONFORT", "PUEBLO INDIGENA O AFROMEXICANO": "OTOMÍ", "LOCALIDAD": "RINCON DEL PURGATORIO", "CLAVE LOC": 110090040, "TIPO DE ASENTAMIENTO": "COMUNIDAD INDIGENA", "NOMBRE": "RINCÓN DEL PURGATORIO", "MONTO ASIGNADO (PESOS)": 506608, "LATITUD": 20.785476, "LONGITUD": -100.648986 }, "geometry": { "type": "Point", "coordinates": [ -100.648986, 20.785476 ] } },
{ "type": "Feature", "properties": { "NO": 14, "ENTIDAD": "GUANAJUATO", "MUNICIPIO": "COMONFORT", "PUEBLO INDIGENA O AFROMEXICANO": "OTOMÍ", "LOCALIDAD": "RINCONCILLO (RINCONCILLO DE LOS REMEDIOS)", "CLAVE LOC": 110090039, "TIPO DE ASENTAMIENTO": "COMUNIDAD INDIGENA", "NOMBRE": "RINCONCILLO DE LOS REMEDIOS", "MONTO ASIGNADO (PESOS)": 623013, "LATITUD": 20.790041, "LONGITUD": -100.804179 }, "geometry": { "type": "Point", "coordinates": [ -100.804179, 20.790041 ] } },
{ "type": "Feature", "properties": { "NO": 15, "ENTIDAD": "GUANAJUATO", "MUNICIPIO": "COMONFORT", "PUEBLO INDIGENA O AFROMEXICANO": "OTOMÍ", "LOCALIDAD": "ROSALES", "CLAVE LOC": 110090060, "TIPO DE ASENTAMIENTO": "COMUNIDAD INDIGENA", "NOMBRE": "LOS ROSALES", "MONTO ASIGNADO (PESOS)": 395861, "LATITUD": 20.748576, "LONGITUD": -100.661019 }, "geometry": { "type": "Point", "coordinates": [ -100.661019, 20.748576 ] } },
{ "type": "Feature", "properties": { "NO": 16, "ENTIDAD": "GUANAJUATO", "MUNICIPIO": "COMONFORT", "PUEBLO INDIGENA O AFROMEXICANO": "OTOMÍ", "LOCALIDAD": "SAN PABLO", "CLAVE LOC": 110090043, "TIPO DE ASENTAMIENTO": "COMUNIDAD INDIGENA", "NOMBRE": "SAN PABLO", "MONTO ASIGNADO (PESOS)": 592295, "LATITUD": 20.867194, "LONGITUD": -101.426431 }, "geometry": { "type": "Point", "coordinates": [ -101.426431, 20.867194 ] } },
{ "type": "Feature", "properties": { "NO": 17, "ENTIDAD": "GUANAJUATO", "MUNICIPIO": "COMONFORT", "PUEBLO INDIGENA O AFROMEXICANO": "OTOMÍ", "LOCALIDAD": "SAN PEDRO NORTE", "CLAVE LOC": 110090088, "TIPO DE ASENTAMIENTO": "COMUNIDAD INDIGENA", "NOMBRE": "SAN PEDRO NORTE", "MONTO ASIGNADO (PESOS)": 516308, "LATITUD": 20.774863, "LONGITUD": -100.788901 }, "geometry": { "type": "Point", "coordinates": [ -100.788901, 20.774863 ] } },
{ "type": "Feature", "properties": { "NO": 18, "ENTIDAD": "GUANAJUATO", "MUNICIPIO": "DOLORES HIDALGO CUNA DE LA\nINDEPENDENCIA NACIONAL", "PUEBLO INDIGENA O AFROMEXICANO": "OTOMÍ", "LOCALIDAD": "EL LLANITO", "CLAVE LOC": 110140159, "TIPO DE ASENTAMIENTO": "COMUNIDAD INDIGENA", "NOMBRE": "EL LLANITO", "MONTO ASIGNADO (PESOS)": 2626240, "LATITUD": 21.174928, "LONGITUD": -100.648637 }, "geometry": { "type": "Point", "coordinates": [ -100.648637, 21.174928 ] } },
{ "type": "Feature", "properties": { "NO": 19, "ENTIDAD": "GUANAJUATO", "MUNICIPIO": "DOLORES HIDALGO CUNA DE LA\nINDEPENDENCIA NACIONAL", "PUEBLO INDIGENA O AFROMEXICANO": "OTOMÍ", "LOCALIDAD": "RIO LAJA", "CLAVE LOC": 110140255, "TIPO DE ASENTAMIENTO": "COMUNIDAD INDIGENA", "NOMBRE": "RÍO LAJA", "MONTO ASIGNADO (PESOS)": 923487, "LATITUD": 21.203226, "LONGITUD": -100.923032 }, "geometry": { "type": "Point", "coordinates": [ -100.923032, 21.203226 ] } },
{ "type": "Feature", "properties": { "NO": 20, "ENTIDAD": "GUANAJUATO", "MUNICIPIO": "DOLORES HIDALGO CUNA DE LA\nINDEPENDENCIA NACIONAL", "PUEBLO INDIGENA O AFROMEXICANO": "OTOMÍ", "LOCALIDAD": "SAN SIMEON", "CLAVE LOC": 110140323, "TIPO DE ASENTAMIENTO": "COMUNIDAD INDIGENA", "NOMBRE": "SAN SIMEÓN", "MONTO ASIGNADO (PESOS)": 296432, "LATITUD": 20.964597, "LONGITUD": -100.940142 }, "geometry": { "type": "Point", "coordinates": [ -100.940142, 20.964597 ] } },
{ "type": "Feature", "properties": { "NO": 21, "ENTIDAD": "GUANAJUATO", "MUNICIPIO": "DOLORES HIDALGO CUNA DE LA\nINDEPENDENCIA NACIONAL", "PUEBLO INDIGENA O AFROMEXICANO": "OTOMÍ", "LOCALIDAD": "TEQUISQUIAPAN", "CLAVE LOC": 110140340, "TIPO DE ASENTAMIENTO": "COMUNIDAD INDIGENA", "NOMBRE": "TEQUISQUIAPAN", "MONTO ASIGNADO (PESOS)": 1592816, "LATITUD": 21.081393, "LONGITUD": -100.822485 }, "geometry": { "type": "Point", "coordinates": [ -100.822485, 21.081393 ] } },
{ "type": "Feature", "properties": { "NO": 22, "ENTIDAD": "GUANAJUATO", "MUNICIPIO": "SALVATIERRA", "PUEBLO INDIGENA O AFROMEXICANO": "OTOMÍ", "LOCALIDAD": "OJO DE AGUA DE BALLESTEROS", "CLAVE LOC": 110280033, "TIPO DE ASENTAMIENTO": "COMUNIDAD INDIGENA", "NOMBRE": "OJO DE AGUA DE BALLESTEROS", "MONTO ASIGNADO (PESOS)": 1507368, "LATITUD": 20.228769, "LONGITUD": -100.827242 }, "geometry": { "type": "Point", "coordinates": [ -100.827242, 20.228769 ] } },
{ "type": "Feature", "properties": { "NO": 23, "ENTIDAD": "GUANAJUATO", "MUNICIPIO": "SALVATIERRA", "PUEBLO INDIGENA O AFROMEXICANO": "OTOMÍ", "LOCALIDAD": "URIREO", "CLAVE LOC": 110280064, "TIPO DE ASENTAMIENTO": "COMUNIDAD INDIGENA", "NOMBRE": "URIREO", "MONTO ASIGNADO (PESOS)": 247691, "LATITUD": 20.216462, "LONGITUD": -100.842087 }, "geometry": { "type": "Point", "coordinates": [ -100.842087, 20.216462 ] } },
{ "type": "Feature", "properties": { "NO": 24, "ENTIDAD": "GUANAJUATO", "MUNICIPIO": "SAN LUIS DE LA PAZ", "PUEBLO INDIGENA O AFROMEXICANO": "CHICHIMECO", "LOCALIDAD": "MISION DE CHICHIMECAS", "CLAVE LOC": 110330110, "TIPO DE ASENTAMIENTO": "COMUNIDAD INDIGENA", "NOMBRE": "MISIÓN DE CHICHIMECAS", "MONTO ASIGNADO (PESOS)": 3643004, "LATITUD": 21.290795, "LONGITUD": -100.493042 }, "geometry": { "type": "Point", "coordinates": [ -100.493042, 21.290795 ] } },
{ "type": "Feature", "properties": { "NO": 25, "ENTIDAD": "GUANAJUATO", "MUNICIPIO": "SAN LUIS DE LA PAZ", "PUEBLO INDIGENA O AFROMEXICANO": "CHICHIMECO", "LOCALIDAD": "PASO COLORADO", "CLAVE LOC": 110330127, "TIPO DE ASENTAMIENTO": "COMUNIDAD INDIGENA", "NOMBRE": "PASO COLORADO", "MONTO ASIGNADO (PESOS)": 317450, "LATITUD": 21.269077, "LONGITUD": -100.482457 }, "geometry": { "type": "Point", "coordinates": [ -100.482457, 21.269077 ] } },
{ "type": "Feature", "properties": { "NO": 26, "ENTIDAD": "GUANAJUATO", "MUNICIPIO": "SAN LUIS DE LA PAZ", "PUEBLO INDIGENA O AFROMEXICANO": "CHICHIMECO", "LOCALIDAD": "PURISIMA DE CERRO GRANDE", "CLAVE LOC": 110330567, "TIPO DE ASENTAMIENTO": "COMUNIDAD INDIGENA", "NOMBRE": "PURÍSIMA DE CERRO GRANDE", "MONTO ASIGNADO (PESOS)": 917259, "LATITUD": 21.266978, "LONGITUD": -100.532564 }, "geometry": { "type": "Point", "coordinates": [ -100.532564, 21.266978 ] } },
{ "type": "Feature", "properties": { "NO": 27, "ENTIDAD": "GUANAJUATO", "MUNICIPIO": "SAN LUIS DE LA PAZ", "PUEBLO INDIGENA O AFROMEXICANO": "CHICHIMECO", "LOCALIDAD": "SAN IGNACIO", "CLAVE LOC": 110330778, "TIPO DE ASENTAMIENTO": "COMUNIDAD INDIGENA", "NOMBRE": "SAN IGNACIO", "MONTO ASIGNADO (PESOS)": 1328719, "LATITUD": 20.915499, "LONGITUD": -101.358587 }, "geometry": { "type": "Point", "coordinates": [ -101.358587, 20.915499 ] } },
{ "type": "Feature", "properties": { "NO": 28, "ENTIDAD": "GUANAJUATO", "MUNICIPIO": "SAN MIGUEL DE ALLENDE", "PUEBLO INDIGENA O AFROMEXICANO": "OTOMÍ", "LOCALIDAD": "ALONSO YAÑEZ", "CLAVE LOC": 110030008, "TIPO DE ASENTAMIENTO": "COMUNIDAD INDIGENA", "NOMBRE": "ALONSO YÁÑEZ", "MONTO ASIGNADO (PESOS)": 1047167, "LATITUD": 20.82976, "LONGITUD": -100.855361 }, "geometry": { "type": "Point", "coordinates": [ -100.855361, 20.82976 ] } },
{ "type": "Feature", "properties": { "NO": 29, "ENTIDAD": "GUANAJUATO", "MUNICIPIO": "SAN MIGUEL DE ALLENDE", "PUEBLO INDIGENA O AFROMEXICANO": "OTOMÍ", "LOCALIDAD": "BANDA", "CLAVE LOC": 110030018, "TIPO DE ASENTAMIENTO": "COMUNIDAD INDIGENA", "NOMBRE": "BANDA", "MONTO ASIGNADO (PESOS)": 1067137, "LATITUD": 20.549286, "LONGITUD": -100.761226 }, "geometry": { "type": "Point", "coordinates": [ -100.761226, 20.549286 ] } },
{ "type": "Feature", "properties": { "NO": 30, "ENTIDAD": "GUANAJUATO", "MUNICIPIO": "SAN MIGUEL DE ALLENDE", "PUEBLO INDIGENA O AFROMEXICANO": "OTOMÍ", "LOCALIDAD": "CIENEGA DE JUANA RUIZ", "CLAVE LOC": 110030064, "TIPO DE ASENTAMIENTO": "COMUNIDAD INDIGENA", "NOMBRE": "CIENEGA DE JUANA RUIZ", "MONTO ASIGNADO (PESOS)": 492057, "LATITUD": 20.903554, "LONGITUD": -100.866544 }, "geometry": { "type": "Point", "coordinates": [ -100.866544, 20.903554 ] } },
{ "type": "Feature", "properties": { "NO": 31, "ENTIDAD": "GUANAJUATO", "MUNICIPIO": "SAN MIGUEL DE ALLENDE", "PUEBLO INDIGENA O AFROMEXICANO": "OTOMÍ", "LOCALIDAD": "DON FRANCISCO", "CLAVE LOC": 110030092, "TIPO DE ASENTAMIENTO": "COMUNIDAD INDIGENA", "NOMBRE": "DON FRANCISCO", "MONTO ASIGNADO (PESOS)": 1569134, "LATITUD": 20.90534, "LONGITUD": -100.918428 }, "geometry": { "type": "Point", "coordinates": [ -100.918428, 20.90534 ] } },
{ "type": "Feature", "properties": { "NO": 32, "ENTIDAD": "GUANAJUATO", "MUNICIPIO": "SAN MIGUEL DE ALLENDE", "PUEBLO INDIGENA O AFROMEXICANO": "OTOMÍ", "LOCALIDAD": "GUERRERO", "CLAVE LOC": 110030117, "TIPO DE ASENTAMIENTO": "COMUNIDAD INDIGENA", "NOMBRE": "GUERRERO", "MONTO ASIGNADO (PESOS)": 281073, "LATITUD": 20.92396, "LONGITUD": -100.811985 }, "geometry": { "type": "Point", "coordinates": [ -100.811985, 20.92396 ] } },
{ "type": "Feature", "properties": { "NO": 33, "ENTIDAD": "GUANAJUATO", "MUNICIPIO": "SAN MIGUEL DE ALLENDE", "PUEBLO INDIGENA O AFROMEXICANO": "OTOMÍ", "LOCALIDAD": "JUAN GONZALEZ", "CLAVE LOC": 110030131, "TIPO DE ASENTAMIENTO": "COMUNIDAD INDIGENA", "NOMBRE": "JUAN GONZÁLEZ", "MONTO ASIGNADO (PESOS)": 333617, "LATITUD": 20.957719, "LONGITUD": -100.892677 }, "geometry": { "type": "Point", "coordinates": [ -100.892677, 20.957719 ] } },
{ "type": "Feature", "properties": { "NO": 34, "ENTIDAD": "GUANAJUATO", "MUNICIPIO": "SAN MIGUEL DE ALLENDE", "PUEBLO INDIGENA O AFROMEXICANO": "OTOMÍ", "LOCALIDAD": "LA CIENEGUITA", "CLAVE LOC": 110030067, "TIPO DE ASENTAMIENTO": "COMUNIDAD INDIGENA", "NOMBRE": "LA CIENEGUITA", "MONTO ASIGNADO (PESOS)": 1357581, "LATITUD": 21.242623, "LONGITUD": -99.953246 }, "geometry": { "type": "Point", "coordinates": [ -99.953246, 21.242623 ] } },
{ "type": "Feature", "properties": { "NO": 35, "ENTIDAD": "GUANAJUATO", "MUNICIPIO": "SAN MIGUEL DE ALLENDE", "PUEBLO INDIGENA O AFROMEXICANO": "OTOMÍ", "LOCALIDAD": "LA CRUZ DEL PALMAR", "CLAVE LOC": 110030083, "TIPO DE ASENTAMIENTO": "COMUNIDAD INDIGENA", "NOMBRE": "LA CRUZ DEL PALMAR", "MONTO ASIGNADO (PESOS)": 1093483, "LATITUD": 20.97207, "LONGITUD": -100.84287 }, "geometry": { "type": "Point", "coordinates": [ -100.84287, 20.97207 ] } },
{ "type": "Feature", "properties": { "NO": 36, "ENTIDAD": "GUANAJUATO", "MUNICIPIO": "SAN MIGUEL DE ALLENDE", "PUEBLO INDIGENA O AFROMEXICANO": "OTOMÍ", "LOCALIDAD": "LA CUADRILLA", "CLAVE LOC": 110030084, "TIPO DE ASENTAMIENTO": "COMUNIDAD INDIGENA", "NOMBRE": "LA CUADRILLA", "MONTO ASIGNADO (PESOS)": 2146968, "LATITUD": 21.231782, "LONGITUD": -100.92281 }, "geometry": { "type": "Point", "coordinates": [ -100.92281, 21.231782 ] } },
{ "type": "Feature", "properties": { "NO": 37, "ENTIDAD": "GUANAJUATO", "MUNICIPIO": "SAN MIGUEL DE ALLENDE", "PUEBLO INDIGENA O AFROMEXICANO": "OTOMÍ", "LOCALIDAD": "LA HUERTA", "CLAVE LOC": 110030124, "TIPO DE ASENTAMIENTO": "COMUNIDAD INDIGENA", "NOMBRE": "LA HUERTA", "MONTO ASIGNADO (PESOS)": 940702, "LATITUD": 20.277639, "LONGITUD": -100.762384 }, "geometry": { "type": "Point", "coordinates": [ -100.762384, 20.277639 ] } },
{ "type": "Feature", "properties": { "NO": 38, "ENTIDAD": "GUANAJUATO", "MUNICIPIO": "SAN MIGUEL DE ALLENDE", "PUEBLO INDIGENA O AFROMEXICANO": "OTOMÍ", "LOCALIDAD": "LA VIVIENDA DE ARRIBA", "CLAVE LOC": 110030345, "TIPO DE ASENTAMIENTO": "COMUNIDAD INDIGENA", "NOMBRE": "LA VIVIENDA DE ARRIBA", "MONTO ASIGNADO (PESOS)": 189727, "LATITUD": 20.952272, "LONGITUD": -100.867446 }, "geometry": { "type": "Point", "coordinates": [ -100.867446, 20.952272 ] } },
{ "type": "Feature", "properties": { "NO": 39, "ENTIDAD": "GUANAJUATO", "MUNICIPIO": "SAN MIGUEL DE ALLENDE", "PUEBLO INDIGENA O AFROMEXICANO": "OTOMÍ", "LOCALIDAD": "LOS GALVANES", "CLAVE LOC": 110030107, "TIPO DE ASENTAMIENTO": "COMUNIDAD INDIGENA", "NOMBRE": "LOS GALVANES", "MONTO ASIGNADO (PESOS)": 1639940, "LATITUD": 20.648999, "LONGITUD": -100.70969 }, "geometry": { "type": "Point", "coordinates": [ -100.70969, 20.648999 ] } },
{ "type": "Feature", "properties": { "NO": 40, "ENTIDAD": "GUANAJUATO", "MUNICIPIO": "SAN MIGUEL DE ALLENDE", "PUEBLO INDIGENA O AFROMEXICANO": "OTOMÍ", "LOCALIDAD": "MONTECILLO DE LA MILPA", "CLAVE LOC": 110030172, "TIPO DE ASENTAMIENTO": "COMUNIDAD INDIGENA", "NOMBRE": "MONTECILLO DE LA MILPA", "MONTO ASIGNADO (PESOS)": 435471, "LATITUD": 21.030545, "LONGITUD": -100.806286 }, "geometry": { "type": "Point", "coordinates": [ -100.806286, 21.030545 ] } },
{ "type": "Feature", "properties": { "NO": 41, "ENTIDAD": "GUANAJUATO", "MUNICIPIO": "SAN MIGUEL DE ALLENDE", "PUEBLO INDIGENA O AFROMEXICANO": "OTOMÍ", "LOCALIDAD": "OAXACA", "CLAVE LOC": 110030181, "TIPO DE ASENTAMIENTO": "COMUNIDAD INDIGENA", "NOMBRE": "OAXACA", "MONTO ASIGNADO (PESOS)": 117783, "LATITUD": 20.9646, "LONGITUD": -100.834799 }, "geometry": { "type": "Point", "coordinates": [ -100.834799, 20.9646 ] } },
{ "type": "Feature", "properties": { "NO": 42, "ENTIDAD": "GUANAJUATO", "MUNICIPIO": "SAN MIGUEL DE ALLENDE", "PUEBLO INDIGENA O AFROMEXICANO": "OTOMÍ", "LOCALIDAD": "PEÑA BLANCA", "CLAVE LOC": 110030200, "TIPO DE ASENTAMIENTO": "COMUNIDAD INDIGENA", "NOMBRE": "EX HACIENDA DE PEÑA BLANCA", "MONTO ASIGNADO (PESOS)": 386139, "LATITUD": 21.37111, "LONGITUD": -100.307292 }, "geometry": { "type": "Point", "coordinates": [ -100.307292, 21.37111 ] } },
{ "type": "Feature", "properties": { "NO": 43, "ENTIDAD": "GUANAJUATO", "MUNICIPIO": "SAN MIGUEL DE ALLENDE", "PUEBLO INDIGENA O AFROMEXICANO": "OTOMÍ", "LOCALIDAD": "PRESITA DE SANTA ROSA", "CLAVE LOC": 110030210, "TIPO DE ASENTAMIENTO": "COMUNIDAD INDIGENA", "NOMBRE": "PRESITA DE SANTA ROSA", "MONTO ASIGNADO (PESOS)": 266522, "LATITUD": 20.954642, "LONGITUD": -100.819109 }, "geometry": { "type": "Point", "coordinates": [ -100.819109, 20.954642 ] } },
{ "type": "Feature", "properties": { "NO": 44, "ENTIDAD": "GUANAJUATO", "MUNICIPIO": "SAN MIGUEL DE ALLENDE", "PUEBLO INDIGENA O AFROMEXICANO": "OTOMÍ", "LOCALIDAD": "SAN ISIDRO DE BANDITA", "CLAVE LOC": 110030273, "TIPO DE ASENTAMIENTO": "COMUNIDAD INDIGENA", "NOMBRE": "SAN ISIDRO DE BANDITA", "MONTO ASIGNADO (PESOS)": 214787, "LATITUD": 20.963629, "LONGITUD": -100.83161 }, "geometry": { "type": "Point", "coordinates": [ -100.83161, 20.963629 ] } },
{ "type": "Feature", "properties": { "NO": 45, "ENTIDAD": "GUANAJUATO", "MUNICIPIO": "SAN MIGUEL DE ALLENDE", "PUEBLO INDIGENA O AFROMEXICANO": "OTOMÍ", "LOCALIDAD": "SAN MARTIN DE LA PETACA", "CLAVE LOC": 110030426, "TIPO DE ASENTAMIENTO": "COMUNIDAD INDIGENA", "NOMBRE": "SAN MARTÍN DE LA PETACA", "MONTO ASIGNADO (PESOS)": 414454, "LATITUD": -100.794344, "LONGITUD": 1898.0 }, "geometry": { "type": "Point", "coordinates": [ 1898.0, -100.794344 ] } },
{ "type": "Feature", "properties": { "NO": 46, "ENTIDAD": "GUANAJUATO", "MUNICIPIO": "SAN MIGUEL DE ALLENDE", "PUEBLO INDIGENA O AFROMEXICANO": "OTOMÍ", "LOCALIDAD": "TIERRA BLANCA DE ABAJO", "CLAVE LOC": 110030324, "TIPO DE ASENTAMIENTO": "COMUNIDAD INDIGENA", "NOMBRE": "TIERRA BLANCA DE ABAJO", "MONTO ASIGNADO (PESOS)": 545409, "LATITUD": 20.966899, "LONGITUD": -100.874196 }, "geometry": { "type": "Point", "coordinates": [ -100.874196, 20.966899 ] } },
{ "type": "Feature", "properties": { "NO": 47, "ENTIDAD": "GUANAJUATO", "MUNICIPIO": "SAN MIGUEL DE ALLENDE", "PUEBLO INDIGENA O AFROMEXICANO": "OTOMÍ", "LOCALIDAD": "TIERRA BLANCA DE ARRIBA", "CLAVE LOC": 110030326, "TIPO DE ASENTAMIENTO": "COMUNIDAD INDIGENA", "NOMBRE": "TIERRA BLANCA DE ARRIBA", "MONTO ASIGNADO (PESOS)": 422537, "LATITUD": 21.045144, "LONGITUD": -100.753671 }, "geometry": { "type": "Point", "coordinates": [ -100.753671, 21.045144 ] } },
{ "type": "Feature", "properties": { "NO": 48, "ENTIDAD": "GUANAJUATO", "MUNICIPIO": "SAN MIGUEL DE ALLENDE", "PUEBLO INDIGENA O AFROMEXICANO": "OTOMÍ", "LOCALIDAD": "TLAXCALILLA", "CLAVE LOC": 110030855, "TIPO DE ASENTAMIENTO": "COMUNIDAD INDIGENA", "NOMBRE": "TLAXCALILLA", "MONTO ASIGNADO (PESOS)": 298618, "LATITUD": 20.889446, "LONGITUD": -100.845849 }, "geometry": { "type": "Point", "coordinates": [ -100.845849, 20.889446 ] } },
{ "type": "Feature", "properties": { "NO": 49, "ENTIDAD": "GUANAJUATO", "MUNICIPIO": "SAN MIGUEL DE ALLENDE", "PUEBLO INDIGENA O AFROMEXICANO": "OTOMÍ", "LOCALIDAD": "VIVIENDA DE ABAJO", "CLAVE LOC": 110030382, "TIPO DE ASENTAMIENTO": "COMUNIDAD INDIGENA", "NOMBRE": "LA VIVIENDA DE ABAJO", "MONTO ASIGNADO (PESOS)": 803848, "LATITUD": 20.942876, "LONGITUD": -100.798629 }, "geometry": { "type": "Point", "coordinates": [ -100.798629, 20.942876 ] } },
{ "type": "Feature", "properties": { "NO": 50, "ENTIDAD": "GUANAJUATO", "MUNICIPIO": "SANTA CATARINA", "PUEBLO INDIGENA O AFROMEXICANO": "CHICHIMECO", "LOCALIDAD": "LOS JUAN DIEGOS", "CLAVE LOC": 110340016, "TIPO DE ASENTAMIENTO": "COMUNIDAD INDIGENA", "NOMBRE": "LOS JUAN DIEGOS", "MONTO ASIGNADO (PESOS)": 293198, "LATITUD": 21.13813, "LONGITUD": -100.056737 }, "geometry": { "type": "Point", "coordinates": [ -100.056737, 21.13813 ] } },
{ "type": "Feature", "properties": { "NO": 51, "ENTIDAD": "GUANAJUATO", "MUNICIPIO": "TIERRA BLANCA", "PUEBLO INDIGENA O AFROMEXICANO": "OTOMÍ", "LOCALIDAD": "ARROYO SECO", "CLAVE LOC": 110400004, "TIPO DE ASENTAMIENTO": "COMUNIDAD INDIGENA", "NOMBRE": "ARROYO SECO", "MONTO ASIGNADO (PESOS)": 520350, "LATITUD": 21.206133, "LONGITUD": -100.192238 }, "geometry": { "type": "Point", "coordinates": [ -100.192238, 21.206133 ] } },
{ "type": "Feature", "properties": { "NO": 52, "ENTIDAD": "GUANAJUATO", "MUNICIPIO": "TIERRA BLANCA", "PUEBLO INDIGENA O AFROMEXICANO": "OTOMÍ", "LOCALIDAD": "CANO DE SAN ISIDRO", "CLAVE LOC": 110400057, "TIPO DE ASENTAMIENTO": "COMUNIDAD INDIGENA", "NOMBRE": "CANO DE SAN ISIDRO", "MONTO ASIGNADO (PESOS)": 936660, "LATITUD": 21.070512, "LONGITUD": -100.224181 }, "geometry": { "type": "Point", "coordinates": [ -100.224181, 21.070512 ] } },
{ "type": "Feature", "properties": { "NO": 53, "ENTIDAD": "GUANAJUATO", "MUNICIPIO": "TIERRA BLANCA", "PUEBLO INDIGENA O AFROMEXICANO": "OTOMÍ", "LOCALIDAD": "CAÑADA DE JUANICA", "CLAVE LOC": 110400056, "TIPO DE ASENTAMIENTO": "COMUNIDAD INDIGENA", "NOMBRE": "CAÑADA DE JUANICA", "MONTO ASIGNADO (PESOS)": 471848, "LATITUD": 21.077482, "LONGITUD": -100.173078 }, "geometry": { "type": "Point", "coordinates": [ -100.173078, 21.077482 ] } },
{ "type": "Feature", "properties": { "NO": 54, "ENTIDAD": "GUANAJUATO", "MUNICIPIO": "TIERRA BLANCA", "PUEBLO INDIGENA O AFROMEXICANO": "OTOMÍ", "LOCALIDAD": "CERRO COLORADO", "CLAVE LOC": 110400009, "TIPO DE ASENTAMIENTO": "COMUNIDAD INDIGENA", "NOMBRE": "CERRO COLORADO", "MONTO ASIGNADO (PESOS)": 853398, "LATITUD": 20.401775, "LONGITUD": -101.326442 }, "geometry": { "type": "Point", "coordinates": [ -101.326442, 20.401775 ] } },
{ "type": "Feature", "properties": { "NO": 55, "ENTIDAD": "GUANAJUATO", "MUNICIPIO": "TIERRA BLANCA", "PUEBLO INDIGENA O AFROMEXICANO": "OTOMÍ", "LOCALIDAD": "CIENEGUILLA", "CLAVE LOC": 110400010, "TIPO DE ASENTAMIENTO": "COMUNIDAD INDIGENA", "NOMBRE": "CIENEGUILLA", "MONTO ASIGNADO (PESOS)": 745076, "LATITUD": 21.247408, "LONGITUD": -100.280631 }, "geometry": { "type": "Point", "coordinates": [ -100.280631, 21.247408 ] } },
{ "type": "Feature", "properties": { "NO": 56, "ENTIDAD": "GUANAJUATO", "MUNICIPIO": "TIERRA BLANCA", "PUEBLO INDIGENA O AFROMEXICANO": "OTOMÍ", "LOCALIDAD": "EL PICACHO", "CLAVE LOC": 110400035, "TIPO DE ASENTAMIENTO": "COMUNIDAD INDIGENA", "NOMBRE": "EL PICACHO", "MONTO ASIGNADO (PESOS)": 747502, "LATITUD": 21.399638, "LONGITUD": -100.243436 }, "geometry": { "type": "Point", "coordinates": [ -100.243436, 21.399638 ] } },
{ "type": "Feature", "properties": { "NO": 57, "ENTIDAD": "GUANAJUATO", "MUNICIPIO": "TIERRA BLANCA", "PUEBLO INDIGENA O AFROMEXICANO": "OTOMÍ", "LOCALIDAD": "EL PROGRESO", "CLAVE LOC": 110400087, "TIPO DE ASENTAMIENTO": "COMUNIDAD INDIGENA", "NOMBRE": "EL PROGRESO", "MONTO ASIGNADO (PESOS)": 315024, "LATITUD": 21.077702, "LONGITUD": -100.185104 }, "geometry": { "type": "Point", "coordinates": [ -100.185104, 21.077702 ] } },
{ "type": "Feature", "properties": { "NO": 58, "ENTIDAD": "GUANAJUATO", "MUNICIPIO": "TIERRA BLANCA", "PUEBLO INDIGENA O AFROMEXICANO": "OTOMÍ", "LOCALIDAD": "EL SALTO", "CLAVE LOC": 110400040, "TIPO DE ASENTAMIENTO": "COMUNIDAD INDIGENA", "NOMBRE": "EL SALTO", "MONTO ASIGNADO (PESOS)": 359485, "LATITUD": 21.381448, "LONGITUD": -100.327138 }, "geometry": { "type": "Point", "coordinates": [ -100.327138, 21.381448 ] } },
{ "type": "Feature", "properties": { "NO": 59, "ENTIDAD": "GUANAJUATO", "MUNICIPIO": "TIERRA BLANCA", "PUEBLO INDIGENA O AFROMEXICANO": "OTOMÍ", "LOCALIDAD": "EL SAUZ", "CLAVE LOC": 110400042, "TIPO DE ASENTAMIENTO": "COMUNIDAD INDIGENA", "NOMBRE": "EL SAUZ", "MONTO ASIGNADO (PESOS)": 458106, "LATITUD": 20.1235, "LONGITUD": -101.38871 }, "geometry": { "type": "Point", "coordinates": [ -101.38871, 20.1235 ] } },
{ "type": "Feature", "properties": { "NO": 60, "ENTIDAD": "GUANAJUATO", "MUNICIPIO": "TIERRA BLANCA", "PUEBLO INDIGENA O AFROMEXICANO": "OTOMÍ", "LOCALIDAD": "FRACCION DE GUADALUPE", "CLAVE LOC": 110400016, "TIPO DE ASENTAMIENTO": "COMUNIDAD INDIGENA", "NOMBRE": "FRACCIÓN DE GUADALUPE", "MONTO ASIGNADO (PESOS)": 905942, "LATITUD": 21.126201, "LONGITUD": -100.153509 }, "geometry": { "type": "Point", "coordinates": [ -100.153509, 21.126201 ] } },
{ "type": "Feature", "properties": { "NO": 61, "ENTIDAD": "GUANAJUATO", "MUNICIPIO": "TIERRA BLANCA", "PUEBLO INDIGENA O AFROMEXICANO": "OTOMÍ", "LOCALIDAD": "FRACCION DEL CANO", "CLAVE LOC": 110400006, "TIPO DE ASENTAMIENTO": "COMUNIDAD INDIGENA", "NOMBRE": "FRACCIÓN DEL CANO", "MONTO ASIGNADO (PESOS)": 551876, "LATITUD": 21.063739, "LONGITUD": -100.227464 }, "geometry": { "type": "Point", "coordinates": [ -100.227464, 21.063739 ] } },
{ "type": "Feature", "properties": { "NO": 62, "ENTIDAD": "GUANAJUATO", "MUNICIPIO": "TIERRA BLANCA", "PUEBLO INDIGENA O AFROMEXICANO": "OTOMÍ", "LOCALIDAD": "GUADALUPE", "CLAVE LOC": 110400018, "TIPO DE ASENTAMIENTO": "COMUNIDAD INDIGENA", "NOMBRE": "EL GUADALUPE", "MONTO ASIGNADO (PESOS)": 475081, "LATITUD": 21.406135, "LONGITUD": -100.0305 }, "geometry": { "type": "Point", "coordinates": [ -100.0305, 21.406135 ] } },
{ "type": "Feature", "properties": { "NO": 63, "ENTIDAD": "GUANAJUATO", "MUNICIPIO": "TIERRA BLANCA", "PUEBLO INDIGENA O AFROMEXICANO": "OTOMÍ", "LOCALIDAD": "LA BARBOSA", "CLAVE LOC": 110400069, "TIPO DE ASENTAMIENTO": "COMUNIDAD INDIGENA", "NOMBRE": "LA BARBOSA", "MONTO ASIGNADO (PESOS)": 303227, "LATITUD": 21.115403, "LONGITUD": -100.241406 }, "geometry": { "type": "Point", "coordinates": [ -100.241406, 21.115403 ] } },
{ "type": "Feature", "properties": { "NO": 64, "ENTIDAD": "GUANAJUATO", "MUNICIPIO": "TIERRA BLANCA", "PUEBLO INDIGENA O AFROMEXICANO": "OTOMÍ", "LOCALIDAD": "LA CUESTA DE PEÑONES", "CLAVE LOC": 110400011, "TIPO DE ASENTAMIENTO": "COMUNIDAD INDIGENA", "NOMBRE": "LA CUESTA DE PEÑONES", "MONTO ASIGNADO (PESOS)": 1163003, "LATITUD": 21.082912, "LONGITUD": -100.234867 }, "geometry": { "type": "Point", "coordinates": [ -100.234867, 21.082912 ] } },
{ "type": "Feature", "properties": { "NO": 65, "ENTIDAD": "GUANAJUATO", "MUNICIPIO": "TIERRA BLANCA", "PUEBLO INDIGENA O AFROMEXICANO": "OTOMÍ", "LOCALIDAD": "LAS ADJUNTAS", "CLAVE LOC": 110400002, "TIPO DE ASENTAMIENTO": "COMUNIDAD INDIGENA", "NOMBRE": "LAS ADJUNTAS", "MONTO ASIGNADO (PESOS)": 323916, "LATITUD": 21.041557, "LONGITUD": -100.182276 }, "geometry": { "type": "Point", "coordinates": [ -100.182276, 21.041557 ] } },
{ "type": "Feature", "properties": { "NO": 66, "ENTIDAD": "GUANAJUATO", "MUNICIPIO": "TIERRA BLANCA", "PUEBLO INDIGENA O AFROMEXICANO": "OTOMÍ", "LOCALIDAD": "LAS MORAS", "CLAVE LOC": 110400029, "TIPO DE ASENTAMIENTO": "COMUNIDAD INDIGENA", "NOMBRE": "LAS MORAS", "MONTO ASIGNADO (PESOS)": 686874, "LATITUD": 21.072981, "LONGITUD": -100.163056 }, "geometry": { "type": "Point", "coordinates": [ -100.163056, 21.072981 ] } },
{ "type": "Feature", "properties": { "NO": 67, "ENTIDAD": "GUANAJUATO", "MUNICIPIO": "TIERRA BLANCA", "PUEBLO INDIGENA O AFROMEXICANO": "OTOMÍ", "LOCALIDAD": "PEÑA BLANCA DE CIENEGUILLA", "CLAVE LOC": 110400104, "TIPO DE ASENTAMIENTO": "COMUNIDAD INDIGENA", "NOMBRE": "PEÑA BLANCA DE CIENEGUILLA", "MONTO ASIGNADO (PESOS)": 210745, "LATITUD": 21.083046, "LONGITUD": -100.188437 }, "geometry": { "type": "Point", "coordinates": [ -100.188437, 21.083046 ] } },
{ "type": "Feature", "properties": { "NO": 68, "ENTIDAD": "GUANAJUATO", "MUNICIPIO": "TIERRA BLANCA", "PUEBLO INDIGENA O AFROMEXICANO": "OTOMÍ", "LOCALIDAD": "PEÑA BLANCA DOS", "CLAVE LOC": 110400034, "TIPO DE ASENTAMIENTO": "COMUNIDAD INDIGENA", "NOMBRE": "PEÑA BLANCA DOS", "MONTO ASIGNADO (PESOS)": 368377, "LATITUD": 21.087227, "LONGITUD": -100.182759 }, "geometry": { "type": "Point", "coordinates": [ -100.182759, 21.087227 ] } },
{ "type": "Feature", "properties": { "NO": 69, "ENTIDAD": "GUANAJUATO", "MUNICIPIO": "TIERRA BLANCA", "PUEBLO INDIGENA O AFROMEXICANO": "OTOMÍ", "LOCALIDAD": "RINCON DEL CANO", "CLAVE LOC": 110400038, "TIPO DE ASENTAMIENTO": "COMUNIDAD INDIGENA", "NOMBRE": "RINCÓN DEL CANO", "MONTO ASIGNADO (PESOS)": 1471800, "LATITUD": 21.059087, "LONGITUD": -100.240691 }, "geometry": { "type": "Point", "coordinates": [ -100.240691, 21.059087 ] } },
{ "type": "Feature", "properties": { "NO": 70, "ENTIDAD": "GUANAJUATO", "MUNICIPIO": "TIERRA BLANCA", "PUEBLO INDIGENA O AFROMEXICANO": "OTOMÍ", "LOCALIDAD": "TORRECITAS", "CLAVE LOC": 110400047, "TIPO DE ASENTAMIENTO": "COMUNIDAD INDIGENA", "NOMBRE": "TORRECITAS", "MONTO ASIGNADO (PESOS)": 686874, "LATITUD": 21.084454, "LONGITUD": -100.201877 }, "geometry": { "type": "Point", "coordinates": [ -100.201877, 21.084454 ] } },
{ "type": "Feature", "properties": { "NO": 71, "ENTIDAD": "GUANAJUATO", "MUNICIPIO": "TIERRA BLANCA", "PUEBLO INDIGENA O AFROMEXICANO": "OTOMÍ", "LOCALIDAD": "VILLA UNION", "CLAVE LOC": 110400063, "TIPO DE ASENTAMIENTO": "COMUNIDAD INDIGENA", "NOMBRE": "VILLA UNIÓN", "MONTO ASIGNADO (PESOS)": 284306, "LATITUD": 21.077202, "LONGITUD": -100.160029 }, "geometry": { "type": "Point", "coordinates": [ -100.160029, 21.077202 ] } },
{ "type": "Feature", "properties": { "NO": 72, "ENTIDAD": "GUANAJUATO", "MUNICIPIO": "TIERRA BLANCA", "PUEBLO INDIGENA O AFROMEXICANO": "OTOMÍ", "LOCALIDAD": "XOCONOXTLE", "CLAVE LOC": 110400051, "TIPO DE ASENTAMIENTO": "COMUNIDAD INDIGENA", "NOMBRE": "EL XOCONOSTLE", "MONTO ASIGNADO (PESOS)": 251721, "LATITUD": 20.240494, "LONGITUD": -101.290052 }, "geometry": { "type": "Point", "coordinates": [ -101.290052, 20.240494 ] } },
{ "type": "Feature", "properties": { "NO": 73, "ENTIDAD": "GUANAJUATO", "MUNICIPIO": "VICTORIA", "PUEBLO INDIGENA O AFROMEXICANO": "CHICHIMECO", "LOCALIDAD": "CIENEGUILLA", "CLAVE LOC": 110430108, "TIPO DE ASENTAMIENTO": "COMUNIDAD INDIGENA", "NOMBRE": "CIENEGUILLA", "MONTO ASIGNADO (PESOS)": 1226056, "LATITUD": 21.247408, "LONGITUD": -100.280631 }, "geometry": { "type": "Point", "coordinates": [ -100.280631, 21.247408 ] } },
{ "type": "Feature", "properties": { "NO": 74, "ENTIDAD": "GUANAJUATO", "MUNICIPIO": "VICTORIA", "PUEBLO INDIGENA O AFROMEXICANO": "CHICHIMECO", "LOCALIDAD": "CORRAL DE PIEDRA", "CLAVE LOC": 110430021, "TIPO DE ASENTAMIENTO": "COMUNIDAD INDIGENA", "NOMBRE": "CORRAL DE PIEDRA", "MONTO ASIGNADO (PESOS)": 203470, "LATITUD": 21.207047, "LONGITUD": -100.242333 }, "geometry": { "type": "Point", "coordinates": [ -100.242333, 21.207047 ] } },
{ "type": "Feature", "properties": { "NO": 75, "ENTIDAD": "GUANAJUATO", "MUNICIPIO": "VICTORIA", "PUEBLO INDIGENA O AFROMEXICANO": "CHICHIMECO", "LOCALIDAD": "CORRALILLOS", "CLAVE LOC": 110430022, "TIPO DE ASENTAMIENTO": "COMUNIDAD INDIGENA", "NOMBRE": "CORRALILLOS", "MONTO ASIGNADO (PESOS)": 442747, "LATITUD": 21.16742, "LONGITUD": -100.199509 }, "geometry": { "type": "Point", "coordinates": [ -100.199509, 21.16742 ] } },
{ "type": "Feature", "properties": { "NO": 76, "ENTIDAD": "GUANAJUATO", "MUNICIPIO": "VICTORIA", "PUEBLO INDIGENA O AFROMEXICANO": "CHICHIMECO", "LOCALIDAD": "EL CARMEN", "CLAVE LOC": 110430016, "TIPO DE ASENTAMIENTO": "COMUNIDAD INDIGENA", "NOMBRE": "EL CARMEN", "MONTO ASIGNADO (PESOS)": 765286, "LATITUD": 21.24067, "LONGITUD": -100.318834 }, "geometry": { "type": "Point", "coordinates": [ -100.318834, 21.24067 ] } },
{ "type": "Feature", "properties": { "NO": 77, "ENTIDAD": "GUANAJUATO", "MUNICIPIO": "VICTORIA", "PUEBLO INDIGENA O AFROMEXICANO": "CHICHIMECO", "LOCALIDAD": "LA CALERA", "CLAVE LOC": 110430012, "TIPO DE ASENTAMIENTO": "COMUNIDAD INDIGENA", "NOMBRE": "LA CALERA", "MONTO ASIGNADO (PESOS)": 221254, "LATITUD": 20.156048, "LONGITUD": -101.339702 }, "geometry": { "type": "Point", "coordinates": [ -101.339702, 20.156048 ] } },
{ "type": "Feature", "properties": { "NO": 78, "ENTIDAD": "GUANAJUATO", "MUNICIPIO": "VICTORIA", "PUEBLO INDIGENA O AFROMEXICANO": "CHICHIMECO", "LOCALIDAD": "LA ESTANCIA", "CLAVE LOC": 110430028, "TIPO DE ASENTAMIENTO": "COMUNIDAD INDIGENA", "NOMBRE": "LA ESTANCIA", "MONTO ASIGNADO (PESOS)": 627897, "LATITUD": 21.260966, "LONGITUD": -100.213199 }, "geometry": { "type": "Point", "coordinates": [ -100.213199, 21.260966 ] } },
{ "type": "Feature", "properties": { "NO": 79, "ENTIDAD": "GUANAJUATO", "MUNICIPIO": "VICTORIA", "PUEBLO INDIGENA O AFROMEXICANO": "CHICHIMECO", "LOCALIDAD": "LOS REMEDIOS (CERRO GRANDE)", "CLAVE LOC": 110430072, "TIPO DE ASENTAMIENTO": "COMUNIDAD INDIGENA", "NOMBRE": "LOS REMEDIOS (CERRO GRANDE)", "MONTO ASIGNADO (PESOS)": 894625, "LATITUD": 21.185444, "LONGITUD": -100.199312 }, "geometry": { "type": "Point", "coordinates": [ -100.199312, 21.185444 ] } },
{ "type": "Feature", "properties": { "NO": 80, "ENTIDAD": "GUANAJUATO", "MUNICIPIO": "VICTORIA", "PUEBLO INDIGENA O AFROMEXICANO": "CHICHIMECO", "LOCALIDAD": "MALINTO", "CLAVE LOC": 110430037, "TIPO DE ASENTAMIENTO": "COMUNIDAD INDIGENA", "NOMBRE": "MALINTO", "MONTO ASIGNADO (PESOS)": 483973, "LATITUD": 21.276752, "LONGITUD": -100.318911 }, "geometry": { "type": "Point", "coordinates": [ -100.318911, 21.276752 ] } },
{ "type": "Feature", "properties": { "NO": 81, "ENTIDAD": "GUANAJUATO", "MUNICIPIO": "VICTORIA", "PUEBLO INDIGENA O AFROMEXICANO": "CHICHIMECO", "LOCALIDAD": "MESA DE ORTIZ", "CLAVE LOC": 110430043, "TIPO DE ASENTAMIENTO": "COMUNIDAD INDIGENA", "NOMBRE": "MESA DE ORTIZ", "MONTO ASIGNADO (PESOS)": 143650, "LATITUD": 21.190512, "LONGITUD": -100.231844 }, "geometry": { "type": "Point", "coordinates": [ -100.231844, 21.190512 ] } },
{ "type": "Feature", "properties": { "NO": 82, "ENTIDAD": "GUANAJUATO", "MUNICIPIO": "VICTORIA", "PUEBLO INDIGENA O AFROMEXICANO": "CHICHIMECO", "LOCALIDAD": "MISION DE ARNEDO", "CLAVE LOC": 110430048, "TIPO DE ASENTAMIENTO": "COMUNIDAD INDIGENA", "NOMBRE": "MISIÓN DE ARNEDO", "MONTO ASIGNADO (PESOS)": 952827, "LATITUD": 21.230565, "LONGITUD": -100.252038 }, "geometry": { "type": "Point", "coordinates": [ -100.252038, 21.230565 ] } },
{ "type": "Feature", "properties": { "NO": 83, "ENTIDAD": "GUANAJUATO", "MUNICIPIO": "VICTORIA", "PUEBLO INDIGENA O AFROMEXICANO": "CHICHIMECO", "LOCALIDAD": "NEGRITAS", "CLAVE LOC": 110430053, "TIPO DE ASENTAMIENTO": "COMUNIDAD INDIGENA", "NOMBRE": "NEGRITAS", "MONTO ASIGNADO (PESOS)": 146075, "LATITUD": 21.224419, "LONGITUD": -100.298722 }, "geometry": { "type": "Point", "coordinates": [ -100.298722, 21.224419 ] } },
{ "type": "Feature", "properties": { "NO": 84, "ENTIDAD": "GUANAJUATO", "MUNICIPIO": "VICTORIA", "PUEBLO INDIGENA O AFROMEXICANO": "CHICHIMECO", "LOCALIDAD": "PALMILLAS", "CLAVE LOC": 110430056, "TIPO DE ASENTAMIENTO": "COMUNIDAD INDIGENA", "NOMBRE": "PALMILLAS", "MONTO ASIGNADO (PESOS)": 657773, "LATITUD": 21.236903, "LONGITUD": -100.228769 }, "geometry": { "type": "Point", "coordinates": [ -100.228769, 21.236903 ] } },
{ "type": "Feature", "properties": { "NO": 85, "ENTIDAD": "GUANAJUATO", "MUNICIPIO": "VICTORIA", "PUEBLO INDIGENA O AFROMEXICANO": "CHICHIMECO", "LOCALIDAD": "XACALAZUCHITL", "CLAVE LOC": 110430095, "TIPO DE ASENTAMIENTO": "COMUNIDAD INDIGENA", "NOMBRE": "XACALÁZUCHITL", "MONTO ASIGNADO (PESOS)": 198619, "LATITUD": 21.191775, "LONGITUD": -100.210543 }, "geometry": { "type": "Point", "coordinates": [ -100.210543, 21.191775 ] } },
{ "type": "Feature", "properties": { "NO": 86, "ENTIDAD": "GUANAJUATO", "MUNICIPIO": "VILLAGRAN", "PUEBLO INDIGENA O AFROMEXICANO": "OTOMÍ", "LOCALIDAD": "SUCHITLAN", "CLAVE LOC": 110440044, "TIPO DE ASENTAMIENTO": "COMUNIDAD INDIGENA", "NOMBRE": "SUCHITLÁN", "MONTO ASIGNADO (PESOS)": 1531619, "LATITUD": 20.533064, "LONGITUD": -101.024504 }, "geometry": { "type": "Point", "coordinates": [ -101.024504, 20.533064 ] } },
{ "type": "Feature", "properties": { "NO": 87, "ENTIDAD": "GUANAJUATO", "MUNICIPIO": "XICHU", "PUEBLO INDIGENA O AFROMEXICANO": "CHICHIMECO", "LOCALIDAD": "AURORA", "CLAVE LOC": 110450006, "TIPO DE ASENTAMIENTO": "COMUNIDAD INDIGENA", "NOMBRE": "LA AURORA", "MONTO ASIGNADO (PESOS)": 113741, "LATITUD": 21.325685, "LONGITUD": -100.034928 }, "geometry": { "type": "Point", "coordinates": [ -100.034928, 21.325685 ] } },
{ "type": "Feature", "properties": { "NO": 88, "ENTIDAD": "GUANAJUATO", "MUNICIPIO": "XICHU", "PUEBLO INDIGENA O AFROMEXICANO": "CHICHIMECO", "LOCALIDAD": "EL RUCIO", "CLAVE LOC": 110450047, "TIPO DE ASENTAMIENTO": "COMUNIDAD INDIGENA", "NOMBRE": "EL RUCIO", "MONTO ASIGNADO (PESOS)": 907649, "LATITUD": 21.290924, "LONGITUD": -99.87918 }, "geometry": { "type": "Point", "coordinates": [ -99.87918, 21.290924 ] } },
{ "type": "Feature", "properties": { "NO": 89, "ENTIDAD": "GUANAJUATO", "MUNICIPIO": "XICHU", "PUEBLO INDIGENA O AFROMEXICANO": "CHICHIMECO", "LOCALIDAD": "LLANETES", "CLAVE LOC": 110450021, "TIPO DE ASENTAMIENTO": "COMUNIDAD INDIGENA", "NOMBRE": "LLANETES", "MONTO ASIGNADO (PESOS)": 189727, "LATITUD": 21.348528, "LONGITUD": -99.95958 }, "geometry": { "type": "Point", "coordinates": [ -99.95958, 21.348528 ] } },
{ "type": "Feature", "properties": { "NO": 90, "ENTIDAD": "GUANAJUATO", "MUNICIPIO": "XICHU", "PUEBLO INDIGENA O AFROMEXICANO": "CHICHIMECO", "LOCALIDAD": "MISION DE SANTA ROSA", "CLAVE LOC": 110450030, "TIPO DE ASENTAMIENTO": "COMUNIDAD INDIGENA", "NOMBRE": "MISIÓN DE SANTA ROSA", "MONTO ASIGNADO (PESOS)": 1081374, "LATITUD": 21.287372, "LONGITUD": -100.087935 }, "geometry": { "type": "Point", "coordinates": [ -100.087935, 21.287372 ] } },
{ "type": "Feature", "properties": { "NO": 91, "ENTIDAD": "GUANAJUATO", "MUNICIPIO": "XICHU", "PUEBLO INDIGENA O AFROMEXICANO": "CHICHIMECO", "LOCALIDAD": "PALOMAS", "CLAVE LOC": 110450036, "TIPO DE ASENTAMIENTO": "COMUNIDAD INDIGENA", "NOMBRE": "PALOMAS", "MONTO ASIGNADO (PESOS)": 327150, "LATITUD": 21.37747, "LONGITUD": -99.850447 }, "geometry": { "type": "Point", "coordinates": [ -99.850447, 21.37747 ] } }
]
}
