{
"type": "FeatureCollection",
"name": "nayarit_loc_monto",
"crs": { "type": "name", "properties": { "name": "urn:ogc:def:crs:OGC:1.3:CRS84" } },
"features": [
{ "type": "Feature", "properties": { "NO": 1, "ENTIDAD": "NAYARIT", "MUNICIPIO": "ACAPONETA", "PUEBLO INDIGENA O AFROMEXICANO": "TEPEHUANO DEL\nSUR", "LOCALIDAD": "EL NARANJO", "CLAVE LOC": 180010088, "TIPO DE ASENTAMIENTO": "COMUNIDAD INDIGENA", "NOMBRE": "EL NARANJO", "MONTO ASIGNADO (PESOS)": 440082, "LATITUD": 20.930066, "LONGITUD": -105.089905 }, "geometry": { "type": "Point", "coordinates": [ -105.089905, 20.930066 ] } },
{ "type": "Feature", "properties": { "NO": 2, "ENTIDAD": "NAYARIT", "MUNICIPIO": "ACAPONETA", "PUEBLO INDIGENA O AFROMEXICANO": "TEPEHUANO DEL\nSUR", "LOCALIDAD": "LA LAGUNITA", "CLAVE LOC": 180010137, "TIPO DE ASENTAMIENTO": "COMUNIDAD INDIGENA", "NOMBRE": "LA LAGUNITA", "MONTO ASIGNADO (PESOS)": 152542, "LATITUD": 21.508263, "LONGITUD": -104.022956 }, "geometry": { "type": "Point", "coordinates": [ -104.022956, 21.508263 ] } },
{ "type": "Feature", "properties": { "NO": 3, "ENTIDAD": "NAYARIT", "MUNICIPIO": "ACAPONETA", "PUEBLO INDIGENA O AFROMEXICANO": "TEPEHUANO DEL\nSUR", "LOCALIDAD": "LAS MESITAS", "CLAVE LOC": 180010059, "TIPO DE ASENTAMIENTO": "COMUNIDAD INDIGENA", "NOMBRE": "LAS MESITAS", "MONTO ASIGNADO (PESOS)": 141171, "LATITUD": 21.385844, "LONGITUD": -104.071329 }, "geometry": { "type": "Point", "coordinates": [ -104.071329, 21.385844 ] } },
{ "type": "Feature", "properties": { "NO": 4, "ENTIDAD": "NAYARIT", "MUNICIPIO": "ACAPONETA", "PUEBLO INDIGENA O AFROMEXICANO": "CORA", "LOCALIDAD": "SAN BLASITO", "CLAVE LOC": 180010086, "TIPO DE ASENTAMIENTO": "COMUNIDAD INDIGENA", "NOMBRE": "SAN BLASITO", "MONTO ASIGNADO (PESOS)": 1102074, "LATITUD": 20.698684, "LONGITUD": -104.293149 }, "geometry": { "type": "Point", "coordinates": [ -104.293149, 20.698684 ] } },
{ "type": "Feature", "properties": { "NO": 5, "ENTIDAD": "NAYARIT", "MUNICIPIO": "ACAPONETA", "PUEBLO INDIGENA O AFROMEXICANO": "MEXIKAN", "LOCALIDAD": "SANTA CRUZ", "CLAVE LOC": 180010096, "TIPO DE ASENTAMIENTO": "COMUNIDAD INDIGENA", "NOMBRE": "SANTA CRUZ", "MONTO ASIGNADO (PESOS)": 536650, "LATITUD": 21.354586, "LONGITUD": -103.986801 }, "geometry": { "type": "Point", "coordinates": [ -103.986801, 21.354586 ] } },
{ "type": "Feature", "properties": { "NO": 6, "ENTIDAD": "NAYARIT", "MUNICIPIO": "ACAPONETA", "PUEBLO INDIGENA O AFROMEXICANO": "CORA", "LOCALIDAD": "SAYCOTA", "CLAVE LOC": 180010097, "TIPO DE ASENTAMIENTO": "COMUNIDAD INDIGENA", "NOMBRE": "SAYCOTA", "MONTO ASIGNADO (PESOS)": 1589490, "LATITUD": 22.450479, "LONGITUD": -105.059463 }, "geometry": { "type": "Point", "coordinates": [ -105.059463, 22.450479 ] } },
{ "type": "Feature", "properties": { "NO": 7, "ENTIDAD": "NAYARIT", "MUNICIPIO": "COMPOSTELA", "PUEBLO INDIGENA O AFROMEXICANO": "WIXÁRIKA\n(HUICHOL)", "LOCALIDAD": "TAIMARITA", "CLAVE LOC": 180040460, "TIPO DE ASENTAMIENTO": "COMUNIDAD INDIGENA", "NOMBRE": "TAIMARITA", "MONTO ASIGNADO (PESOS)": 86256, "LATITUD": 21.193841, "LONGITUD": -105.0512 }, "geometry": { "type": "Point", "coordinates": [ -105.0512, 21.193841 ] } },
{ "type": "Feature", "properties": { "NO": 8, "ENTIDAD": "NAYARIT", "MUNICIPIO": "DEL NAYAR", "PUEBLO INDIGENA O AFROMEXICANO": "WIXÁRIKA\n(HUICHOL)", "LOCALIDAD": "AGUAMILPA", "CLAVE LOC": 180090589, "TIPO DE ASENTAMIENTO": "COMUNIDAD INDIGENA", "NOMBRE": "AGUAMILPA", "MONTO ASIGNADO (PESOS)": 345939, "LATITUD": 20.919809, "LONGITUD": -105.030385 }, "geometry": { "type": "Point", "coordinates": [ -105.030385, 20.919809 ] } },
{ "type": "Feature", "properties": { "NO": 9, "ENTIDAD": "NAYARIT", "MUNICIPIO": "DEL NAYAR", "PUEBLO INDIGENA O AFROMEXICANO": "WIXÁRIKA\n(HUICHOL)", "LOCALIDAD": "ATONALISCO", "CLAVE LOC": 180091411, "TIPO DE ASENTAMIENTO": "COMUNIDAD INDIGENA", "NOMBRE": "ATONALISCO", "MONTO ASIGNADO (PESOS)": 426810, "LATITUD": 21.667218, "LONGITUD": -104.842108 }, "geometry": { "type": "Point", "coordinates": [ -104.842108, 21.667218 ] } },
{ "type": "Feature", "properties": { "NO": 10, "ENTIDAD": "NAYARIT", "MUNICIPIO": "DEL NAYAR", "PUEBLO INDIGENA O AFROMEXICANO": "WIXÁRIKA\n(HUICHOL)", "LOCALIDAD": "CUAUHTEMOC", "CLAVE LOC": 180090653, "TIPO DE ASENTAMIENTO": "COMUNIDAD INDIGENA", "NOMBRE": "CUAUHTÉMOC", "MONTO ASIGNADO (PESOS)": 434347, "LATITUD": 21.852255, "LONGITUD": -104.550624 }, "geometry": { "type": "Point", "coordinates": [ -104.550624, 21.852255 ] } },
{ "type": "Feature", "properties": { "NO": 11, "ENTIDAD": "NAYARIT", "MUNICIPIO": "DEL NAYAR", "PUEBLO INDIGENA O AFROMEXICANO": "WIXÁRIKA\n(HUICHOL)", "LOCALIDAD": "EL COLORIN", "CLAVE LOC": 180090037, "TIPO DE ASENTAMIENTO": "COMUNIDAD INDIGENA", "NOMBRE": "EL COLORÍN", "MONTO ASIGNADO (PESOS)": 929433, "LATITUD": 21.844434, "LONGITUD": -104.79899 }, "geometry": { "type": "Point", "coordinates": [ -104.79899, 21.844434 ] } },
{ "type": "Feature", "properties": { "NO": 12, "ENTIDAD": "NAYARIT", "MUNICIPIO": "DEL NAYAR", "PUEBLO INDIGENA O AFROMEXICANO": "WIXÁRIKA\n(HUICHOL)", "LOCALIDAD": "EL CORDON", "CLAVE LOC": 180090039, "TIPO DE ASENTAMIENTO": "COMUNIDAD INDIGENA", "NOMBRE": "EL CORDÓN DE COYULTITA", "MONTO ASIGNADO (PESOS)": 524012, "LATITUD": 21.806824, "LONGITUD": -104.632263 }, "geometry": { "type": "Point", "coordinates": [ -104.632263, 21.806824 ] } },
{ "type": "Feature", "properties": { "NO": 13, "ENTIDAD": "NAYARIT", "MUNICIPIO": "DEL NAYAR", "PUEBLO INDIGENA O AFROMEXICANO": "WIXÁRIKA\n(HUICHOL)", "LOCALIDAD": "EL ROBLE", "CLAVE LOC": 180091200, "TIPO DE ASENTAMIENTO": "COMUNIDAD INDIGENA", "NOMBRE": "EL ROBLE", "MONTO ASIGNADO (PESOS)": 1213300, "LATITUD": 21.857489, "LONGITUD": -104.20121 }, "geometry": { "type": "Point", "coordinates": [ -104.20121, 21.857489 ] } },
{ "type": "Feature", "properties": { "NO": 14, "ENTIDAD": "NAYARIT", "MUNICIPIO": "DEL NAYAR", "PUEBLO INDIGENA O AFROMEXICANO": "WIXÁRIKA\n(HUICHOL)", "LOCALIDAD": "EL SAUCITO PEYOTAN", "CLAVE LOC": 180090278, "TIPO DE ASENTAMIENTO": "COMUNIDAD INDIGENA", "NOMBRE": "EL SAUCITO, PEYOTÁN", "MONTO ASIGNADO (PESOS)": 1290165, "LATITUD": 22.333348, "LONGITUD": -104.382305 }, "geometry": { "type": "Point", "coordinates": [ -104.382305, 22.333348 ] } },
{ "type": "Feature", "properties": { "NO": 15, "ENTIDAD": "NAYARIT", "MUNICIPIO": "DEL NAYAR", "PUEBLO INDIGENA O AFROMEXICANO": "WIXÁRIKA\n(HUICHOL)", "LOCALIDAD": "HIGUERA GORDA", "CLAVE LOC": 180090067, "TIPO DE ASENTAMIENTO": "COMUNIDAD INDIGENA", "NOMBRE": "HIGUERA GORDA", "MONTO ASIGNADO (PESOS)": 454982, "LATITUD": 21.687101, "LONGITUD": -104.523908 }, "geometry": { "type": "Point", "coordinates": [ -104.523908, 21.687101 ] } },
{ "type": "Feature", "properties": { "NO": 16, "ENTIDAD": "NAYARIT", "MUNICIPIO": "DEL NAYAR", "PUEBLO INDIGENA O AFROMEXICANO": "WIXÁRIKA\n(HUICHOL)", "LOCALIDAD": "HUAYNAMOTA", "CLAVE LOC": 180090073, "TIPO DE ASENTAMIENTO": "COMUNIDAD INDIGENA", "NOMBRE": "HUAYNAMOTA", "MONTO ASIGNADO (PESOS)": 1547849, "LATITUD": 21.215287, "LONGITUD": -104.732303 }, "geometry": { "type": "Point", "coordinates": [ -104.732303, 21.215287 ] } },
{ "type": "Feature", "properties": { "NO": 17, "ENTIDAD": "NAYARIT", "MUNICIPIO": "DEL NAYAR", "PUEBLO INDIGENA O AFROMEXICANO": "CORA", "LOCALIDAD": "JESUS MARIA", "CLAVE LOC": 180090001, "TIPO DE ASENTAMIENTO": "COMUNIDAD INDIGENA", "NOMBRE": "JESÚS MARÍA", "MONTO ASIGNADO (PESOS)": 8500428, "LATITUD": 22.251125, "LONGITUD": -104.517942 }, "geometry": { "type": "Point", "coordinates": [ -104.517942, 22.251125 ] } },
{ "type": "Feature", "properties": { "NO": 18, "ENTIDAD": "NAYARIT", "MUNICIPIO": "DEL NAYAR", "PUEBLO INDIGENA O AFROMEXICANO": "WIXÁRIKA\n(HUICHOL)", "LOCALIDAD": "LAGUNA DE LAS VACAS", "CLAVE LOC": 180090782, "TIPO DE ASENTAMIENTO": "COMUNIDAD INDIGENA", "NOMBRE": "LAGUNA DE LAS VACAS", "MONTO ASIGNADO (PESOS)": 160014, "LATITUD": 21.735094, "LONGITUD": -104.458902 }, "geometry": { "type": "Point", "coordinates": [ -104.458902, 21.735094 ] } },
{ "type": "Feature", "properties": { "NO": 19, "ENTIDAD": "NAYARIT", "MUNICIPIO": "DEL NAYAR", "PUEBLO INDIGENA O AFROMEXICANO": "WIXÁRIKA\n(HUICHOL)", "LOCALIDAD": "LAS CUEVAS", "CLAVE LOC": 180090498, "TIPO DE ASENTAMIENTO": "LOCALIDAD CON POBLACION\nINDIGENA", "NOMBRE": "LAS CUEVAS", "MONTO ASIGNADO (PESOS)": 113533, "LATITUD": 21.484917, "LONGITUD": -104.011274 }, "geometry": { "type": "Point", "coordinates": [ -104.011274, 21.484917 ] } },
{ "type": "Feature", "properties": { "NO": 20, "ENTIDAD": "NAYARIT", "MUNICIPIO": "DEL NAYAR", "PUEBLO INDIGENA O AFROMEXICANO": "WIXÁRIKA\n(HUICHOL)", "LOCALIDAD": "LAS GUINEAS DE GUADALUPE", "CLAVE LOC": 180090553, "TIPO DE ASENTAMIENTO": "COMUNIDAD INDIGENA", "NOMBRE": "LAS GUINEAS DE GUADALUPE", "MONTO ASIGNADO (PESOS)": 344683, "LATITUD": 21.862726, "LONGITUD": -104.822253 }, "geometry": { "type": "Point", "coordinates": [ -104.822253, 21.862726 ] } },
{ "type": "Feature", "properties": { "NO": 21, "ENTIDAD": "NAYARIT", "MUNICIPIO": "DEL NAYAR", "PUEBLO INDIGENA O AFROMEXICANO": "WIXÁRIKA\n(HUICHOL)", "LOCALIDAD": "LAS HIGUERAS", "CLAVE LOC": 180090069, "TIPO DE ASENTAMIENTO": "COMUNIDAD INDIGENA", "NOMBRE": "LAS HIGUERAS", "MONTO ASIGNADO (PESOS)": 700202, "LATITUD": 20.836927, "LONGITUD": -105.409855 }, "geometry": { "type": "Point", "coordinates": [ -105.409855, 20.836927 ] } },
{ "type": "Feature", "properties": { "NO": 22, "ENTIDAD": "NAYARIT", "MUNICIPIO": "DEL NAYAR", "PUEBLO INDIGENA O AFROMEXICANO": "CORA", "LOCALIDAD": "MESA DEL NAYAR", "CLAVE LOC": 180090086, "TIPO DE ASENTAMIENTO": "COMUNIDAD INDIGENA", "NOMBRE": "MESA DEL NAYAR", "MONTO ASIGNADO (PESOS)": 18703420, "LATITUD": 22.214905, "LONGITUD": -104.653295 }, "geometry": { "type": "Point", "coordinates": [ -104.653295, 22.214905 ] } },
{ "type": "Feature", "properties": { "NO": 23, "ENTIDAD": "NAYARIT", "MUNICIPIO": "DEL NAYAR", "PUEBLO INDIGENA O AFROMEXICANO": "WIXÁRIKA\n(HUICHOL)", "LOCALIDAD": "NARANJITO DE COPAL", "CLAVE LOC": 180090091, "TIPO DE ASENTAMIENTO": "COMUNIDAD INDIGENA", "NOMBRE": "NARANJITO DE COPAL", "MONTO ASIGNADO (PESOS)": 765527, "LATITUD": 21.622648, "LONGITUD": -104.56711 }, "geometry": { "type": "Point", "coordinates": [ -104.56711, 21.622648 ] } },
{ "type": "Feature", "properties": { "NO": 24, "ENTIDAD": "NAYARIT", "MUNICIPIO": "DEL NAYAR", "PUEBLO INDIGENA O AFROMEXICANO": "WIXÁRIKA\n(HUICHOL)", "LOCALIDAD": "PASO DE ALICA (AGUA BUENA)", "CLAVE LOC": 180090103, "TIPO DE ASENTAMIENTO": "COMUNIDAD INDIGENA", "NOMBRE": "PASO DE ÁLICA", "MONTO ASIGNADO (PESOS)": 264097, "LATITUD": 21.554133, "LONGITUD": -104.539037 }, "geometry": { "type": "Point", "coordinates": [ -104.539037, 21.554133 ] } },
{ "type": "Feature", "properties": { "NO": 25, "ENTIDAD": "NAYARIT", "MUNICIPIO": "DEL NAYAR", "PUEBLO INDIGENA O AFROMEXICANO": "WIXÁRIKA\n(HUICHOL)", "LOCALIDAD": "PLAYA DE GOLONDRINAS", "CLAVE LOC": 180090116, "TIPO DE ASENTAMIENTO": "COMUNIDAD INDIGENA", "NOMBRE": "PLAYA DE GOLONDRINAS", "MONTO ASIGNADO (PESOS)": 363527, "LATITUD": 21.641559, "LONGITUD": -104.597662 }, "geometry": { "type": "Point", "coordinates": [ -104.597662, 21.641559 ] } },
{ "type": "Feature", "properties": { "NO": 26, "ENTIDAD": "NAYARIT", "MUNICIPIO": "DEL NAYAR", "PUEBLO INDIGENA O AFROMEXICANO": "WIXÁRIKA\n(HUICHOL)", "LOCALIDAD": "POTRERO DE LA PALMITA", "CLAVE LOC": 180090717, "TIPO DE ASENTAMIENTO": "COMUNIDAD INDIGENA", "NOMBRE": "POTRERO DE LA PALMITA", "MONTO ASIGNADO (PESOS)": 1057447, "LATITUD": 21.858909, "LONGITUD": -104.709251 }, "geometry": { "type": "Point", "coordinates": [ -104.709251, 21.858909 ] } },
{ "type": "Feature", "properties": { "NO": 27, "ENTIDAD": "NAYARIT", "MUNICIPIO": "DEL NAYAR", "PUEBLO INDIGENA O AFROMEXICANO": "WIXÁRIKA\n(HUICHOL)", "LOCALIDAD": "PUENTE DE CARRIZAL", "CLAVE LOC": 180091440, "TIPO DE ASENTAMIENTO": "LOCALIDAD CON POBLACION\nINDIGENA", "NOMBRE": "PUENTE DE CARRIZAL", "MONTO ASIGNADO (PESOS)": 207752, "LATITUD": 21.829566, "LONGITUD": -104.829401 }, "geometry": { "type": "Point", "coordinates": [ -104.829401, 21.829566 ] } },
{ "type": "Feature", "properties": { "NO": 28, "ENTIDAD": "NAYARIT", "MUNICIPIO": "DEL NAYAR", "PUEBLO INDIGENA O AFROMEXICANO": "CORA", "LOCALIDAD": "SAN FRANCISCO", "CLAVE LOC": 180090126, "TIPO DE ASENTAMIENTO": "COMUNIDAD INDIGENA", "NOMBRE": "SAN FRANCISCO", "MONTO ASIGNADO (PESOS)": 1620403, "LATITUD": 20.902247, "LONGITUD": -105.413344 }, "geometry": { "type": "Point", "coordinates": [ -105.413344, 20.902247 ] } },
{ "type": "Feature", "properties": { "NO": 29, "ENTIDAD": "NAYARIT", "MUNICIPIO": "DEL NAYAR", "PUEBLO INDIGENA O AFROMEXICANO": "WIXÁRIKA\n(HUICHOL)", "LOCALIDAD": "SAN PABLO", "CLAVE LOC": 180090131, "TIPO DE ASENTAMIENTO": "COMUNIDAD INDIGENA", "NOMBRE": "SAN PABLO", "MONTO ASIGNADO (PESOS)": 413777, "LATITUD": 21.708111, "LONGITUD": -104.556346 }, "geometry": { "type": "Point", "coordinates": [ -104.556346, 21.708111 ] } },
{ "type": "Feature", "properties": { "NO": 30, "ENTIDAD": "NAYARIT", "MUNICIPIO": "DEL NAYAR", "PUEBLO INDIGENA O AFROMEXICANO": "WIXÁRIKA\n(HUICHOL)", "LOCALIDAD": "SANTA ROSA", "CLAVE LOC": 180090363, "TIPO DE ASENTAMIENTO": "COMUNIDAD INDIGENA", "NOMBRE": "SANTA ROSA", "MONTO ASIGNADO (PESOS)": 3322336, "LATITUD": 20.925236, "LONGITUD": -105.133195 }, "geometry": { "type": "Point", "coordinates": [ -105.133195, 20.925236 ] } },
{ "type": "Feature", "properties": { "NO": 31, "ENTIDAD": "NAYARIT", "MUNICIPIO": "DEL NAYAR", "PUEBLO INDIGENA O AFROMEXICANO": "CORA", "LOCALIDAD": "SANTA TERESA", "CLAVE LOC": 180090137, "TIPO DE ASENTAMIENTO": "COMUNIDAD INDIGENA", "NOMBRE": "SANTA TERESA", "MONTO ASIGNADO (PESOS)": 16172152, "LATITUD": 22.497132, "LONGITUD": -104.765601 }, "geometry": { "type": "Point", "coordinates": [ -104.765601, 22.497132 ] } },
{ "type": "Feature", "properties": { "NO": 32, "ENTIDAD": "NAYARIT", "MUNICIPIO": "DEL NAYAR", "PUEBLO INDIGENA O AFROMEXICANO": "WIXÁRIKA\n(HUICHOL)", "LOCALIDAD": "ZOQUIPAN", "CLAVE LOC": 180090157, "TIPO DE ASENTAMIENTO": "COMUNIDAD INDIGENA", "NOMBRE": "ZOQUIPAN", "MONTO ASIGNADO (PESOS)": 4706846, "LATITUD": 22.002804, "LONGITUD": -104.542488 }, "geometry": { "type": "Point", "coordinates": [ -104.542488, 22.002804 ] } },
{ "type": "Feature", "properties": { "NO": 33, "ENTIDAD": "NAYARIT", "MUNICIPIO": "HUAJICORI", "PUEBLO INDIGENA O AFROMEXICANO": "TEPEHUANO DEL\nSUR", "LOCALIDAD": "EL PUYEQUE", "CLAVE LOC": 180050211, "TIPO DE ASENTAMIENTO": "COMUNIDAD INDIGENA", "NOMBRE": "EL PUYEQUE", "MONTO ASIGNADO (PESOS)": 813782, "LATITUD": 22.598351, "LONGITUD": -105.222529 }, "geometry": { "type": "Point", "coordinates": [ -105.222529, 22.598351 ] } },
{ "type": "Feature", "properties": { "NO": 34, "ENTIDAD": "NAYARIT", "MUNICIPIO": "HUAJICORI", "PUEBLO INDIGENA O AFROMEXICANO": "TEPEHUANO DEL\nSUR", "LOCALIDAD": "LAS GUASIMAS (LOMA LARGA)", "CLAVE LOC": 180050212, "TIPO DE ASENTAMIENTO": "COMUNIDAD INDIGENA", "NOMBRE": "LAS GUÁSIMAS (LOMA LARGA)", "MONTO ASIGNADO (PESOS)": 265475, "LATITUD": 22.598351, "LONGITUD": -105.222529 }, "geometry": { "type": "Point", "coordinates": [ -105.222529, 22.598351 ] } },
{ "type": "Feature", "properties": { "NO": 35, "ENTIDAD": "NAYARIT", "MUNICIPIO": "HUAJICORI", "PUEBLO INDIGENA O AFROMEXICANO": "TEPEHUANO DEL\nSUR", "LOCALIDAD": "QUIVIQUINTA", "CLAVE LOC": 180050108, "TIPO DE ASENTAMIENTO": "COMUNIDAD INDIGENA", "NOMBRE": "QUIVIQUINTA", "MONTO ASIGNADO (PESOS)": 3405427, "LATITUD": 22.730587, "LONGITUD": -105.333638 }, "geometry": { "type": "Point", "coordinates": [ -105.333638, 22.730587 ] } },
{ "type": "Feature", "properties": { "NO": 36, "ENTIDAD": "NAYARIT", "MUNICIPIO": "HUAJICORI", "PUEBLO INDIGENA O AFROMEXICANO": "TEPEHUANO DEL\nSUR", "LOCALIDAD": "SAN ANDRES MILPILLAS", "CLAVE LOC": 180050116, "TIPO DE ASENTAMIENTO": "COMUNIDAD INDIGENA", "NOMBRE": "SAN ANDRÉS MILPILLAS", "MONTO ASIGNADO (PESOS)": 5431937, "LATITUD": 22.863359, "LONGITUD": -105.117607 }, "geometry": { "type": "Point", "coordinates": [ -105.117607, 22.863359 ] } },
{ "type": "Feature", "properties": { "NO": 37, "ENTIDAD": "NAYARIT", "MUNICIPIO": "HUAJICORI", "PUEBLO INDIGENA O AFROMEXICANO": "TEPEHUANO DEL\nSUR", "LOCALIDAD": "SAN FRANCISCO DEL CAIMAN", "CLAVE LOC": 180050117, "TIPO DE ASENTAMIENTO": "COMUNIDAD INDIGENA", "NOMBRE": "SAN FRANCISCO DEL CAIMÁN", "MONTO ASIGNADO (PESOS)": 316641, "LATITUD": 22.706677, "LONGITUD": -105.46446 }, "geometry": { "type": "Point", "coordinates": [ -105.46446, 22.706677 ] } },
{ "type": "Feature", "properties": { "NO": 38, "ENTIDAD": "NAYARIT", "MUNICIPIO": "HUAJICORI", "PUEBLO INDIGENA O AFROMEXICANO": "TEPEHUANO DEL\nSUR", "LOCALIDAD": "SANTA MARIA DE PICACHOS", "CLAVE LOC": 180050099, "TIPO DE ASENTAMIENTO": "COMUNIDAD INDIGENA", "NOMBRE": "SANTA MARÍA DE PICACHOS", "MONTO ASIGNADO (PESOS)": 1984381, "LATITUD": 22.701511, "LONGITUD": -105.182104 }, "geometry": { "type": "Point", "coordinates": [ -105.182104, 22.701511 ] } },
{ "type": "Feature", "properties": { "NO": 39, "ENTIDAD": "NAYARIT", "MUNICIPIO": "JALA", "PUEBLO INDIGENA O AFROMEXICANO": "WIXÁRIKA\n(HUICHOL)", "LOCALIDAD": "JOMULCO", "CLAVE LOC": 180070022, "TIPO DE ASENTAMIENTO": "COMUNIDAD INDIGENA", "NOMBRE": "SAN JERÓNIMO JOMULCO", "MONTO ASIGNADO (PESOS)": 3071791, "LATITUD": 21.102815, "LONGITUD": -104.425244 }, "geometry": { "type": "Point", "coordinates": [ -104.425244, 21.102815 ] } },
{ "type": "Feature", "properties": { "NO": 40, "ENTIDAD": "NAYARIT", "MUNICIPIO": "LA YESCA", "PUEBLO INDIGENA O AFROMEXICANO": "WIXÁRIKA\n(HUICHOL)", "LOCALIDAD": "ACATITA", "CLAVE LOC": 180190222, "TIPO DE ASENTAMIENTO": "LOCALIDAD CON POBLACION\nINDIGENA", "NOMBRE": "ACATITA", "MONTO ASIGNADO (PESOS)": 188908, "LATITUD": 21.965823, "LONGITUD": -104.294566 }, "geometry": { "type": "Point", "coordinates": [ -104.294566, 21.965823 ] } },
{ "type": "Feature", "properties": { "NO": 41, "ENTIDAD": "NAYARIT", "MUNICIPIO": "LA YESCA", "PUEBLO INDIGENA O AFROMEXICANO": "WIXÁRIKA\n(HUICHOL)", "LOCALIDAD": "EL MIRADOR", "CLAVE LOC": 180190832, "TIPO DE ASENTAMIENTO": "LOCALIDAD CON POBLACION\nINDIGENA", "NOMBRE": "EL MIRADOR", "MONTO ASIGNADO (PESOS)": 173833, "LATITUD": 20.780834, "LONGITUD": -105.315597 }, "geometry": { "type": "Point", "coordinates": [ -105.315597, 20.780834 ] } },
{ "type": "Feature", "properties": { "NO": 42, "ENTIDAD": "NAYARIT", "MUNICIPIO": "LA YESCA", "PUEBLO INDIGENA O AFROMEXICANO": "WIXÁRIKA\n(HUICHOL)", "LOCALIDAD": "GUADALUPE OCOTAN", "CLAVE LOC": 180190073, "TIPO DE ASENTAMIENTO": "COMUNIDAD INDIGENA", "NOMBRE": "GUADALUPE OCOTÁN", "MONTO ASIGNADO (PESOS)": 3295295, "LATITUD": 21.88875, "LONGITUD": -104.357302 }, "geometry": { "type": "Point", "coordinates": [ -104.357302, 21.88875 ] } },
{ "type": "Feature", "properties": { "NO": 43, "ENTIDAD": "NAYARIT", "MUNICIPIO": "LA YESCA", "PUEBLO INDIGENA O AFROMEXICANO": "WIXÁRIKA\n(HUICHOL)", "LOCALIDAD": "LA MESA DEL HUANACAXTLE", "CLAVE LOC": 180190097, "TIPO DE ASENTAMIENTO": "LOCALIDAD CON POBLACION\nINDIGENA", "NOMBRE": "LA MESA DEL HUANACAXTLE", "MONTO ASIGNADO (PESOS)": 177602, "LATITUD": 21.748288, "LONGITUD": -104.3109 }, "geometry": { "type": "Point", "coordinates": [ -104.3109, 21.748288 ] } },
{ "type": "Feature", "properties": { "NO": 44, "ENTIDAD": "NAYARIT", "MUNICIPIO": "LA YESCA", "PUEBLO INDIGENA O AFROMEXICANO": "WIXÁRIKA\n(HUICHOL)", "LOCALIDAD": "MESA DE GUANACASTE", "CLAVE LOC": 180190829, "TIPO DE ASENTAMIENTO": "LOCALIDAD CON POBLACION\nINDIGENA", "NOMBRE": "MESA DE GUANACASTE", "MONTO ASIGNADO (PESOS)": 149309, "LATITUD": 21.250459, "LONGITUD": -104.235546 }, "geometry": { "type": "Point", "coordinates": [ -104.235546, 21.250459 ] } },
{ "type": "Feature", "properties": { "NO": 45, "ENTIDAD": "NAYARIT", "MUNICIPIO": "ROSAMORADA", "PUEBLO INDIGENA O AFROMEXICANO": "CORA", "LOCALIDAD": "ROSARITO", "CLAVE LOC": 180100029, "TIPO DE ASENTAMIENTO": "COMUNIDAD INDIGENA", "NOMBRE": "ROSARITO", "MONTO ASIGNADO (PESOS)": 702783, "LATITUD": 22.167432, "LONGITUD": -105.004941 }, "geometry": { "type": "Point", "coordinates": [ -105.004941, 22.167432 ] } },
{ "type": "Feature", "properties": { "NO": 46, "ENTIDAD": "NAYARIT", "MUNICIPIO": "ROSAMORADA", "PUEBLO INDIGENA O AFROMEXICANO": "CORA", "LOCALIDAD": "SAN JUAN CORAPAN", "CLAVE LOC": 180100032, "TIPO DE ASENTAMIENTO": "COMUNIDAD INDIGENA", "NOMBRE": "SAN JUAN CORAPAN", "MONTO ASIGNADO (PESOS)": 1299947, "LATITUD": 22.044627, "LONGITUD": -104.940257 }, "geometry": { "type": "Point", "coordinates": [ -104.940257, 22.044627 ] } },
{ "type": "Feature", "properties": { "NO": 47, "ENTIDAD": "NAYARIT", "MUNICIPIO": "RUIZ", "PUEBLO INDIGENA O AFROMEXICANO": "CORA", "LOCALIDAD": "PRESIDIO DE LOS REYES", "CLAVE LOC": 180110011, "TIPO DE ASENTAMIENTO": "COMUNIDAD INDIGENA", "NOMBRE": "PRESIDIO DE LOS REYES", "MONTO ASIGNADO (PESOS)": 3124250, "LATITUD": 22.038264, "LONGITUD": -104.927574 }, "geometry": { "type": "Point", "coordinates": [ -104.927574, 22.038264 ] } },
{ "type": "Feature", "properties": { "NO": 48, "ENTIDAD": "NAYARIT", "MUNICIPIO": "SANTA MARIA DEL ORO", "PUEBLO INDIGENA O AFROMEXICANO": "WIXÁRIKA\n(HUICHOL)", "LOCALIDAD": "PLATANITOS", "CLAVE LOC": 180140049, "TIPO DE ASENTAMIENTO": "COMUNIDAD INDIGENA", "NOMBRE": "CANTILES (PESCUEZÓN)", "MONTO ASIGNADO (PESOS)": 879085, "LATITUD": 21.521368, "LONGITUD": -104.97351 }, "geometry": { "type": "Point", "coordinates": [ -104.97351, 21.521368 ] } },
{ "type": "Feature", "properties": { "NO": 49, "ENTIDAD": "NAYARIT", "MUNICIPIO": "TEPIC", "PUEBLO INDIGENA O AFROMEXICANO": "WIXÁRIKA\n(HUICHOL)", "LOCALIDAD": "CERRO DE LOS TIGRES", "CLAVE LOC": 180170380, "TIPO DE ASENTAMIENTO": "LOCALIDAD CON POBLACION\nINDIGENA", "NOMBRE": "CERRO DE LOS TIGRES", "MONTO ASIGNADO (PESOS)": 169518, "LATITUD": 21.618641, "LONGITUD": -104.940668 }, "geometry": { "type": "Point", "coordinates": [ -104.940668, 21.618641 ] } },
{ "type": "Feature", "properties": { "NO": 50, "ENTIDAD": "NAYARIT", "MUNICIPIO": "TEPIC", "PUEBLO INDIGENA O AFROMEXICANO": "WIXÁRIKA\n(HUICHOL)", "LOCALIDAD": "COLORADO DE LA MORA", "CLAVE LOC": 180170116, "TIPO DE ASENTAMIENTO": "COMUNIDAD INDIGENA", "NOMBRE": "COLORADO DE LA MORA", "MONTO ASIGNADO (PESOS)": 479102, "LATITUD": 21.71072, "LONGITUD": -104.648991 }, "geometry": { "type": "Point", "coordinates": [ -104.648991, 21.71072 ] } },
{ "type": "Feature", "properties": { "NO": 51, "ENTIDAD": "NAYARIT", "MUNICIPIO": "TEPIC", "PUEBLO INDIGENA O AFROMEXICANO": "WIXÁRIKA\n(HUICHOL)", "LOCALIDAD": "LAS BLANCAS (CARRETONES DE CERRITOS)", "CLAVE LOC": 180170113, "TIPO DE ASENTAMIENTO": "COMUNIDAD INDIGENA", "NOMBRE": "LAS BLANCAS (CARRETONES DE CERRITOS)", "MONTO ASIGNADO (PESOS)": 476459, "LATITUD": 21.798444, "LONGITUD": -104.843569 }, "geometry": { "type": "Point", "coordinates": [ -104.843569, 21.798444 ] } },
{ "type": "Feature", "properties": { "NO": 52, "ENTIDAD": "NAYARIT", "MUNICIPIO": "TEPIC", "PUEBLO INDIGENA O AFROMEXICANO": "WIXÁRIKA\n(HUICHOL)", "LOCALIDAD": "LAS PILAS (EL TEPEGUAJE)", "CLAVE LOC": 180170139, "TIPO DE ASENTAMIENTO": "COMUNIDAD INDIGENA", "NOMBRE": "LAS PILAS (TEPEHUAJE)", "MONTO ASIGNADO (PESOS)": 257630, "LATITUD": 21.678972, "LONGITUD": -104.941381 }, "geometry": { "type": "Point", "coordinates": [ -104.941381, 21.678972 ] } },
{ "type": "Feature", "properties": { "NO": 53, "ENTIDAD": "NAYARIT", "MUNICIPIO": "TEPIC", "PUEBLO INDIGENA O AFROMEXICANO": "WIXÁRIKA\n(HUICHOL)", "LOCALIDAD": "MESA DE PICACHOS (EL CASCO)", "CLAVE LOC": 180170134, "TIPO DE ASENTAMIENTO": "COMUNIDAD INDIGENA", "NOMBRE": "MESA DE PICACHOS (EL CASCO)", "MONTO ASIGNADO (PESOS)": 259247, "LATITUD": 21.7725, "LONGITUD": -104.855643 }, "geometry": { "type": "Point", "coordinates": [ -104.855643, 21.7725 ] } },
{ "type": "Feature", "properties": { "NO": 54, "ENTIDAD": "NAYARIT", "MUNICIPIO": "TEPIC", "PUEBLO INDIGENA O AFROMEXICANO": "WIXÁRIKA\n(HUICHOL)", "LOCALIDAD": "OTATISTE", "CLAVE LOC": 180170658, "TIPO DE ASENTAMIENTO": "LOCALIDAD CON POBLACION\nINDIGENA", "NOMBRE": "OTATISTE", "MONTO ASIGNADO (PESOS)": 220314, "LATITUD": 21.501786, "LONGITUD": -105.029585 }, "geometry": { "type": "Point", "coordinates": [ -105.029585, 21.501786 ] } },
{ "type": "Feature", "properties": { "NO": 55, "ENTIDAD": "NAYARIT", "MUNICIPIO": "TEPIC", "PUEBLO INDIGENA O AFROMEXICANO": "WIXÁRIKA\n(HUICHOL)", "LOCALIDAD": "ROSETA (LA TRISTEZA)", "CLAVE LOC": 180170437, "TIPO DE ASENTAMIENTO": "COMUNIDAD INDIGENA", "NOMBRE": "ROSETA (LA TRISTEZA)", "MONTO ASIGNADO (PESOS)": 196194, "LATITUD": 21.753658, "LONGITUD": -104.930816 }, "geometry": { "type": "Point", "coordinates": [ -104.930816, 21.753658 ] } },
{ "type": "Feature", "properties": { "NO": 56, "ENTIDAD": "NAYARIT", "MUNICIPIO": "TEPIC", "PUEBLO INDIGENA O AFROMEXICANO": "WIXÁRIKA\n(HUICHOL)", "LOCALIDAD": "SALVADOR ALLENDE", "CLAVE LOC": 180170162, "TIPO DE ASENTAMIENTO": "COMUNIDAD INDIGENA", "NOMBRE": "SALVADOR ALLENDE", "MONTO ASIGNADO (PESOS)": 440158, "LATITUD": 21.694742, "LONGITUD": -104.902768 }, "geometry": { "type": "Point", "coordinates": [ -104.902768, 21.694742 ] } },
{ "type": "Feature", "properties": { "NO": 57, "ENTIDAD": "NAYARIT", "MUNICIPIO": "TEPIC", "PUEBLO INDIGENA O AFROMEXICANO": "WIXÁRIKA\n(HUICHOL)", "LOCALIDAD": "ZAPOTE DE PICACHOS (LA MESA)", "CLAVE LOC": 180170225, "TIPO DE ASENTAMIENTO": "COMUNIDAD INDIGENA", "NOMBRE": "ZAPOTE DE PICACHOS (LA MESA)", "MONTO ASIGNADO (PESOS)": 726583, "LATITUD": 21.794419, "LONGITUD": -104.712532 }, "geometry": { "type": "Point", "coordinates": [ -104.712532, 21.794419 ] } }
]
}
