{
"type": "FeatureCollection",
"name": "queretaro_loc_monto",
"crs": { "type": "name", "properties": { "name": "urn:ogc:def:crs:OGC:1.3:CRS84" } },
"features": [
{ "type": "Feature", "properties": { "NO": 1, "ENTIDAD": "QUERETARO", "MUNICIPIO": "AMEALCO DE BONFIL", "PUEBLO INDIGENA O AFROMEXICANO": "OTOMÍ", "LOCALIDAD": "BARRIO LA JOYA", "CLAVE LOC": 220010112, "TIPO DE ASENTAMIENTO": "COMUNIDAD INDIGENA", "NOMBRE": "BARRIO LA JOYA, EL CAPULÍN", "MONTO ASIGNADO (PESOS)": 301971, "LATITUD": 20.16497, "LONGITUD": -100.175817 }, "geometry": { "type": "Point", "coordinates": [ -100.175817, 20.16497 ] } },
{ "type": "Feature", "properties": { "NO": 2, "ENTIDAD": "QUERETARO", "MUNICIPIO": "AMEALCO DE BONFIL", "PUEBLO INDIGENA O AFROMEXICANO": "OTOMÍ", "LOCALIDAD": "BARRIO PRESA DEL TECOLOTE (EL LINDERO)", "CLAVE LOC": 220010114, "TIPO DE ASENTAMIENTO": "COMUNIDAD INDIGENA", "NOMBRE": "LA PRESA", "MONTO ASIGNADO (PESOS)": 509602, "LATITUD": 20.087564, "LONGITUD": -100.125812 }, "geometry": { "type": "Point", "coordinates": [ -100.125812, 20.087564 ] } },
{ "type": "Feature", "properties": { "NO": 3, "ENTIDAD": "QUERETARO", "MUNICIPIO": "AMEALCO DE BONFIL", "PUEBLO INDIGENA O AFROMEXICANO": "OTOMÍ", "LOCALIDAD": "CHITEJE DE GARABATO", "CLAVE LOC": 220010062, "TIPO DE ASENTAMIENTO": "COMUNIDAD INDIGENA", "NOMBRE": "CHITEJÉ DE GARABATO", "MONTO ASIGNADO (PESOS)": 1459674, "LATITUD": 20.102593, "LONGITUD": -100.188626 }, "geometry": { "type": "Point", "coordinates": [ -100.188626, 20.102593 ] } },
{ "type": "Feature", "properties": { "NO": 4, "ENTIDAD": "QUERETARO", "MUNICIPIO": "AMEALCO DE BONFIL", "PUEBLO INDIGENA O AFROMEXICANO": "OTOMÍ", "LOCALIDAD": "CHITEJE DE LA CRUZ ", "CLAVE LOC": 220010013, "TIPO DE ASENTAMIENTO": "COMUNIDAD INDIGENA", "NOMBRE": "CHITEJE DE LA CRUZ", "MONTO ASIGNADO (PESOS)": 737801, "LATITUD": 20.152728, "LONGITUD": -100.154313 }, "geometry": { "type": "Point", "coordinates": [ -100.154313, 20.152728 ] } },
{ "type": "Feature", "properties": { "NO": 5, "ENTIDAD": "QUERETARO", "MUNICIPIO": "AMEALCO DE BONFIL", "PUEBLO INDIGENA O AFROMEXICANO": "OTOMÍ", "LOCALIDAD": "CUISILLO (BARRIO DE SAN ILDEFONSO) ", "CLAVE LOC": 220010121, "TIPO DE ASENTAMIENTO": "COMUNIDAD INDIGENA", "NOMBRE": "EL CUISILLO", "MONTO ASIGNADO (PESOS)": 579602, "LATITUD": 20.138057, "LONGITUD": -99.943568 }, "geometry": { "type": "Point", "coordinates": [ -99.943568, 20.138057 ] } },
{ "type": "Feature", "properties": { "NO": 6, "ENTIDAD": "QUERETARO", "MUNICIPIO": "AMEALCO DE BONFIL", "PUEBLO INDIGENA O AFROMEXICANO": "OTOMÍ", "LOCALIDAD": "EJIDO DE SAN JUAN DEHEDO ", "CLAVE LOC": 220010087, "TIPO DE ASENTAMIENTO": "COMUNIDAD INDIGENA", "NOMBRE": "EJIDO DE SAN JUAN DEHEDÓ", "MONTO ASIGNADO (PESOS)": 525583, "LATITUD": 20.15359, "LONGITUD": -100.208031 }, "geometry": { "type": "Point", "coordinates": [ -100.208031, 20.15359 ] } },
{ "type": "Feature", "properties": { "NO": 7, "ENTIDAD": "QUERETARO", "MUNICIPIO": "AMEALCO DE BONFIL", "PUEBLO INDIGENA O AFROMEXICANO": "OTOMÍ", "LOCALIDAD": "EL BOTHE ", "CLAVE LOC": 220010059, "TIPO DE ASENTAMIENTO": "COMUNIDAD INDIGENA", "NOMBRE": "EL BOTHÉ", "MONTO ASIGNADO (PESOS)": 1829668, "LATITUD": 20.163197, "LONGITUD": -100.003076 }, "geometry": { "type": "Point", "coordinates": [ -100.003076, 20.163197 ] } },
{ "type": "Feature", "properties": { "NO": 8, "ENTIDAD": "QUERETARO", "MUNICIPIO": "AMEALCO DE BONFIL", "PUEBLO INDIGENA O AFROMEXICANO": "OTOMÍ", "LOCALIDAD": "EL LINDERO ", "CLAVE LOC": 220010022, "TIPO DE ASENTAMIENTO": "COMUNIDAD INDIGENA", "NOMBRE": "EL LINDERO", "MONTO ASIGNADO (PESOS)": 1010790, "LATITUD": 20.102382, "LONGITUD": -100.132846 }, "geometry": { "type": "Point", "coordinates": [ -100.132846, 20.102382 ] } },
{ "type": "Feature", "properties": { "NO": 9, "ENTIDAD": "QUERETARO", "MUNICIPIO": "AMEALCO DE BONFIL", "PUEBLO INDIGENA O AFROMEXICANO": "OTOMÍ", "LOCALIDAD": "EL PICACHO ", "CLAVE LOC": 220010030, "TIPO DE ASENTAMIENTO": "COMUNIDAD INDIGENA", "NOMBRE": "EL PICACHO", "MONTO ASIGNADO (PESOS)": 759627, "LATITUD": 20.111118, "LONGITUD": -100.111886 }, "geometry": { "type": "Point", "coordinates": [ -100.111886, 20.111118 ] } },
{ "type": "Feature", "properties": { "NO": 10, "ENTIDAD": "QUERETARO", "MUNICIPIO": "AMEALCO DE BONFIL", "PUEBLO INDIGENA O AFROMEXICANO": "OTOMÍ", "LOCALIDAD": "EL RINCON DE AGUA BUENA (SAN MIGUEL TLAXCALTEPEC)", "CLAVE LOC": 220010101, "TIPO DE ASENTAMIENTO": "COMUNIDAD INDIGENA", "NOMBRE": "EL RINCÓN DE AGUA BUENA", "MONTO ASIGNADO (PESOS)": 379694, "LATITUD": 20.134247, "LONGITUD": -100.124073 }, "geometry": { "type": "Point", "coordinates": [ -100.124073, 20.134247 ] } },
{ "type": "Feature", "properties": { "NO": 11, "ENTIDAD": "QUERETARO", "MUNICIPIO": "AMEALCO DE BONFIL", "PUEBLO INDIGENA O AFROMEXICANO": "OTOMÍ", "LOCALIDAD": "EL RINCON DE SAN ILDEFONSO", "CLAVE LOC": 220010074, "TIPO DE ASENTAMIENTO": "COMUNIDAD INDIGENA", "NOMBRE": "EL RINCÓN DE SAN ILDEFONSO", "MONTO ASIGNADO (PESOS)": 1618520, "LATITUD": 20.173111, "LONGITUD": -99.962969 }, "geometry": { "type": "Point", "coordinates": [ -99.962969, 20.173111 ] } },
{ "type": "Feature", "properties": { "NO": 12, "ENTIDAD": "QUERETARO", "MUNICIPIO": "AMEALCO DE BONFIL", "PUEBLO INDIGENA O AFROMEXICANO": "OTOMÍ", "LOCALIDAD": "EL SAUCITO ", "CLAVE LOC": 220010051, "TIPO DE ASENTAMIENTO": "COMUNIDAD INDIGENA", "NOMBRE": "EL SAUCITO", "MONTO ASIGNADO (PESOS)": 311791, "LATITUD": 20.201733, "LONGITUD": -99.995439 }, "geometry": { "type": "Point", "coordinates": [ -99.995439, 20.201733 ] } },
{ "type": "Feature", "properties": { "NO": 13, "ENTIDAD": "QUERETARO", "MUNICIPIO": "AMEALCO DE BONFIL", "PUEBLO INDIGENA O AFROMEXICANO": "OTOMÍ", "LOCALIDAD": "EL TEPOZAN (BARRIO DE SAN ILDEFONSO)", "CLAVE LOC": 220010054, "TIPO DE ASENTAMIENTO": "COMUNIDAD INDIGENA", "NOMBRE": "EL TEPOZÁN", "MONTO ASIGNADO (PESOS)": 423346, "LATITUD": 20.186656, "LONGITUD": -99.995847 }, "geometry": { "type": "Point", "coordinates": [ -99.995847, 20.186656 ] } },
{ "type": "Feature", "properties": { "NO": 14, "ENTIDAD": "QUERETARO", "MUNICIPIO": "AMEALCO DE BONFIL", "PUEBLO INDIGENA O AFROMEXICANO": "OTOMÍ", "LOCALIDAD": "EL VARAL ", "CLAVE LOC": 220010012, "TIPO DE ASENTAMIENTO": "COMUNIDAD INDIGENA", "NOMBRE": "EL VARAL", "MONTO ASIGNADO (PESOS)": 1083206, "LATITUD": 20.112716, "LONGITUD": -100.187862 }, "geometry": { "type": "Point", "coordinates": [ -100.187862, 20.112716 ] } },
{ "type": "Feature", "properties": { "NO": 15, "ENTIDAD": "QUERETARO", "MUNICIPIO": "AMEALCO DE BONFIL", "PUEBLO INDIGENA O AFROMEXICANO": "OTOMÍ", "LOCALIDAD": "GUADALUPE EL TERRERO", "CLAVE LOC": 220010055, "TIPO DE ASENTAMIENTO": "COMUNIDAD INDIGENA", "NOMBRE": "GUADALUPE EL TERRERO", "MONTO ASIGNADO (PESOS)": 658581, "LATITUD": 20.119237, "LONGITUD": -100.147622 }, "geometry": { "type": "Point", "coordinates": [ -100.147622, 20.119237 ] } },
{ "type": "Feature", "properties": { "NO": 16, "ENTIDAD": "QUERETARO", "MUNICIPIO": "AMEALCO DE BONFIL", "PUEBLO INDIGENA O AFROMEXICANO": "OTOMÍ", "LOCALIDAD": "LA MANZANA", "CLAVE LOC": 220010024, "TIPO DE ASENTAMIENTO": "COMUNIDAD INDIGENA", "NOMBRE": "LA MANZANA", "MONTO ASIGNADO (PESOS)": 894147, "LATITUD": 20.104922, "LONGITUD": -100.067812 }, "geometry": { "type": "Point", "coordinates": [ -100.067812, 20.104922 ] } },
{ "type": "Feature", "properties": { "NO": 17, "ENTIDAD": "QUERETARO", "MUNICIPIO": "AMEALCO DE BONFIL", "PUEBLO INDIGENA O AFROMEXICANO": "OTOMÍ", "LOCALIDAD": "LA PINI ", "CLAVE LOC": 220010065, "TIPO DE ASENTAMIENTO": "COMUNIDAD INDIGENA", "NOMBRE": "LA PINÍ", "MONTO ASIGNADO (PESOS)": 308557, "LATITUD": 20.107199, "LONGITUD": -99.987485 }, "geometry": { "type": "Point", "coordinates": [ -99.987485, 20.107199 ] } },
{ "type": "Feature", "properties": { "NO": 18, "ENTIDAD": "QUERETARO", "MUNICIPIO": "AMEALCO DE BONFIL", "PUEBLO INDIGENA O AFROMEXICANO": "OTOMÍ", "LOCALIDAD": "LA SOLEDAD ", "CLAVE LOC": 220010052, "TIPO DE ASENTAMIENTO": "COMUNIDAD INDIGENA", "NOMBRE": "LA SOLEDAD", "MONTO ASIGNADO (PESOS)": 1276175, "LATITUD": 20.168993, "LONGITUD": -100.191087 }, "geometry": { "type": "Point", "coordinates": [ -100.191087, 20.168993 ] } },
{ "type": "Feature", "properties": { "NO": 19, "ENTIDAD": "QUERETARO", "MUNICIPIO": "AMEALCO DE BONFIL", "PUEBLO INDIGENA O AFROMEXICANO": "OTOMÍ", "LOCALIDAD": "LAS SALVAS", "CLAVE LOC": 220010111, "TIPO DE ASENTAMIENTO": "COMUNIDAD INDIGENA", "NOMBRE": "LAS SALVAS", "MONTO ASIGNADO (PESOS)": 553493, "LATITUD": 20.100374, "LONGITUD": -100.172855 }, "geometry": { "type": "Point", "coordinates": [ -100.172855, 20.100374 ] } },
{ "type": "Feature", "properties": { "NO": 20, "ENTIDAD": "QUERETARO", "MUNICIPIO": "AMEALCO DE BONFIL", "PUEBLO INDIGENA O AFROMEXICANO": "OTOMÍ", "LOCALIDAD": "LOMA LINDA", "CLAVE LOC": 220010023, "TIPO DE ASENTAMIENTO": "COMUNIDAD INDIGENA", "NOMBRE": "LOMA LINDA", "MONTO ASIGNADO (PESOS)": 592864, "LATITUD": 20.082009, "LONGITUD": -100.066639 }, "geometry": { "type": "Point", "coordinates": [ -100.066639, 20.082009 ] } },
{ "type": "Feature", "properties": { "NO": 21, "ENTIDAD": "QUERETARO", "MUNICIPIO": "AMEALCO DE BONFIL", "PUEBLO INDIGENA O AFROMEXICANO": "OTOMÍ", "LOCALIDAD": "LOS ARBOLES ", "CLAVE LOC": 220010089, "TIPO DE ASENTAMIENTO": "COMUNIDAD INDIGENA", "NOMBRE": "LOS ÁRBOLES TLAXCALTEPEC", "MONTO ASIGNADO (PESOS)": 956000, "LATITUD": 20.052619, "LONGITUD": -100.126407 }, "geometry": { "type": "Point", "coordinates": [ -100.126407, 20.052619 ] } },
{ "type": "Feature", "properties": { "NO": 22, "ENTIDAD": "QUERETARO", "MUNICIPIO": "AMEALCO DE BONFIL", "PUEBLO INDIGENA O AFROMEXICANO": "OTOMÍ", "LOCALIDAD": "LOS ARENALES (SAN JUAN DEHEDO)", "CLAVE LOC": 220010099, "TIPO DE ASENTAMIENTO": "COMUNIDAD INDIGENA", "NOMBRE": "LOS ARENALES", "MONTO ASIGNADO (PESOS)": 436389, "LATITUD": 20.137334, "LONGITUD": -100.200256 }, "geometry": { "type": "Point", "coordinates": [ -100.200256, 20.137334 ] } },
{ "type": "Feature", "properties": { "NO": 23, "ENTIDAD": "QUERETARO", "MUNICIPIO": "AMEALCO DE BONFIL", "PUEBLO INDIGENA O AFROMEXICANO": "OTOMÍ", "LOCALIDAD": "MESILLAS ", "CLAVE LOC": 220010025, "TIPO DE ASENTAMIENTO": "COMUNIDAD INDIGENA", "NOMBRE": "MESILLAS", "MONTO ASIGNADO (PESOS)": 1157344, "LATITUD": 20.129324, "LONGITUD": -100.007181 }, "geometry": { "type": "Point", "coordinates": [ -100.007181, 20.129324 ] } },
{ "type": "Feature", "properties": { "NO": 24, "ENTIDAD": "QUERETARO", "MUNICIPIO": "AMEALCO DE BONFIL", "PUEBLO INDIGENA O AFROMEXICANO": "OTOMÍ", "LOCALIDAD": "SAN BARTOLOME DEL PINO (SAN BARTOLO)", "CLAVE LOC": 220010037, "TIPO DE ASENTAMIENTO": "COMUNIDAD INDIGENA", "NOMBRE": "SAN BARTOLOMÉ DEL PINO", "MONTO ASIGNADO (PESOS)": 691724, "LATITUD": 20.18292, "LONGITUD": -100.072846 }, "geometry": { "type": "Point", "coordinates": [ -100.072846, 20.18292 ] } },
{ "type": "Feature", "properties": { "NO": 25, "ENTIDAD": "QUERETARO", "MUNICIPIO": "AMEALCO DE BONFIL", "PUEBLO INDIGENA O AFROMEXICANO": "OTOMÍ", "LOCALIDAD": "SAN FELIPE (SANTIAGO MEXQUITITLAN BARRIO 6TO.)", "CLAVE LOC": 220010038, "TIPO DE ASENTAMIENTO": "COMUNIDAD INDIGENA", "NOMBRE": "SANTIAGO MEXQUITITLAN, BARRIO 6°", "MONTO ASIGNADO (PESOS)": 3957927, "LATITUD": 20.041573, "LONGITUD": -100.100481 }, "geometry": { "type": "Point", "coordinates": [ -100.100481, 20.041573 ] } },
{ "type": "Feature", "properties": { "NO": 26, "ENTIDAD": "QUERETARO", "MUNICIPIO": "AMEALCO DE BONFIL", "PUEBLO INDIGENA O AFROMEXICANO": "OTOMÍ", "LOCALIDAD": "SAN ILDEFONSO TULTEPEC (CENTRO) ", "CLAVE LOC": 220010039, "TIPO DE ASENTAMIENTO": "COMUNIDAD INDIGENA", "NOMBRE": "SAN ILDEFONSO TULTEPEC", "MONTO ASIGNADO (PESOS)": 3249285, "LATITUD": 20.144392, "LONGITUD": -99.956933 }, "geometry": { "type": "Point", "coordinates": [ -99.956933, 20.144392 ] } },
{ "type": "Feature", "properties": { "NO": 27, "ENTIDAD": "QUERETARO", "MUNICIPIO": "AMEALCO DE BONFIL", "PUEBLO INDIGENA O AFROMEXICANO": "OTOMÍ", "LOCALIDAD": "SAN JOSE ITHO", "CLAVE LOC": 220010040, "TIPO DE ASENTAMIENTO": "COMUNIDAD INDIGENA", "NOMBRE": "SAN JOSÉ ITHÓ", "MONTO ASIGNADO (PESOS)": 1618923, "LATITUD": 20.164587, "LONGITUD": -100.126144 }, "geometry": { "type": "Point", "coordinates": [ -100.126144, 20.164587 ] } },
{ "type": "Feature", "properties": { "NO": 28, "ENTIDAD": "QUERETARO", "MUNICIPIO": "AMEALCO DE BONFIL", "PUEBLO INDIGENA O AFROMEXICANO": "OTOMÍ", "LOCALIDAD": "SAN JUAN DEHEDO", "CLAVE LOC": 220010041, "TIPO DE ASENTAMIENTO": "COMUNIDAD INDIGENA", "NOMBRE": "SAN JUAN DEHEDÓ", "MONTO ASIGNADO (PESOS)": 1277791, "LATITUD": 20.184701, "LONGITUD": -100.167788 }, "geometry": { "type": "Point", "coordinates": [ -100.167788, 20.184701 ] } },
{ "type": "Feature", "properties": { "NO": 29, "ENTIDAD": "QUERETARO", "MUNICIPIO": "AMEALCO DE BONFIL", "PUEBLO INDIGENA O AFROMEXICANO": "OTOMÍ", "LOCALIDAD": "SAN MIGUEL TLAXCALTEPEC (BARRIO CENTRO)", "CLAVE LOC": 220010044, "TIPO DE ASENTAMIENTO": "COMUNIDAD INDIGENA", "NOMBRE": "SAN MIGUEL TLAXCALTEPEC", "MONTO ASIGNADO (PESOS)": 1709072, "LATITUD": 20.113542, "LONGITUD": -100.124314 }, "geometry": { "type": "Point", "coordinates": [ -100.124314, 20.113542 ] } },
{ "type": "Feature", "properties": { "NO": 30, "ENTIDAD": "QUERETARO", "MUNICIPIO": "AMEALCO DE BONFIL", "PUEBLO INDIGENA O AFROMEXICANO": "OTOMÍ", "LOCALIDAD": "SAN PABLO", "CLAVE LOC": 220010045, "TIPO DE ASENTAMIENTO": "COMUNIDAD INDIGENA", "NOMBRE": "SAN PABLO", "MONTO ASIGNADO (PESOS)": 672323, "LATITUD": 20.088055, "LONGITUD": -99.977499 }, "geometry": { "type": "Point", "coordinates": [ -99.977499, 20.088055 ] } },
{ "type": "Feature", "properties": { "NO": 31, "ENTIDAD": "QUERETARO", "MUNICIPIO": "AMEALCO DE BONFIL", "PUEBLO INDIGENA O AFROMEXICANO": "OTOMÍ", "LOCALIDAD": "SAN PEDRO TENANGO ", "CLAVE LOC": 220010046, "TIPO DE ASENTAMIENTO": "COMUNIDAD INDIGENA", "NOMBRE": "SAN PEDRO TENANGO", "MONTO ASIGNADO (PESOS)": 531428, "LATITUD": 20.137094, "LONGITUD": -100.089099 }, "geometry": { "type": "Point", "coordinates": [ -100.089099, 20.137094 ] } },
{ "type": "Feature", "properties": { "NO": 32, "ENTIDAD": "QUERETARO", "MUNICIPIO": "AMEALCO DE BONFIL", "PUEBLO INDIGENA O AFROMEXICANO": "OTOMÍ", "LOCALIDAD": "SANTIAGO MEXQUITITLAN BARRIO 1RO.", "CLAVE LOC": 220010050, "TIPO DE ASENTAMIENTO": "COMUNIDAD INDIGENA", "NOMBRE": "SANTIAGO MEXQUITITLAN, BARRIO 1°", "MONTO ASIGNADO (PESOS)": 1424106, "LATITUD": 20.050278, "LONGITUD": -100.065833 }, "geometry": { "type": "Point", "coordinates": [ -100.065833, 20.050278 ] } },
{ "type": "Feature", "properties": { "NO": 33, "ENTIDAD": "QUERETARO", "MUNICIPIO": "AMEALCO DE BONFIL", "PUEBLO INDIGENA O AFROMEXICANO": "OTOMÍ", "LOCALIDAD": "SANTIAGO MEXQUITITLAN BARRIO 2DO.", "CLAVE LOC": 220010049, "TIPO DE ASENTAMIENTO": "COMUNIDAD INDIGENA", "NOMBRE": "SANTIAGO MEXQUITITLAN, BARRIO 2°", "MONTO ASIGNADO (PESOS)": 1121776, "LATITUD": 20.04034, "LONGITUD": -100.050544 }, "geometry": { "type": "Point", "coordinates": [ -100.050544, 20.04034 ] } },
{ "type": "Feature", "properties": { "NO": 34, "ENTIDAD": "QUERETARO", "MUNICIPIO": "AMEALCO DE BONFIL", "PUEBLO INDIGENA O AFROMEXICANO": "OTOMÍ", "LOCALIDAD": "SANTIAGO MEXQUITITLAN BARRIO 3RO.", "CLAVE LOC": 220010047, "TIPO DE ASENTAMIENTO": "COMUNIDAD INDIGENA", "NOMBRE": "SANTIAGO MEXQUITITLÁN, BARRIO 3°", "MONTO ASIGNADO (PESOS)": 1605958, "LATITUD": 20.061653, "LONGITUD": -100.047149 }, "geometry": { "type": "Point", "coordinates": [ -100.047149, 20.061653 ] } },
{ "type": "Feature", "properties": { "NO": 35, "ENTIDAD": "QUERETARO", "MUNICIPIO": "AMEALCO DE BONFIL", "PUEBLO INDIGENA O AFROMEXICANO": "OTOMÍ", "LOCALIDAD": "SANTIAGO MEXQUITITLAN BARRIO 4TO.", "CLAVE LOC": 220010048, "TIPO DE ASENTAMIENTO": "COMUNIDAD INDIGENA", "NOMBRE": "SANTIAGO MEXQUITITLAN, BARRIO 4°", "MONTO ASIGNADO (PESOS)": 1101567, "LATITUD": 20.056186, "LONGITUD": -100.069485 }, "geometry": { "type": "Point", "coordinates": [ -100.069485, 20.056186 ] } },
{ "type": "Feature", "properties": { "NO": 36, "ENTIDAD": "QUERETARO", "MUNICIPIO": "AMEALCO DE BONFIL", "PUEBLO INDIGENA O AFROMEXICANO": "OTOMÍ", "LOCALIDAD": "SANTIAGO MEXQUITITLAN BARRIO 5TO. (EL PASTOREO)", "CLAVE LOC": 220010029, "TIPO DE ASENTAMIENTO": "COMUNIDAD INDIGENA", "NOMBRE": "SANTIAGO MEXQUITITLAN, BARRIO 5TO", "MONTO ASIGNADO (PESOS)": 2119764, "LATITUD": 20.076558, "LONGITUD": -100.037106 }, "geometry": { "type": "Point", "coordinates": [ -100.037106, 20.076558 ] } },
{ "type": "Feature", "properties": { "NO": 37, "ENTIDAD": "QUERETARO", "MUNICIPIO": "AMEALCO DE BONFIL", "PUEBLO INDIGENA O AFROMEXICANO": "OTOMÍ", "LOCALIDAD": "TENASDA (BARRIO DE SAN ILDEFONSO) ", "CLAVE LOC": 220010053, "TIPO DE ASENTAMIENTO": "COMUNIDAD INDIGENA", "NOMBRE": "TENAZDÁ", "MONTO ASIGNADO (PESOS)": 640797, "LATITUD": 20.114191, "LONGITUD": -99.967581 }, "geometry": { "type": "Point", "coordinates": [ -99.967581, 20.114191 ] } },
{ "type": "Feature", "properties": { "NO": 38, "ENTIDAD": "QUERETARO", "MUNICIPIO": "AMEALCO DE BONFIL", "PUEBLO INDIGENA O AFROMEXICANO": "OTOMÍ", "LOCALIDAD": "XAJAY", "CLAVE LOC": 220010148, "TIPO DE ASENTAMIENTO": "COMUNIDAD INDIGENA", "NOMBRE": "XAJAY", "MONTO ASIGNADO (PESOS)": 920516, "LATITUD": 20.121268, "LONGITUD": -99.9579 }, "geometry": { "type": "Point", "coordinates": [ -99.9579, 20.121268 ] } },
{ "type": "Feature", "properties": { "NO": 39, "ENTIDAD": "QUERETARO", "MUNICIPIO": "AMEALCO DE BONFIL", "PUEBLO INDIGENA O AFROMEXICANO": "OTOMÍ", "LOCALIDAD": "YOSPHI", "CLAVE LOC": 220010070, "TIPO DE ASENTAMIENTO": "COMUNIDAD INDIGENA", "NOMBRE": "YOSPÍ", "MONTO ASIGNADO (PESOS)": 2134839, "LATITUD": 20.170693, "LONGITUD": -99.952367 }, "geometry": { "type": "Point", "coordinates": [ -99.952367, 20.170693 ] } },
{ "type": "Feature", "properties": { "NO": 40, "ENTIDAD": "QUERETARO", "MUNICIPIO": "ARROYO SECO", "PUEBLO INDIGENA O AFROMEXICANO": "PAME", "LOCALIDAD": "CONCA ", "CLAVE LOC": 220030014, "TIPO DE ASENTAMIENTO": "COMUNIDAD INDIGENA", "NOMBRE": "CONCÁ", "MONTO ASIGNADO (PESOS)": 1373509, "LATITUD": 21.44401, "LONGITUD": -99.636599 }, "geometry": { "type": "Point", "coordinates": [ -99.636599, 21.44401 ] } },
{ "type": "Feature", "properties": { "NO": 41, "ENTIDAD": "QUERETARO", "MUNICIPIO": "ARROYO SECO", "PUEBLO INDIGENA O AFROMEXICANO": "PAME", "LOCALIDAD": "EL CRUCERO DEL SABINITO ", "CLAVE LOC": 220030068, "TIPO DE ASENTAMIENTO": "COMUNIDAD INDIGENA", "NOMBRE": "EL CRUCERO DEL SABINITO", "MONTO ASIGNADO (PESOS)": 501758, "LATITUD": 21.443744, "LONGITUD": -99.627017 }, "geometry": { "type": "Point", "coordinates": [ -99.627017, 21.443744 ] } },
{ "type": "Feature", "properties": { "NO": 42, "ENTIDAD": "QUERETARO", "MUNICIPIO": "ARROYO SECO", "PUEBLO INDIGENA O AFROMEXICANO": "PAME", "LOCALIDAD": "EL RIACHUELO ", "CLAVE LOC": 220030152, "TIPO DE ASENTAMIENTO": "COMUNIDAD INDIGENA", "NOMBRE": "EL RIACHUELO", "MONTO ASIGNADO (PESOS)": 342270, "LATITUD": 21.53916, "LONGITUD": -99.739171 }, "geometry": { "type": "Point", "coordinates": [ -99.739171, 21.53916 ] } },
{ "type": "Feature", "properties": { "NO": 43, "ENTIDAD": "QUERETARO", "MUNICIPIO": "ARROYO SECO", "PUEBLO INDIGENA O AFROMEXICANO": "PAME", "LOCALIDAD": "LA CANTERA", "CLAVE LOC": 220030010, "TIPO DE ASENTAMIENTO": "COMUNIDAD INDIGENA", "NOMBRE": "LA CANTERA", "MONTO ASIGNADO (PESOS)": 190536, "LATITUD": 21.519619, "LONGITUD": -99.691936 }, "geometry": { "type": "Point", "coordinates": [ -99.691936, 21.519619 ] } },
{ "type": "Feature", "properties": { "NO": 44, "ENTIDAD": "QUERETARO", "MUNICIPIO": "ARROYO SECO", "PUEBLO INDIGENA O AFROMEXICANO": "PAME", "LOCALIDAD": "LA LAGUNITA ", "CLAVE LOC": 220030026, "TIPO DE ASENTAMIENTO": "COMUNIDAD INDIGENA", "NOMBRE": "LA LAGUNITA", "MONTO ASIGNADO (PESOS)": 275414, "LATITUD": 21.446621, "LONGITUD": -99.764808 }, "geometry": { "type": "Point", "coordinates": [ -99.764808, 21.446621 ] } },
{ "type": "Feature", "properties": { "NO": 45, "ENTIDAD": "QUERETARO", "MUNICIPIO": "ARROYO SECO", "PUEBLO INDIGENA O AFROMEXICANO": "PAME", "LOCALIDAD": "LAS TRANCAS", "CLAVE LOC": 220030069, "TIPO DE ASENTAMIENTO": "COMUNIDAD INDIGENA", "NOMBRE": "LAS TRANCAS", "MONTO ASIGNADO (PESOS)": 302899, "LATITUD": 21.436892, "LONGITUD": -99.618527 }, "geometry": { "type": "Point", "coordinates": [ -99.618527, 21.436892 ] } },
{ "type": "Feature", "properties": { "NO": 46, "ENTIDAD": "QUERETARO", "MUNICIPIO": "ARROYO SECO", "PUEBLO INDIGENA O AFROMEXICANO": "PAME", "LOCALIDAD": "RIO DEL CARRIZAL", "CLAVE LOC": 220030047, "TIPO DE ASENTAMIENTO": "COMUNIDAD INDIGENA", "NOMBRE": "RÍO DEL CARRIZAL", "MONTO ASIGNADO (PESOS)": 292390, "LATITUD": 21.484047, "LONGITUD": -99.700183 }, "geometry": { "type": "Point", "coordinates": [ -99.700183, 21.484047 ] } },
{ "type": "Feature", "properties": { "NO": 47, "ENTIDAD": "QUERETARO", "MUNICIPIO": "ARROYO SECO", "PUEBLO INDIGENA O AFROMEXICANO": "PAME", "LOCALIDAD": "SAN JOSE DE LAS FLORES", "CLAVE LOC": 220030054, "TIPO DE ASENTAMIENTO": "COMUNIDAD INDIGENA", "NOMBRE": "SAN JOSÉ DE LAS FLORES", "MONTO ASIGNADO (PESOS)": 209937, "LATITUD": 21.377805, "LONGITUD": -99.503091 }, "geometry": { "type": "Point", "coordinates": [ -99.503091, 21.377805 ] } },
{ "type": "Feature", "properties": { "NO": 48, "ENTIDAD": "QUERETARO", "MUNICIPIO": "ARROYO SECO", "PUEBLO INDIGENA O AFROMEXICANO": "PAME", "LOCALIDAD": "SAN JUAN BUENAVENTURA ", "CLAVE LOC": 220030056, "TIPO DE ASENTAMIENTO": "COMUNIDAD INDIGENA", "NOMBRE": "SAN JUAN BUENAVENTURA", "MONTO ASIGNADO (PESOS)": 848069, "LATITUD": 21.35109, "LONGITUD": -99.473582 }, "geometry": { "type": "Point", "coordinates": [ -99.473582, 21.35109 ] } },
{ "type": "Feature", "properties": { "NO": 49, "ENTIDAD": "QUERETARO", "MUNICIPIO": "ARROYO SECO", "PUEBLO INDIGENA O AFROMEXICANO": "PAME", "LOCALIDAD": "SANTA MARIA DE LOS COCOS ", "CLAVE LOC": 220030057, "TIPO DE ASENTAMIENTO": "COMUNIDAD INDIGENA", "NOMBRE": "SANTA MARÍA DE LOS COCOS", "MONTO ASIGNADO (PESOS)": 489393, "LATITUD": 21.308806, "LONGITUD": -99.642013 }, "geometry": { "type": "Point", "coordinates": [ -99.642013, 21.308806 ] } },
{ "type": "Feature", "properties": { "NO": 50, "ENTIDAD": "QUERETARO", "MUNICIPIO": "CADEREYTA DE MONTES", "PUEBLO INDIGENA O AFROMEXICANO": "OTOMÍ", "LOCALIDAD": "ALTAMIRA (LA BONDOTITA) ", "CLAVE LOC": 220040005, "TIPO DE ASENTAMIENTO": "COMUNIDAD INDIGENA", "NOMBRE": "ALTAMIRA LA BONDOTITA", "MONTO ASIGNADO (PESOS)": 288348, "LATITUD": 20.778056, "LONGITUD": -99.56705 }, "geometry": { "type": "Point", "coordinates": [ -99.56705, 20.778056 ] } },
{ "type": "Feature", "properties": { "NO": 51, "ENTIDAD": "QUERETARO", "MUNICIPIO": "CADEREYTA DE MONTES", "PUEBLO INDIGENA O AFROMEXICANO": "OTOMÍ", "LOCALIDAD": "BOXASNI", "CLAVE LOC": 220040013, "TIPO DE ASENTAMIENTO": "COMUNIDAD INDIGENA", "NOMBRE": "BOXASNÍ", "MONTO ASIGNADO (PESOS)": 1556439, "LATITUD": 20.671731, "LONGITUD": -99.848198 }, "geometry": { "type": "Point", "coordinates": [ -99.848198, 20.671731 ] } },
{ "type": "Feature", "properties": { "NO": 52, "ENTIDAD": "QUERETARO", "MUNICIPIO": "CADEREYTA DE MONTES", "PUEBLO INDIGENA O AFROMEXICANO": "OTOMÍ", "LOCALIDAD": "BOYE ", "CLAVE LOC": 220040015, "TIPO DE ASENTAMIENTO": "COMUNIDAD INDIGENA", "NOMBRE": "BOYÉ", "MONTO ASIGNADO (PESOS)": 2073795, "LATITUD": 20.681795, "LONGITUD": -99.740755 }, "geometry": { "type": "Point", "coordinates": [ -99.740755, 20.681795 ] } },
{ "type": "Feature", "properties": { "NO": 53, "ENTIDAD": "QUERETARO", "MUNICIPIO": "CADEREYTA DE MONTES", "PUEBLO INDIGENA O AFROMEXICANO": "OTOMÍ", "LOCALIDAD": "BOYECITO ", "CLAVE LOC": 220040152, "TIPO DE ASENTAMIENTO": "COMUNIDAD INDIGENA", "NOMBRE": "BOYECITO", "MONTO ASIGNADO (PESOS)": 600379, "LATITUD": 20.586814, "LONGITUD": -99.6843 }, "geometry": { "type": "Point", "coordinates": [ -99.6843, 20.586814 ] } },
{ "type": "Feature", "properties": { "NO": 54, "ENTIDAD": "QUERETARO", "MUNICIPIO": "CADEREYTA DE MONTES", "PUEBLO INDIGENA O AFROMEXICANO": "OTOMÍ", "LOCALIDAD": "CHAVARRIAS", "CLAVE LOC": 220040031, "TIPO DE ASENTAMIENTO": "COMUNIDAD INDIGENA", "NOMBRE": "CHAVARRIAS", "MONTO ASIGNADO (PESOS)": 853324, "LATITUD": 20.809753, "LONGITUD": -99.600779 }, "geometry": { "type": "Point", "coordinates": [ -99.600779, 20.809753 ] } },
{ "type": "Feature", "properties": { "NO": 55, "ENTIDAD": "QUERETARO", "MUNICIPIO": "CADEREYTA DE MONTES", "PUEBLO INDIGENA O AFROMEXICANO": "OTOMÍ", "LOCALIDAD": "CORRAL BLANCO", "CLAVE LOC": 220040025, "TIPO DE ASENTAMIENTO": "COMUNIDAD INDIGENA", "NOMBRE": "CORRAL BLANCO", "MONTO ASIGNADO (PESOS)": 316641, "LATITUD": 20.808533, "LONGITUD": -99.783683 }, "geometry": { "type": "Point", "coordinates": [ -99.783683, 20.808533 ] } },
{ "type": "Feature", "properties": { "NO": 56, "ENTIDAD": "QUERETARO", "MUNICIPIO": "CADEREYTA DE MONTES", "PUEBLO INDIGENA O AFROMEXICANO": "OTOMÍ", "LOCALIDAD": "EL AGUA SALADA", "CLAVE LOC": 220040240, "TIPO DE ASENTAMIENTO": "COMUNIDAD INDIGENA", "NOMBRE": "EL AGUA SALADA.", "MONTO ASIGNADO (PESOS)": 101615, "LATITUD": 20.889391, "LONGITUD": -99.697094 }, "geometry": { "type": "Point", "coordinates": [ -99.697094, 20.889391 ] } },
{ "type": "Feature", "properties": { "NO": 57, "ENTIDAD": "QUERETARO", "MUNICIPIO": "CADEREYTA DE MONTES", "PUEBLO INDIGENA O AFROMEXICANO": "OTOMÍ", "LOCALIDAD": "EL BANCO", "CLAVE LOC": 220040011, "TIPO DE ASENTAMIENTO": "COMUNIDAD INDIGENA", "NOMBRE": "EL BANCO", "MONTO ASIGNADO (PESOS)": 309366, "LATITUD": 20.874166, "LONGITUD": -99.706944 }, "geometry": { "type": "Point", "coordinates": [ -99.706944, 20.874166 ] } },
{ "type": "Feature", "properties": { "NO": 58, "ENTIDAD": "QUERETARO", "MUNICIPIO": "CADEREYTA DE MONTES", "PUEBLO INDIGENA O AFROMEXICANO": "OTOMÍ", "LOCALIDAD": "EL CHILAR", "CLAVE LOC": 220040032, "TIPO DE ASENTAMIENTO": "COMUNIDAD INDIGENA", "NOMBRE": "EL CHILAR", "MONTO ASIGNADO (PESOS)": 287540, "LATITUD": 20.577992, "LONGITUD": -99.705207 }, "geometry": { "type": "Point", "coordinates": [ -99.705207, 20.577992 ] } },
{ "type": "Feature", "properties": { "NO": 59, "ENTIDAD": "QUERETARO", "MUNICIPIO": "CADEREYTA DE MONTES", "PUEBLO INDIGENA O AFROMEXICANO": "OTOMÍ", "LOCALIDAD": "EL RINCON ", "CLAVE LOC": 220040095, "TIPO DE ASENTAMIENTO": "COMUNIDAD INDIGENA", "NOMBRE": "EL RINCÓN", "MONTO ASIGNADO (PESOS)": 1251115, "LATITUD": 20.742164, "LONGITUD": -99.784223 }, "geometry": { "type": "Point", "coordinates": [ -99.784223, 20.742164 ] } },
{ "type": "Feature", "properties": { "NO": 60, "ENTIDAD": "QUERETARO", "MUNICIPIO": "CADEREYTA DE MONTES", "PUEBLO INDIGENA O AFROMEXICANO": "OTOMÍ", "LOCALIDAD": "JABALI ", "CLAVE LOC": 220040047, "TIPO DE ASENTAMIENTO": "COMUNIDAD INDIGENA", "NOMBRE": "EL JABALÍ", "MONTO ASIGNADO (PESOS)": 320814, "LATITUD": 20.842677, "LONGITUD": -99.785139 }, "geometry": { "type": "Point", "coordinates": [ -99.785139, 20.842677 ] } },
{ "type": "Feature", "properties": { "NO": 61, "ENTIDAD": "QUERETARO", "MUNICIPIO": "CADEREYTA DE MONTES", "PUEBLO INDIGENA O AFROMEXICANO": "OTOMÍ", "LOCALIDAD": "LA CULATA ", "CLAVE LOC": 220040028, "TIPO DE ASENTAMIENTO": "COMUNIDAD INDIGENA", "NOMBRE": "LA CULATA", "MONTO ASIGNADO (PESOS)": 386969, "LATITUD": 20.904747, "LONGITUD": -99.697651 }, "geometry": { "type": "Point", "coordinates": [ -99.697651, 20.904747 ] } },
{ "type": "Feature", "properties": { "NO": 62, "ENTIDAD": "QUERETARO", "MUNICIPIO": "CADEREYTA DE MONTES", "PUEBLO INDIGENA O AFROMEXICANO": "OTOMÍ", "LOCALIDAD": "LA FLORIDA", "CLAVE LOC": 220040041, "TIPO DE ASENTAMIENTO": "COMUNIDAD INDIGENA", "NOMBRE": "LA FLORIDA", "MONTO ASIGNADO (PESOS)": 303707, "LATITUD": 20.857067, "LONGITUD": -99.793562 }, "geometry": { "type": "Point", "coordinates": [ -99.793562, 20.857067 ] } },
{ "type": "Feature", "properties": { "NO": 63, "ENTIDAD": "QUERETARO", "MUNICIPIO": "CADEREYTA DE MONTES", "PUEBLO INDIGENA O AFROMEXICANO": "OTOMÍ", "LOCALIDAD": "LA LAJA ", "CLAVE LOC": 220040050, "TIPO DE ASENTAMIENTO": "COMUNIDAD INDIGENA", "NOMBRE": "LA LAJA", "MONTO ASIGNADO (PESOS)": 511458, "LATITUD": 20.800412, "LONGITUD": -99.644482 }, "geometry": { "type": "Point", "coordinates": [ -99.644482, 20.800412 ] } },
{ "type": "Feature", "properties": { "NO": 64, "ENTIDAD": "QUERETARO", "MUNICIPIO": "CADEREYTA DE MONTES", "PUEBLO INDIGENA O AFROMEXICANO": "OTOMÍ", "LOCALIDAD": "LA NOPALERA", "CLAVE LOC": 220040069, "TIPO DE ASENTAMIENTO": "COMUNIDAD INDIGENA", "NOMBRE": "LA NOPALERA", "MONTO ASIGNADO (PESOS)": 273798, "LATITUD": 20.647572, "LONGITUD": -99.704047 }, "geometry": { "type": "Point", "coordinates": [ -99.704047, 20.647572 ] } },
{ "type": "Feature", "properties": { "NO": 65, "ENTIDAD": "QUERETARO", "MUNICIPIO": "CADEREYTA DE MONTES", "PUEBLO INDIGENA O AFROMEXICANO": "OTOMÍ", "LOCALIDAD": "LA PASTILLA", "CLAVE LOC": 220040076, "TIPO DE ASENTAMIENTO": "COMUNIDAD INDIGENA", "NOMBRE": "LA PASTILLA.", "MONTO ASIGNADO (PESOS)": 180027, "LATITUD": 20.945938, "LONGITUD": -99.700146 }, "geometry": { "type": "Point", "coordinates": [ -99.700146, 20.945938 ] } },
{ "type": "Feature", "properties": { "NO": 66, "ENTIDAD": "QUERETARO", "MUNICIPIO": "CADEREYTA DE MONTES", "PUEBLO INDIGENA O AFROMEXICANO": "OTOMÍ", "LOCALIDAD": "LA TINAJA", "CLAVE LOC": 220040118, "TIPO DE ASENTAMIENTO": "COMUNIDAD INDIGENA", "NOMBRE": "LA TINAJA", "MONTO ASIGNADO (PESOS)": 344934, "LATITUD": 20.926796, "LONGITUD": -99.698738 }, "geometry": { "type": "Point", "coordinates": [ -99.698738, 20.926796 ] } },
{ "type": "Feature", "properties": { "NO": 67, "ENTIDAD": "QUERETARO", "MUNICIPIO": "CADEREYTA DE MONTES", "PUEBLO INDIGENA O AFROMEXICANO": "OTOMÍ", "LOCALIDAD": "LLANITOS DE SANTA BARBARA ", "CLAVE LOC": 220040058, "TIPO DE ASENTAMIENTO": "COMUNIDAD INDIGENA", "NOMBRE": "LLANITOS DE SANTA BÁRBARA", "MONTO ASIGNADO (PESOS)": 322300, "LATITUD": 20.771174, "LONGITUD": -99.850651 }, "geometry": { "type": "Point", "coordinates": [ -99.850651, 20.771174 ] } },
{ "type": "Feature", "properties": { "NO": 68, "ENTIDAD": "QUERETARO", "MUNICIPIO": "CADEREYTA DE MONTES", "PUEBLO INDIGENA O AFROMEXICANO": "OTOMÍ", "LOCALIDAD": "LOS JUAREZ", "CLAVE LOC": 220040048, "TIPO DE ASENTAMIENTO": "COMUNIDAD INDIGENA", "NOMBRE": "LOS JUÁREZ", "MONTO ASIGNADO (PESOS)": 1480895, "LATITUD": 20.865798, "LONGITUD": -99.646755 }, "geometry": { "type": "Point", "coordinates": [ -99.646755, 20.865798 ] } },
{ "type": "Feature", "properties": { "NO": 69, "ENTIDAD": "QUERETARO", "MUNICIPIO": "CADEREYTA DE MONTES", "PUEBLO INDIGENA O AFROMEXICANO": "OTOMÍ", "LOCALIDAD": "PATHE ", "CLAVE LOC": 220040077, "TIPO DE ASENTAMIENTO": "COMUNIDAD INDIGENA", "NOMBRE": "PATHÉ", "MONTO ASIGNADO (PESOS)": 2021996, "LATITUD": 20.598337, "LONGITUD": -99.700406 }, "geometry": { "type": "Point", "coordinates": [ -99.700406, 20.598337 ] } },
{ "type": "Feature", "properties": { "NO": 70, "ENTIDAD": "QUERETARO", "MUNICIPIO": "CADEREYTA DE MONTES", "PUEBLO INDIGENA O AFROMEXICANO": "OTOMÍ", "LOCALIDAD": "RANCHO DE GUADALUPE ", "CLAVE LOC": 220040089, "TIPO DE ASENTAMIENTO": "COMUNIDAD INDIGENA", "NOMBRE": "RANCHO DE GUADALUPE", "MONTO ASIGNADO (PESOS)": 562385, "LATITUD": 20.75337, "LONGITUD": -99.790104 }, "geometry": { "type": "Point", "coordinates": [ -99.790104, 20.75337 ] } },
{ "type": "Feature", "properties": { "NO": 71, "ENTIDAD": "QUERETARO", "MUNICIPIO": "CADEREYTA DE MONTES", "PUEBLO INDIGENA O AFROMEXICANO": "OTOMÍ", "LOCALIDAD": "RANCHO NUEVO SOMBRERETE ", "CLAVE LOC": 220040092, "TIPO DE ASENTAMIENTO": "COMUNIDAD INDIGENA", "NOMBRE": "RANCHO NUEVO SOMBRERETE", "MONTO ASIGNADO (PESOS)": 310174, "LATITUD": 20.730833, "LONGITUD": -99.654167 }, "geometry": { "type": "Point", "coordinates": [ -99.654167, 20.730833 ] } },
{ "type": "Feature", "properties": { "NO": 72, "ENTIDAD": "QUERETARO", "MUNICIPIO": "CADEREYTA DE MONTES", "PUEBLO INDIGENA O AFROMEXICANO": "OTOMÍ", "LOCALIDAD": "SOMBRERETE", "CLAVE LOC": 220040111, "TIPO DE ASENTAMIENTO": "COMUNIDAD INDIGENA", "NOMBRE": "SOMBRERETE", "MONTO ASIGNADO (PESOS)": 1574565, "LATITUD": 20.788215, "LONGITUD": -99.665238 }, "geometry": { "type": "Point", "coordinates": [ -99.665238, 20.788215 ] } },
{ "type": "Feature", "properties": { "NO": 73, "ENTIDAD": "QUERETARO", "MUNICIPIO": "CADEREYTA DE MONTES", "PUEBLO INDIGENA O AFROMEXICANO": "OTOMÍ", "LOCALIDAD": "TAXHIDO ", "CLAVE LOC": 220040160, "TIPO DE ASENTAMIENTO": "COMUNIDAD INDIGENA", "NOMBRE": "TAXIDHÓ", "MONTO ASIGNADO (PESOS)": 112932, "LATITUD": 20.608271, "LONGITUD": -99.659016 }, "geometry": { "type": "Point", "coordinates": [ -99.659016, 20.608271 ] } },
{ "type": "Feature", "properties": { "NO": 74, "ENTIDAD": "QUERETARO", "MUNICIPIO": "CADEREYTA DE MONTES", "PUEBLO INDIGENA O AFROMEXICANO": "OTOMÍ", "LOCALIDAD": "TZIBANTZA ", "CLAVE LOC": 220040159, "TIPO DE ASENTAMIENTO": "COMUNIDAD INDIGENA", "NOMBRE": "TZIBANZA", "MONTO ASIGNADO (PESOS)": 456489, "LATITUD": 20.612783, "LONGITUD": -99.59793 }, "geometry": { "type": "Point", "coordinates": [ -99.59793, 20.612783 ] } },
{ "type": "Feature", "properties": { "NO": 75, "ENTIDAD": "QUERETARO", "MUNICIPIO": "CADEREYTA DE MONTES", "PUEBLO INDIGENA O AFROMEXICANO": "OTOMÍ", "LOCALIDAD": "XIDHI ", "CLAVE LOC": 220040238, "TIPO DE ASENTAMIENTO": "COMUNIDAD INDIGENA", "NOMBRE": "XIDHÍ", "MONTO ASIGNADO (PESOS)": 193769, "LATITUD": 20.61, "LONGITUD": -99.639722 }, "geometry": { "type": "Point", "coordinates": [ -99.639722, 20.61 ] } },
{ "type": "Feature", "properties": { "NO": 76, "ENTIDAD": "QUERETARO", "MUNICIPIO": "CADEREYTA DE MONTES", "PUEBLO INDIGENA O AFROMEXICANO": "OTOMÍ", "LOCALIDAD": "XODHE ", "CLAVE LOC": 220040155, "TIPO DE ASENTAMIENTO": "COMUNIDAD INDIGENA", "NOMBRE": "XODHÉ.", "MONTO ASIGNADO (PESOS)": 216403, "LATITUD": 20.602041, "LONGITUD": -99.622605 }, "geometry": { "type": "Point", "coordinates": [ -99.622605, 20.602041 ] } },
{ "type": "Feature", "properties": { "NO": 77, "ENTIDAD": "QUERETARO", "MUNICIPIO": "CADEREYTA DE MONTES", "PUEBLO INDIGENA O AFROMEXICANO": "OTOMÍ", "LOCALIDAD": "YONTHE ", "CLAVE LOC": 220040130, "TIPO DE ASENTAMIENTO": "COMUNIDAD INDIGENA", "NOMBRE": "EL YONTHÉ", "MONTO ASIGNADO (PESOS)": 395053, "LATITUD": 20.735602, "LONGITUD": -99.761707 }, "geometry": { "type": "Point", "coordinates": [ -99.761707, 20.735602 ] } },
{ "type": "Feature", "properties": { "NO": 78, "ENTIDAD": "QUERETARO", "MUNICIPIO": "COLON", "PUEBLO INDIGENA O AFROMEXICANO": "OTOMÍ", "LOCALIDAD": "EJIDO PATRIA", "CLAVE LOC": 220050007, "TIPO DE ASENTAMIENTO": "COMUNIDAD INDIGENA", "NOMBRE": "EJIDO PATRIA", "MONTO ASIGNADO (PESOS)": 2838739, "LATITUD": 20.868073, "LONGITUD": -100.172999 }, "geometry": { "type": "Point", "coordinates": [ -100.172999, 20.868073 ] } },
{ "type": "Feature", "properties": { "NO": 79, "ENTIDAD": "QUERETARO", "MUNICIPIO": "COLON", "PUEBLO INDIGENA O AFROMEXICANO": "OTOMÍ", "LOCALIDAD": "EL CARRIZAL", "CLAVE LOC": 220050009, "TIPO DE ASENTAMIENTO": "COMUNIDAD INDIGENA", "NOMBRE": "EL CARRIZAL", "MONTO ASIGNADO (PESOS)": 358676, "LATITUD": 20.874054, "LONGITUD": -100.054223 }, "geometry": { "type": "Point", "coordinates": [ -100.054223, 20.874054 ] } },
{ "type": "Feature", "properties": { "NO": 80, "ENTIDAD": "QUERETARO", "MUNICIPIO": "COLON", "PUEBLO INDIGENA O AFROMEXICANO": "OTOMÍ", "LOCALIDAD": "EL MEZOTE ", "CLAVE LOC": 220050037, "TIPO DE ASENTAMIENTO": "COMUNIDAD INDIGENA", "NOMBRE": "EL MEZOTE", "MONTO ASIGNADO (PESOS)": 451639, "LATITUD": 20.748611, "LONGITUD": -100.159167 }, "geometry": { "type": "Point", "coordinates": [ -100.159167, 20.748611 ] } },
{ "type": "Feature", "properties": { "NO": 81, "ENTIDAD": "QUERETARO", "MUNICIPIO": "COLON", "PUEBLO INDIGENA O AFROMEXICANO": "OTOMÍ", "LOCALIDAD": "EL POLEO", "CLAVE LOC": 220050034, "TIPO DE ASENTAMIENTO": "COMUNIDAD INDIGENA", "NOMBRE": "EL POLEO", "MONTO ASIGNADO (PESOS)": 520350, "LATITUD": 20.866269, "LONGITUD": -100.049851 }, "geometry": { "type": "Point", "coordinates": [ -100.049851, 20.866269 ] } },
{ "type": "Feature", "properties": { "NO": 82, "ENTIDAD": "QUERETARO", "MUNICIPIO": "COLON", "PUEBLO INDIGENA O AFROMEXICANO": "OTOMÍ", "LOCALIDAD": "EL POTRERO ", "CLAVE LOC": 220050035, "TIPO DE ASENTAMIENTO": "COMUNIDAD INDIGENA", "NOMBRE": "EL POTRERO", "MONTO ASIGNADO (PESOS)": 219637, "LATITUD": 20.857511, "LONGITUD": -100.090888 }, "geometry": { "type": "Point", "coordinates": [ -100.090888, 20.857511 ] } },
{ "type": "Feature", "properties": { "NO": 83, "ENTIDAD": "QUERETARO", "MUNICIPIO": "COLON", "PUEBLO INDIGENA O AFROMEXICANO": "OTOMÍ", "LOCALIDAD": "EL SAUCILLO ", "CLAVE LOC": 220050051, "TIPO DE ASENTAMIENTO": "COMUNIDAD INDIGENA", "NOMBRE": "EL SAUCILLO", "MONTO ASIGNADO (PESOS)": 975462, "LATITUD": 20.803222, "LONGITUD": -100.197514 }, "geometry": { "type": "Point", "coordinates": [ -100.197514, 20.803222 ] } },
{ "type": "Feature", "properties": { "NO": 84, "ENTIDAD": "QUERETARO", "MUNICIPIO": "COLON", "PUEBLO INDIGENA O AFROMEXICANO": "OTOMÍ", "LOCALIDAD": "EL ZAMORANO ", "CLAVE LOC": 220050059, "TIPO DE ASENTAMIENTO": "COMUNIDAD INDIGENA", "NOMBRE": "EL ZAMORANO", "MONTO ASIGNADO (PESOS)": 1965713, "LATITUD": 20.807435, "LONGITUD": -100.117282 }, "geometry": { "type": "Point", "coordinates": [ -100.117282, 20.807435 ] } },
{ "type": "Feature", "properties": { "NO": 85, "ENTIDAD": "QUERETARO", "MUNICIPIO": "COLON", "PUEBLO INDIGENA O AFROMEXICANO": "OTOMÍ", "LOCALIDAD": "LA CARBONERA", "CLAVE LOC": 220050008, "TIPO DE ASENTAMIENTO": "COMUNIDAD INDIGENA", "NOMBRE": "LA CARBONERA", "MONTO ASIGNADO (PESOS)": 1366712, "LATITUD": 20.807049, "LONGITUD": -100.172756 }, "geometry": { "type": "Point", "coordinates": [ -100.172756, 20.807049 ] } },
{ "type": "Feature", "properties": { "NO": 86, "ENTIDAD": "QUERETARO", "MUNICIPIO": "COLON", "PUEBLO INDIGENA O AFROMEXICANO": "OTOMÍ", "LOCALIDAD": "LA ZORRA ", "CLAVE LOC": 220050060, "TIPO DE ASENTAMIENTO": "COMUNIDAD INDIGENA", "NOMBRE": "LA ZORRA", "MONTO ASIGNADO (PESOS)": 500141, "LATITUD": 20.716164, "LONGITUD": -100.129077 }, "geometry": { "type": "Point", "coordinates": [ -100.129077, 20.716164 ] } },
{ "type": "Feature", "properties": { "NO": 87, "ENTIDAD": "QUERETARO", "MUNICIPIO": "COLON", "PUEBLO INDIGENA O AFROMEXICANO": "OTOMÍ", "LOCALIDAD": "PEÑA COLORADA", "CLAVE LOC": 220050030, "TIPO DE ASENTAMIENTO": "COMUNIDAD INDIGENA", "NOMBRE": "PEÑA COLORADA", "MONTO ASIGNADO (PESOS)": 515500, "LATITUD": 20.728394, "LONGITUD": -100.146421 }, "geometry": { "type": "Point", "coordinates": [ -100.146421, 20.728394 ] } },
{ "type": "Feature", "properties": { "NO": 88, "ENTIDAD": "QUERETARO", "MUNICIPIO": "COLON", "PUEBLO INDIGENA O AFROMEXICANO": "OTOMÍ", "LOCALIDAD": "PUERTA DE EN MEDIO", "CLAVE LOC": 220050036, "TIPO DE ASENTAMIENTO": "COMUNIDAD INDIGENA", "NOMBRE": "PUERTA DE ENMEDIO", "MONTO ASIGNADO (PESOS)": 797620, "LATITUD": 20.762243, "LONGITUD": -100.149642 }, "geometry": { "type": "Point", "coordinates": [ -100.149642, 20.762243 ] } },
{ "type": "Feature", "properties": { "NO": 89, "ENTIDAD": "QUERETARO", "MUNICIPIO": "COLON", "PUEBLO INDIGENA O AFROMEXICANO": "OTOMÍ", "LOCALIDAD": "SALITRERA (PRESA DE LA SOLEDAD)", "CLAVE LOC": 220050041, "TIPO DE ASENTAMIENTO": "COMUNIDAD INDIGENA", "NOMBRE": "LA SALITRERA (PRESA LA SOLEDAD)", "MONTO ASIGNADO (PESOS)": 516308, "LATITUD": 20.85748, "LONGITUD": -100.05819 }, "geometry": { "type": "Point", "coordinates": [ -100.05819, 20.85748 ] } },
{ "type": "Feature", "properties": { "NO": 90, "ENTIDAD": "QUERETARO", "MUNICIPIO": "COLON", "PUEBLO INDIGENA O AFROMEXICANO": "OTOMÍ", "LOCALIDAD": "SANTA ROSA DE LIMA (SANTA ROSA POBLADO)", "CLAVE LOC": 220050048, "TIPO DE ASENTAMIENTO": "COMUNIDAD INDIGENA", "NOMBRE": "SANTA ROSA DE LIMA", "MONTO ASIGNADO (PESOS)": 1784638, "LATITUD": 20.665631, "LONGITUD": -99.976545 }, "geometry": { "type": "Point", "coordinates": [ -99.976545, 20.665631 ] } },
{ "type": "Feature", "properties": { "NO": 91, "ENTIDAD": "QUERETARO", "MUNICIPIO": "COLON", "PUEBLO INDIGENA O AFROMEXICANO": "OTOMÍ", "LOCALIDAD": "URECHO", "CLAVE LOC": 220050056, "TIPO DE ASENTAMIENTO": "COMUNIDAD INDIGENA", "NOMBRE": "URECHO", "MONTO ASIGNADO (PESOS)": 1724819, "LATITUD": 20.653696, "LONGITUD": -100.072477 }, "geometry": { "type": "Point", "coordinates": [ -100.072477, 20.653696 ] } },
{ "type": "Feature", "properties": { "NO": 92, "ENTIDAD": "QUERETARO", "MUNICIPIO": "EZEQUIEL MONTES", "PUEBLO INDIGENA O AFROMEXICANO": "OTOMÍ", "LOCALIDAD": "ALFREDO V. BONFIL (LOS PEREZ) ", "CLAVE LOC": 220070025, "TIPO DE ASENTAMIENTO": "COMUNIDAD INDIGENA", "NOMBRE": "LOS PÉREZ", "MONTO ASIGNADO (PESOS)": 902708, "LATITUD": 20.693386, "LONGITUD": -99.877917 }, "geometry": { "type": "Point", "coordinates": [ -99.877917, 20.693386 ] } },
{ "type": "Feature", "properties": { "NO": 93, "ENTIDAD": "QUERETARO", "MUNICIPIO": "EZEQUIEL MONTES", "PUEBLO INDIGENA O AFROMEXICANO": "OTOMÍ", "LOCALIDAD": "BARRERAS ", "CLAVE LOC": 220070002, "TIPO DE ASENTAMIENTO": "COMUNIDAD INDIGENA", "NOMBRE": "BARRERAS", "MONTO ASIGNADO (PESOS)": 451639, "LATITUD": 20.660171, "LONGITUD": -99.817124 }, "geometry": { "type": "Point", "coordinates": [ -99.817124, 20.660171 ] } },
{ "type": "Feature", "properties": { "NO": 94, "ENTIDAD": "QUERETARO", "MUNICIPIO": "EZEQUIEL MONTES", "PUEBLO INDIGENA O AFROMEXICANO": "OTOMÍ", "LOCALIDAD": "BERNAL ", "CLAVE LOC": 220070003, "TIPO DE ASENTAMIENTO": "COMUNIDAD INDIGENA", "NOMBRE": "BERNAL", "MONTO ASIGNADO (PESOS)": 84639, "LATITUD": 20.740444, "LONGITUD": -99.941089 }, "geometry": { "type": "Point", "coordinates": [ -99.941089, 20.740444 ] } },
{ "type": "Feature", "properties": { "NO": 95, "ENTIDAD": "QUERETARO", "MUNICIPIO": "EZEQUIEL MONTES", "PUEBLO INDIGENA O AFROMEXICANO": "OTOMÍ", "LOCALIDAD": "EL BONDOTAL ", "CLAVE LOC": 220070004, "TIPO DE ASENTAMIENTO": "COMUNIDAD INDIGENA", "NOMBRE": "EL BONDOTAL", "MONTO ASIGNADO (PESOS)": 343317, "LATITUD": 20.593073, "LONGITUD": -99.791524 }, "geometry": { "type": "Point", "coordinates": [ -99.791524, 20.593073 ] } },
{ "type": "Feature", "properties": { "NO": 96, "ENTIDAD": "QUERETARO", "MUNICIPIO": "EZEQUIEL MONTES", "PUEBLO INDIGENA O AFROMEXICANO": "OTOMÍ", "LOCALIDAD": "EL CARDONAL (LA TIJERA)", "CLAVE LOC": 220070057, "TIPO DE ASENTAMIENTO": "COMUNIDAD INDIGENA", "NOMBRE": "EL CARDONAL (LA TIJERA)", "MONTO ASIGNADO (PESOS)": 437896, "LATITUD": 20.633088, "LONGITUD": -99.919235 }, "geometry": { "type": "Point", "coordinates": [ -99.919235, 20.633088 ] } },
{ "type": "Feature", "properties": { "NO": 97, "ENTIDAD": "QUERETARO", "MUNICIPIO": "EZEQUIEL MONTES", "PUEBLO INDIGENA O AFROMEXICANO": "OTOMÍ", "LOCALIDAD": "EL CIERVO ", "CLAVE LOC": 220070008, "TIPO DE ASENTAMIENTO": "COMUNIDAD INDIGENA", "NOMBRE": "EL CIERVO", "MONTO ASIGNADO (PESOS)": 1475033, "LATITUD": 20.618449, "LONGITUD": -99.87203 }, "geometry": { "type": "Point", "coordinates": [ -99.87203, 20.618449 ] } },
{ "type": "Feature", "properties": { "NO": 98, "ENTIDAD": "QUERETARO", "MUNICIPIO": "EZEQUIEL MONTES", "PUEBLO INDIGENA O AFROMEXICANO": "OTOMÍ", "LOCALIDAD": "EL COYOTE", "CLAVE LOC": 220070010, "TIPO DE ASENTAMIENTO": "COMUNIDAD INDIGENA", "NOMBRE": "EL COYOTE", "MONTO ASIGNADO (PESOS)": 222062, "LATITUD": 20.59677, "LONGITUD": -99.829952 }, "geometry": { "type": "Point", "coordinates": [ -99.829952, 20.59677 ] } },
{ "type": "Feature", "properties": { "NO": 99, "ENTIDAD": "QUERETARO", "MUNICIPIO": "EZEQUIEL MONTES", "PUEBLO INDIGENA O AFROMEXICANO": "OTOMÍ", "LOCALIDAD": "EL JAGÜEY GRANDE ", "CLAVE LOC": 220070017, "TIPO DE ASENTAMIENTO": "COMUNIDAD INDIGENA", "NOMBRE": "EL JAGÜEY GRANDE", "MONTO ASIGNADO (PESOS)": 715167, "LATITUD": 20.729054, "LONGITUD": -99.913685 }, "geometry": { "type": "Point", "coordinates": [ -99.913685, 20.729054 ] } },
{ "type": "Feature", "properties": { "NO": 100, "ENTIDAD": "QUERETARO", "MUNICIPIO": "EZEQUIEL MONTES", "PUEBLO INDIGENA O AFROMEXICANO": "OTOMÍ", "LOCALIDAD": "GUANAJUATITO ", "CLAVE LOC": 220070015, "TIPO DE ASENTAMIENTO": "COMUNIDAD INDIGENA", "NOMBRE": "GUANAJUATITO", "MONTO ASIGNADO (PESOS)": 549451, "LATITUD": 20.65679, "LONGITUD": -99.821402 }, "geometry": { "type": "Point", "coordinates": [ -99.821402, 20.65679 ] } },
{ "type": "Feature", "properties": { "NO": 101, "ENTIDAD": "QUERETARO", "MUNICIPIO": "EZEQUIEL MONTES", "PUEBLO INDIGENA O AFROMEXICANO": "OTOMÍ", "LOCALIDAD": "LA HIGUERA", "CLAVE LOC": 220070016, "TIPO DE ASENTAMIENTO": "COMUNIDAD INDIGENA", "NOMBRE": "LA HIGUERA", "MONTO ASIGNADO (PESOS)": 210745, "LATITUD": 20.569534, "LONGITUD": -99.84103 }, "geometry": { "type": "Point", "coordinates": [ -99.84103, 20.569534 ] } },
{ "type": "Feature", "properties": { "NO": 102, "ENTIDAD": "QUERETARO", "MUNICIPIO": "EZEQUIEL MONTES", "PUEBLO INDIGENA O AFROMEXICANO": "OTOMÍ", "LOCALIDAD": "LA LUNA ", "CLAVE LOC": 220070185, "TIPO DE ASENTAMIENTO": "COMUNIDAD INDIGENA", "NOMBRE": "LA LUNA", "MONTO ASIGNADO (PESOS)": 529242, "LATITUD": 20.65711, "LONGITUD": -99.861648 }, "geometry": { "type": "Point", "coordinates": [ -99.861648, 20.65711 ] } },
{ "type": "Feature", "properties": { "NO": 103, "ENTIDAD": "QUERETARO", "MUNICIPIO": "EZEQUIEL MONTES", "PUEBLO INDIGENA O AFROMEXICANO": "OTOMÍ", "LOCALIDAD": "LA NUEVA UNIDAD ", "CLAVE LOC": 220070135, "TIPO DE ASENTAMIENTO": "COMUNIDAD INDIGENA", "NOMBRE": "LA NUEVA UNIDAD", "MONTO ASIGNADO (PESOS)": 914025, "LATITUD": 20.651691, "LONGITUD": -99.860771 }, "geometry": { "type": "Point", "coordinates": [ -99.860771, 20.651691 ] } },
{ "type": "Feature", "properties": { "NO": 104, "ENTIDAD": "QUERETARO", "MUNICIPIO": "EZEQUIEL MONTES", "PUEBLO INDIGENA O AFROMEXICANO": "OTOMÍ", "LOCALIDAD": "LA PURISIMA ", "CLAVE LOC": 220070028, "TIPO DE ASENTAMIENTO": "COMUNIDAD INDIGENA", "NOMBRE": "LA PURÍSIMA", "MONTO ASIGNADO (PESOS)": 610887, "LATITUD": 20.674396, "LONGITUD": -99.913464 }, "geometry": { "type": "Point", "coordinates": [ -99.913464, 20.674396 ] } },
{ "type": "Feature", "properties": { "NO": 105, "ENTIDAD": "QUERETARO", "MUNICIPIO": "EZEQUIEL MONTES", "PUEBLO INDIGENA O AFROMEXICANO": "OTOMÍ", "LOCALIDAD": "LAS ROSAS", "CLAVE LOC": 220070031, "TIPO DE ASENTAMIENTO": "COMUNIDAD INDIGENA", "NOMBRE": "LAS ROSAS", "MONTO ASIGNADO (PESOS)": 300474, "LATITUD": 20.564314, "LONGITUD": -99.75171 }, "geometry": { "type": "Point", "coordinates": [ -99.75171, 20.564314 ] } },
{ "type": "Feature", "properties": { "NO": 106, "ENTIDAD": "QUERETARO", "MUNICIPIO": "EZEQUIEL MONTES", "PUEBLO INDIGENA O AFROMEXICANO": "OTOMÍ", "LOCALIDAD": "LOBERAS ", "CLAVE LOC": 220070021, "TIPO DE ASENTAMIENTO": "COMUNIDAD INDIGENA", "NOMBRE": "LOBERAS", "MONTO ASIGNADO (PESOS)": 304516, "LATITUD": 20.615641, "LONGITUD": -99.791987 }, "geometry": { "type": "Point", "coordinates": [ -99.791987, 20.615641 ] } },
{ "type": "Feature", "properties": { "NO": 107, "ENTIDAD": "QUERETARO", "MUNICIPIO": "EZEQUIEL MONTES", "PUEBLO INDIGENA O AFROMEXICANO": "OTOMÍ", "LOCALIDAD": "LOS RAMIREZ ", "CLAVE LOC": 220070029, "TIPO DE ASENTAMIENTO": "COMUNIDAD INDIGENA", "NOMBRE": "LOS RAMÍREZ", "MONTO ASIGNADO (PESOS)": 286732, "LATITUD": 20.629269, "LONGITUD": -99.81566 }, "geometry": { "type": "Point", "coordinates": [ -99.81566, 20.629269 ] } },
{ "type": "Feature", "properties": { "NO": 108, "ENTIDAD": "QUERETARO", "MUNICIPIO": "EZEQUIEL MONTES", "PUEBLO INDIGENA O AFROMEXICANO": "OTOMÍ", "LOCALIDAD": "LOS SANCHEZ ", "CLAVE LOC": 220070102, "TIPO DE ASENTAMIENTO": "COMUNIDAD INDIGENA", "NOMBRE": "LOS SÁNCHEZ", "MONTO ASIGNADO (PESOS)": 655535, "LATITUD": 20.677499, "LONGITUD": -99.936666 }, "geometry": { "type": "Point", "coordinates": [ -99.936666, 20.677499 ] } },
{ "type": "Feature", "properties": { "NO": 109, "ENTIDAD": "QUERETARO", "MUNICIPIO": "EZEQUIEL MONTES", "PUEBLO INDIGENA O AFROMEXICANO": "OTOMÍ", "LOCALIDAD": "PALO SECO ", "CLAVE LOC": 220070171, "TIPO DE ASENTAMIENTO": "COMUNIDAD INDIGENA", "NOMBRE": "PALO SECO", "MONTO ASIGNADO (PESOS)": 307749, "LATITUD": 20.648443, "LONGITUD": -99.971982 }, "geometry": { "type": "Point", "coordinates": [ -99.971982, 20.648443 ] } },
{ "type": "Feature", "properties": { "NO": 110, "ENTIDAD": "QUERETARO", "MUNICIPIO": "EZEQUIEL MONTES", "PUEBLO INDIGENA O AFROMEXICANO": "OTOMÍ", "LOCALIDAD": "SAN JOSE DE LOS TREJO (LAS ADELITAS) ", "CLAVE LOC": 220070036, "TIPO DE ASENTAMIENTO": "COMUNIDAD INDIGENA", "NOMBRE": "SAN JOSÉ DE LOS TREJO", "MONTO ASIGNADO (PESOS)": 307749, "LATITUD": 20.589481, "LONGITUD": -99.844467 }, "geometry": { "type": "Point", "coordinates": [ -99.844467, 20.589481 ] } },
{ "type": "Feature", "properties": { "NO": 111, "ENTIDAD": "QUERETARO", "MUNICIPIO": "EZEQUIEL MONTES", "PUEBLO INDIGENA O AFROMEXICANO": "OTOMÍ", "LOCALIDAD": "SAN JOSE DEL JAGÜEY", "CLAVE LOC": 220070072, "TIPO DE ASENTAMIENTO": "COMUNIDAD INDIGENA", "NOMBRE": "SAN JOSÉ DEL JAGÜEY", "MONTO ASIGNADO (PESOS)": 2014215, "LATITUD": 20.737297, "LONGITUD": -99.92437 }, "geometry": { "type": "Point", "coordinates": [ -99.92437, 20.737297 ] } },
{ "type": "Feature", "properties": { "NO": 112, "ENTIDAD": "QUERETARO", "MUNICIPIO": "EZEQUIEL MONTES", "PUEBLO INDIGENA O AFROMEXICANO": "OTOMÍ", "LOCALIDAD": "SOMBRERETE ", "CLAVE LOC": 220070040, "TIPO DE ASENTAMIENTO": "COMUNIDAD INDIGENA", "NOMBRE": "EL SOMBRERETE", "MONTO ASIGNADO (PESOS)": 289965, "LATITUD": 20.580924, "LONGITUD": -99.818767 }, "geometry": { "type": "Point", "coordinates": [ -99.818767, 20.580924 ] } },
{ "type": "Feature", "properties": { "NO": 113, "ENTIDAD": "QUERETARO", "MUNICIPIO": "EZEQUIEL MONTES", "PUEBLO INDIGENA O AFROMEXICANO": "OTOMÍ", "LOCALIDAD": "TUNAS BLANCAS ", "CLAVE LOC": 220070045, "TIPO DE ASENTAMIENTO": "COMUNIDAD INDIGENA", "NOMBRE": "TUNAS BLANCAS", "MONTO ASIGNADO (PESOS)": 825913, "LATITUD": 20.712773, "LONGITUD": -99.876392 }, "geometry": { "type": "Point", "coordinates": [ -99.876392, 20.712773 ] } },
{ "type": "Feature", "properties": { "NO": 114, "ENTIDAD": "QUERETARO", "MUNICIPIO": "EZEQUIEL MONTES", "PUEBLO INDIGENA O AFROMEXICANO": "OTOMÍ", "LOCALIDAD": "VALLE COLORADO ", "CLAVE LOC": 220070187, "TIPO DE ASENTAMIENTO": "COMUNIDAD INDIGENA", "NOMBRE": "VALLE COLORADO.", "MONTO ASIGNADO (PESOS)": 1045072, "LATITUD": 20.655, "LONGITUD": -99.877777 }, "geometry": { "type": "Point", "coordinates": [ -99.877777, 20.655 ] } },
{ "type": "Feature", "properties": { "NO": 115, "ENTIDAD": "QUERETARO", "MUNICIPIO": "HUIMILPAN", "PUEBLO INDIGENA O AFROMEXICANO": "OTOMÍ", "LOCALIDAD": "APAPATARO ", "CLAVE LOC": 220080002, "TIPO DE ASENTAMIENTO": "COMUNIDAD INDIGENA", "NOMBRE": "APAPÁTARO", "MONTO ASIGNADO (PESOS)": 1174889, "LATITUD": 20.468567, "LONGITUD": -100.36779 }, "geometry": { "type": "Point", "coordinates": [ -100.36779, 20.468567 ] } },
{ "type": "Feature", "properties": { "NO": 116, "ENTIDAD": "QUERETARO", "MUNICIPIO": "HUIMILPAN", "PUEBLO INDIGENA O AFROMEXICANO": "OTOMÍ", "LOCALIDAD": "BOSQUES DEL SUR [FRACCIONAMIENTO CAMPESTRE] ", "CLAVE LOC": 220080117, "TIPO DE ASENTAMIENTO": "COMUNIDAD INDIGENA", "NOMBRE": "EL GRANJENO", "MONTO ASIGNADO (PESOS)": 581547, "LATITUD": 20.317205, "LONGITUD": -100.268332 }, "geometry": { "type": "Point", "coordinates": [ -100.268332, 20.317205 ] } },
{ "type": "Feature", "properties": { "NO": 117, "ENTIDAD": "QUERETARO", "MUNICIPIO": "HUIMILPAN", "PUEBLO INDIGENA O AFROMEXICANO": "OTOMÍ", "LOCALIDAD": "CARRANZA (SAN ANTONIO) ", "CLAVE LOC": 220080008, "TIPO DE ASENTAMIENTO": "COMUNIDAD INDIGENA", "NOMBRE": "SAN ANTONIO CARRANZA", "MONTO ASIGNADO (PESOS)": 382119, "LATITUD": 20.462221, "LONGITUD": -100.345123 }, "geometry": { "type": "Point", "coordinates": [ -100.345123, 20.462221 ] } },
{ "type": "Feature", "properties": { "NO": 118, "ENTIDAD": "QUERETARO", "MUNICIPIO": "HUIMILPAN", "PUEBLO INDIGENA O AFROMEXICANO": "OTOMÍ", "LOCALIDAD": "EL GARRUÑAL (SAN FELIPE DE JESUS) ", "CLAVE LOC": 220080045, "TIPO DE ASENTAMIENTO": "COMUNIDAD INDIGENA", "NOMBRE": "EL GARRUÑAL", "MONTO ASIGNADO (PESOS)": 324725, "LATITUD": 20.474361, "LONGITUD": -100.34275 }, "geometry": { "type": "Point", "coordinates": [ -100.34275, 20.474361 ] } },
{ "type": "Feature", "properties": { "NO": 119, "ENTIDAD": "QUERETARO", "MUNICIPIO": "HUIMILPAN", "PUEBLO INDIGENA O AFROMEXICANO": "OTOMÍ", "LOCALIDAD": "EL ZORRILLO (SANTA CRUZ) ", "CLAVE LOC": 220080038, "TIPO DE ASENTAMIENTO": "COMUNIDAD INDIGENA", "NOMBRE": "EL ZORRILLO", "MONTO ASIGNADO (PESOS)": 314216, "LATITUD": 20.461071, "LONGITUD": -100.331582 }, "geometry": { "type": "Point", "coordinates": [ -100.331582, 20.461071 ] } },
{ "type": "Feature", "properties": { "NO": 120, "ENTIDAD": "QUERETARO", "MUNICIPIO": "HUIMILPAN", "PUEBLO INDIGENA O AFROMEXICANO": "OTOMÍ", "LOCALIDAD": "LA HACIENDITA ", "CLAVE LOC": 220080015, "TIPO DE ASENTAMIENTO": "COMUNIDAD INDIGENA", "NOMBRE": "LA HACIENDITA", "MONTO ASIGNADO (PESOS)": 388586, "LATITUD": 20.447345, "LONGITUD": -100.317007 }, "geometry": { "type": "Point", "coordinates": [ -100.317007, 20.447345 ] } },
{ "type": "Feature", "properties": { "NO": 121, "ENTIDAD": "QUERETARO", "MUNICIPIO": "HUIMILPAN", "PUEBLO INDIGENA O AFROMEXICANO": "OTOMÍ", "LOCALIDAD": "LA MESITA LAGUNILLAS ", "CLAVE LOC": 220080055, "TIPO DE ASENTAMIENTO": "COMUNIDAD INDIGENA", "NOMBRE": "LA MESITA", "MONTO ASIGNADO (PESOS)": 184877, "LATITUD": 20.457703, "LONGITUD": -100.306341 }, "geometry": { "type": "Point", "coordinates": [ -100.306341, 20.457703 ] } },
{ "type": "Feature", "properties": { "NO": 122, "ENTIDAD": "QUERETARO", "MUNICIPIO": "HUIMILPAN", "PUEBLO INDIGENA O AFROMEXICANO": "OTOMÍ", "LOCALIDAD": "LOS BORDOS ", "CLAVE LOC": 220080004, "TIPO DE ASENTAMIENTO": "COMUNIDAD INDIGENA", "NOMBRE": "LOS BORDOS", "MONTO ASIGNADO (PESOS)": 369993, "LATITUD": 20.433622, "LONGITUD": -100.334409 }, "geometry": { "type": "Point", "coordinates": [ -100.334409, 20.433622 ] } },
{ "type": "Feature", "properties": { "NO": 123, "ENTIDAD": "QUERETARO", "MUNICIPIO": "HUIMILPAN", "PUEBLO INDIGENA O AFROMEXICANO": "OTOMÍ", "LOCALIDAD": "LOS CUES ", "CLAVE LOC": 220080010, "TIPO DE ASENTAMIENTO": "COMUNIDAD INDIGENA", "NOMBRE": "LOS CUES", "MONTO ASIGNADO (PESOS)": 1152494, "LATITUD": 20.502733, "LONGITUD": -100.264062 }, "geometry": { "type": "Point", "coordinates": [ -100.264062, 20.502733 ] } },
{ "type": "Feature", "properties": { "NO": 124, "ENTIDAD": "QUERETARO", "MUNICIPIO": "HUIMILPAN", "PUEBLO INDIGENA O AFROMEXICANO": "OTOMÍ", "LOCALIDAD": "PANIAGUA ", "CLAVE LOC": 220080022, "TIPO DE ASENTAMIENTO": "COMUNIDAD INDIGENA", "NOMBRE": "PANIAGUA", "MONTO ASIGNADO (PESOS)": 391819, "LATITUD": 20.450882, "LONGITUD": -100.324266 }, "geometry": { "type": "Point", "coordinates": [ -100.324266, 20.450882 ] } },
{ "type": "Feature", "properties": { "NO": 125, "ENTIDAD": "QUERETARO", "MUNICIPIO": "HUIMILPAN", "PUEBLO INDIGENA O AFROMEXICANO": "OTOMÍ", "LOCALIDAD": "PUERTA DEL TEPOZAN ", "CLAVE LOC": 220080026, "TIPO DE ASENTAMIENTO": "COMUNIDAD INDIGENA", "NOMBRE": "LA PUERTA DEL TEPOZÁN", "MONTO ASIGNADO (PESOS)": 434663, "LATITUD": 20.449543, "LONGITUD": -100.334891 }, "geometry": { "type": "Point", "coordinates": [ -100.334891, 20.449543 ] } },
{ "type": "Feature", "properties": { "NO": 126, "ENTIDAD": "QUERETARO", "MUNICIPIO": "HUIMILPAN", "PUEBLO INDIGENA O AFROMEXICANO": "OTOMÍ", "LOCALIDAD": "SAN JOSE TEPUZAS ", "CLAVE LOC": 220080036, "TIPO DE ASENTAMIENTO": "COMUNIDAD INDIGENA", "NOMBRE": "SAN JOSÉ TEPUZAS", "MONTO ASIGNADO (PESOS)": 914025, "LATITUD": 20.358756, "LONGITUD": -100.371645 }, "geometry": { "type": "Point", "coordinates": [ -100.371645, 20.358756 ] } },
{ "type": "Feature", "properties": { "NO": 127, "ENTIDAD": "QUERETARO", "MUNICIPIO": "HUIMILPAN", "PUEBLO INDIGENA O AFROMEXICANO": "OTOMÍ", "LOCALIDAD": "SANTA TERESA ", "CLAVE LOC": 220080034, "TIPO DE ASENTAMIENTO": "COMUNIDAD INDIGENA", "NOMBRE": "SANTA TERESA DE ÁVILA", "MONTO ASIGNADO (PESOS)": 734568, "LATITUD": 20.497709, "LONGITUD": -100.300021 }, "geometry": { "type": "Point", "coordinates": [ -100.300021, 20.497709 ] } },
{ "type": "Feature", "properties": { "NO": 128, "ENTIDAD": "QUERETARO", "MUNICIPIO": "JALPAN DE SERRA", "PUEBLO INDIGENA O AFROMEXICANO": "PAME", "LOCALIDAD": "AGUA FRIA ", "CLAVE LOC": 220090005, "TIPO DE ASENTAMIENTO": "COMUNIDAD INDIGENA", "NOMBRE": "AGUA FRÍA", "MONTO ASIGNADO (PESOS)": 619061, "LATITUD": 21.318054, "LONGITUD": -99.448064 }, "geometry": { "type": "Point", "coordinates": [ -99.448064, 21.318054 ] } },
{ "type": "Feature", "properties": { "NO": 129, "ENTIDAD": "QUERETARO", "MUNICIPIO": "JALPAN DE SERRA", "PUEBLO INDIGENA O AFROMEXICANO": "PAME", "LOCALIDAD": "LA ARENA ", "CLAVE LOC": 220090007, "TIPO DE ASENTAMIENTO": "COMUNIDAD INDIGENA", "NOMBRE": "LA ARENA", "MONTO ASIGNADO (PESOS)": 171943, "LATITUD": 21.138176, "LONGITUD": -99.486545 }, "geometry": { "type": "Point", "coordinates": [ -99.486545, 21.138176 ] } },
{ "type": "Feature", "properties": { "NO": 130, "ENTIDAD": "QUERETARO", "MUNICIPIO": "JALPAN DE SERRA", "PUEBLO INDIGENA O AFROMEXICANO": "PAME", "LOCALIDAD": "LAS NUEVAS FLORES ", "CLAVE LOC": 220090233, "TIPO DE ASENTAMIENTO": "COMUNIDAD INDIGENA", "NOMBRE": "LAS NUEVAS FLORES", "MONTO ASIGNADO (PESOS)": 157502, "LATITUD": 21.418444, "LONGITUD": -99.339193 }, "geometry": { "type": "Point", "coordinates": [ -99.339193, 21.418444 ] } },
{ "type": "Feature", "properties": { "NO": 131, "ENTIDAD": "QUERETARO", "MUNICIPIO": "JALPAN DE SERRA", "PUEBLO INDIGENA O AFROMEXICANO": "PAME", "LOCALIDAD": "LOS JASSO ", "CLAVE LOC": 220090037, "TIPO DE ASENTAMIENTO": "COMUNIDAD INDIGENA", "NOMBRE": "LOS JASSO", "MONTO ASIGNADO (PESOS)": 108890, "LATITUD": 21.350833, "LONGITUD": -99.401667 }, "geometry": { "type": "Point", "coordinates": [ -99.401667, 21.350833 ] } },
{ "type": "Feature", "properties": { "NO": 132, "ENTIDAD": "QUERETARO", "MUNICIPIO": "JALPAN DE SERRA", "PUEBLO INDIGENA O AFROMEXICANO": "PAME", "LOCALIDAD": "SALDIVEÑA ", "CLAVE LOC": 220090074, "TIPO DE ASENTAMIENTO": "COMUNIDAD INDIGENA", "NOMBRE": "SALDIVEÑA", "MONTO ASIGNADO (PESOS)": 1044981, "LATITUD": 21.252966, "LONGITUD": -99.486767 }, "geometry": { "type": "Point", "coordinates": [ -99.486767, 21.252966 ] } },
{ "type": "Feature", "properties": { "NO": 133, "ENTIDAD": "QUERETARO", "MUNICIPIO": "JALPAN DE SERRA", "PUEBLO INDIGENA O AFROMEXICANO": "PAME", "LOCALIDAD": "TANCOYOL ", "CLAVE LOC": 220090087, "TIPO DE ASENTAMIENTO": "COMUNIDAD INDIGENA", "NOMBRE": "TANCOYOL", "MONTO ASIGNADO (PESOS)": 2070310, "LATITUD": 21.398813, "LONGITUD": -99.330487 }, "geometry": { "type": "Point", "coordinates": [ -99.330487, 21.398813 ] } },
{ "type": "Feature", "properties": { "NO": 134, "ENTIDAD": "QUERETARO", "MUNICIPIO": "JALPAN DE SERRA", "PUEBLO INDIGENA O AFROMEXICANO": "PAME", "LOCALIDAD": "TIERRA FRIA ", "CLAVE LOC": 220090090, "TIPO DE ASENTAMIENTO": "COMUNIDAD INDIGENA", "NOMBRE": "TIERRA FRÍA", "MONTO ASIGNADO (PESOS)": 142034, "LATITUD": 21.309641, "LONGITUD": -99.417794 }, "geometry": { "type": "Point", "coordinates": [ -99.417794, 21.309641 ] } },
{ "type": "Feature", "properties": { "NO": 135, "ENTIDAD": "QUERETARO", "MUNICIPIO": "JALPAN DE SERRA", "PUEBLO INDIGENA O AFROMEXICANO": "HUASTECO", "LOCALIDAD": "VALLE VERDE ", "CLAVE LOC": 220090060, "TIPO DE ASENTAMIENTO": "COMUNIDAD INDIGENA", "NOMBRE": "VALLE VERDE", "MONTO ASIGNADO (PESOS)": 2120590, "LATITUD": 21.513703, "LONGITUD": -99.172249 }, "geometry": { "type": "Point", "coordinates": [ -99.172249, 21.513703 ] } },
{ "type": "Feature", "properties": { "NO": 136, "ENTIDAD": "QUERETARO", "MUNICIPIO": "LANDA DE MATAMOROS", "PUEBLO INDIGENA O AFROMEXICANO": "PAME", "LOCALIDAD": "MESA DEL COROZO ", "CLAVE LOC": 220100022, "TIPO DE ASENTAMIENTO": "COMUNIDAD INDIGENA", "NOMBRE": "MESA DEL COROZO", "MONTO ASIGNADO (PESOS)": 216403, "LATITUD": 21.193536, "LONGITUD": -99.064282 }, "geometry": { "type": "Point", "coordinates": [ -99.064282, 21.193536 ] } },
{ "type": "Feature", "properties": { "NO": 137, "ENTIDAD": "QUERETARO", "MUNICIPIO": "LANDA DE MATAMOROS", "PUEBLO INDIGENA O AFROMEXICANO": "PAME", "LOCALIDAD": "NEBLINAS ", "CLAVE LOC": 220100027, "TIPO DE ASENTAMIENTO": "COMUNIDAD INDIGENA", "NOMBRE": "NEBLINAS", "MONTO ASIGNADO (PESOS)": 1038036, "LATITUD": 21.270319, "LONGITUD": -99.056056 }, "geometry": { "type": "Point", "coordinates": [ -99.056056, 21.270319 ] } },
{ "type": "Feature", "properties": { "NO": 138, "ENTIDAD": "QUERETARO", "MUNICIPIO": "LANDA DE MATAMOROS", "PUEBLO INDIGENA O AFROMEXICANO": "PAME", "LOCALIDAD": "TRES LAGUNAS ", "CLAVE LOC": 220100050, "TIPO DE ASENTAMIENTO": "COMUNIDAD INDIGENA", "NOMBRE": "TRES LAGUNAS", "MONTO ASIGNADO (PESOS)": 2620433, "LATITUD": 21.330267, "LONGITUD": -99.204445 }, "geometry": { "type": "Point", "coordinates": [ -99.204445, 21.330267 ] } },
{ "type": "Feature", "properties": { "NO": 139, "ENTIDAD": "QUERETARO", "MUNICIPIO": "PEDRO ESCOBEDO", "PUEBLO INDIGENA O AFROMEXICANO": "OTOMÍ", "LOCALIDAD": "SAN ANTONIO LA D ", "CLAVE LOC": 220120026, "TIPO DE ASENTAMIENTO": "COMUNIDAD INDIGENA", "NOMBRE": "SAN ANTONIO, LA D", "MONTO ASIGNADO (PESOS)": 691724, "LATITUD": 20.421964, "LONGITUD": -100.162824 }, "geometry": { "type": "Point", "coordinates": [ -100.162824, 20.421964 ] } },
{ "type": "Feature", "properties": { "NO": 140, "ENTIDAD": "QUERETARO", "MUNICIPIO": "PEÑAMILLER", "PUEBLO INDIGENA O AFROMEXICANO": "OTOMÍ", "LOCALIDAD": "AGUA CALIENTE ", "CLAVE LOC": 220130004, "TIPO DE ASENTAMIENTO": "COMUNIDAD INDIGENA", "NOMBRE": "AGUA CALIENTE", "MONTO ASIGNADO (PESOS)": 788250, "LATITUD": 21.116479, "LONGITUD": -99.988877 }, "geometry": { "type": "Point", "coordinates": [ -99.988877, 21.116479 ] } },
{ "type": "Feature", "properties": { "NO": 141, "ENTIDAD": "QUERETARO", "MUNICIPIO": "PEÑAMILLER", "PUEBLO INDIGENA O AFROMEXICANO": "OTOMÍ", "LOCALIDAD": "AGUA DE PEDRO ", "CLAVE LOC": 220130006, "TIPO DE ASENTAMIENTO": "COMUNIDAD INDIGENA", "NOMBRE": "AGUA DE PEDRO", "MONTO ASIGNADO (PESOS)": 441414, "LATITUD": 21.123308, "LONGITUD": -99.805231 }, "geometry": { "type": "Point", "coordinates": [ -99.805231, 21.123308 ] } },
{ "type": "Feature", "properties": { "NO": 142, "ENTIDAD": "QUERETARO", "MUNICIPIO": "PEÑAMILLER", "PUEBLO INDIGENA O AFROMEXICANO": "OTOMÍ", "LOCALIDAD": "AGUA FRIA ", "CLAVE LOC": 220130007, "TIPO DE ASENTAMIENTO": "COMUNIDAD INDIGENA", "NOMBRE": "AGUA FRÍA", "MONTO ASIGNADO (PESOS)": 1666377, "LATITUD": 21.155977, "LONGITUD": -99.797589 }, "geometry": { "type": "Point", "coordinates": [ -99.797589, 21.155977 ] } },
{ "type": "Feature", "properties": { "NO": 143, "ENTIDAD": "QUERETARO", "MUNICIPIO": "PEÑAMILLER", "PUEBLO INDIGENA O AFROMEXICANO": "OTOMÍ", "LOCALIDAD": "CUESTA COLORADA ", "CLAVE LOC": 220130023, "TIPO DE ASENTAMIENTO": "COMUNIDAD INDIGENA", "NOMBRE": "CUESTA COLORADA", "MONTO ASIGNADO (PESOS)": 184877, "LATITUD": 21.102321, "LONGITUD": -99.710889 }, "geometry": { "type": "Point", "coordinates": [ -99.710889, 21.102321 ] } },
{ "type": "Feature", "properties": { "NO": 144, "ENTIDAD": "QUERETARO", "MUNICIPIO": "PEÑAMILLER", "PUEBLO INDIGENA O AFROMEXICANO": "OTOMÍ", "LOCALIDAD": "EL CARRIZAL ", "CLAVE LOC": 220130016, "TIPO DE ASENTAMIENTO": "COMUNIDAD INDIGENA", "NOMBRE": "EL CARRIZAL", "MONTO ASIGNADO (PESOS)": 123441, "LATITUD": 21.057753, "LONGITUD": -99.910644 }, "geometry": { "type": "Point", "coordinates": [ -99.910644, 21.057753 ] } },
{ "type": "Feature", "properties": { "NO": 145, "ENTIDAD": "QUERETARO", "MUNICIPIO": "PEÑAMILLER", "PUEBLO INDIGENA O AFROMEXICANO": "OTOMÍ", "LOCALIDAD": "EL MORAL ", "CLAVE LOC": 220130037, "TIPO DE ASENTAMIENTO": "COMUNIDAD INDIGENA", "NOMBRE": "EL MORAL", "MONTO ASIGNADO (PESOS)": 301043, "LATITUD": 21.071944, "LONGITUD": -99.68111 }, "geometry": { "type": "Point", "coordinates": [ -99.68111, 21.071944 ] } },
{ "type": "Feature", "properties": { "NO": 146, "ENTIDAD": "QUERETARO", "MUNICIPIO": "PEÑAMILLER", "PUEBLO INDIGENA O AFROMEXICANO": "OTOMÍ", "LOCALIDAD": "EL PUERTO DE LA GUITARRA ", "CLAVE LOC": 220130121, "TIPO DE ASENTAMIENTO": "COMUNIDAD INDIGENA", "NOMBRE": "PUERTO DE LA GUITARRA", "MONTO ASIGNADO (PESOS)": 122633, "LATITUD": 21.032987, "LONGITUD": -99.734041 }, "geometry": { "type": "Point", "coordinates": [ -99.734041, 21.032987 ] } },
{ "type": "Feature", "properties": { "NO": 147, "ENTIDAD": "QUERETARO", "MUNICIPIO": "PEÑAMILLER", "PUEBLO INDIGENA O AFROMEXICANO": "OTOMÍ", "LOCALIDAD": "EL TEQUEZQUITE ", "CLAVE LOC": 220130059, "TIPO DE ASENTAMIENTO": "COMUNIDAD INDIGENA", "NOMBRE": "EL TEQUESQUITE", "MONTO ASIGNADO (PESOS)": 163051, "LATITUD": 21.084627, "LONGITUD": -99.926867 }, "geometry": { "type": "Point", "coordinates": [ -99.926867, 21.084627 ] } },
{ "type": "Feature", "properties": { "NO": 148, "ENTIDAD": "QUERETARO", "MUNICIPIO": "PEÑAMILLER", "PUEBLO INDIGENA O AFROMEXICANO": "OTOMÍ", "LOCALIDAD": "LA LAJA ", "CLAVE LOC": 220130122, "TIPO DE ASENTAMIENTO": "COMUNIDAD INDIGENA", "NOMBRE": "LA LAJA", "MONTO ASIGNADO (PESOS)": 140417, "LATITUD": 21.027289, "LONGITUD": -99.694502 }, "geometry": { "type": "Point", "coordinates": [ -99.694502, 21.027289 ] } },
{ "type": "Feature", "properties": { "NO": 149, "ENTIDAD": "QUERETARO", "MUNICIPIO": "PEÑAMILLER", "PUEBLO INDIGENA O AFROMEXICANO": "OTOMÍ", "LOCALIDAD": "LA PLAZUELA ", "CLAVE LOC": 220130046, "TIPO DE ASENTAMIENTO": "COMUNIDAD INDIGENA", "NOMBRE": "LA PLAZUELA", "MONTO ASIGNADO (PESOS)": 442747, "LATITUD": 21.058541, "LONGITUD": -99.700507 }, "geometry": { "type": "Point", "coordinates": [ -99.700507, 21.058541 ] } },
{ "type": "Feature", "properties": { "NO": 150, "ENTIDAD": "QUERETARO", "MUNICIPIO": "PEÑAMILLER", "PUEBLO INDIGENA O AFROMEXICANO": "OTOMÍ", "LOCALIDAD": "LAS MESAS ", "CLAVE LOC": 220130035, "TIPO DE ASENTAMIENTO": "COMUNIDAD INDIGENA", "NOMBRE": "LAS MESAS", "MONTO ASIGNADO (PESOS)": 204278, "LATITUD": 21.116406, "LONGITUD": -99.814759 }, "geometry": { "type": "Point", "coordinates": [ -99.814759, 21.116406 ] } },
{ "type": "Feature", "properties": { "NO": 151, "ENTIDAD": "QUERETARO", "MUNICIPIO": "PEÑAMILLER", "PUEBLO INDIGENA O AFROMEXICANO": "OTOMÍ", "LOCALIDAD": "MESA DEL TROJE ", "CLAVE LOC": 220130073, "TIPO DE ASENTAMIENTO": "COMUNIDAD INDIGENA", "NOMBRE": "MESA DEL TROJE", "MONTO ASIGNADO (PESOS)": 119399, "LATITUD": 21.077564, "LONGITUD": -99.982779 }, "geometry": { "type": "Point", "coordinates": [ -99.982779, 21.077564 ] } },
{ "type": "Feature", "properties": { "NO": 152, "ENTIDAD": "QUERETARO", "MUNICIPIO": "PEÑAMILLER", "PUEBLO INDIGENA O AFROMEXICANO": "OTOMÍ", "LOCALIDAD": "MILPILLAS ", "CLAVE LOC": 220130145, "TIPO DE ASENTAMIENTO": "COMUNIDAD INDIGENA", "NOMBRE": "MILPILLAS", "MONTO ASIGNADO (PESOS)": 173560, "LATITUD": 21.112044, "LONGITUD": -99.766134 }, "geometry": { "type": "Point", "coordinates": [ -99.766134, 21.112044 ] } },
{ "type": "Feature", "properties": { "NO": 153, "ENTIDAD": "QUERETARO", "MUNICIPIO": "PEÑAMILLER", "PUEBLO INDIGENA O AFROMEXICANO": "OTOMÍ", "LOCALIDAD": "PEÑA BLANCA ", "CLAVE LOC": 220130043, "TIPO DE ASENTAMIENTO": "COMUNIDAD INDIGENA", "NOMBRE": "PEÑA BLANCA", "MONTO ASIGNADO (PESOS)": 542176, "LATITUD": 21.039765, "LONGITUD": -99.731746 }, "geometry": { "type": "Point", "coordinates": [ -99.731746, 21.039765 ] } },
{ "type": "Feature", "properties": { "NO": 154, "ENTIDAD": "QUERETARO", "MUNICIPIO": "PEÑAMILLER", "PUEBLO INDIGENA O AFROMEXICANO": "OTOMÍ", "LOCALIDAD": "RIO BLANCO ", "CLAVE LOC": 220130050, "TIPO DE ASENTAMIENTO": "COMUNIDAD INDIGENA", "NOMBRE": "RÍO BLANCO", "MONTO ASIGNADO (PESOS)": 410981, "LATITUD": 21.207806, "LONGITUD": -99.737477 }, "geometry": { "type": "Point", "coordinates": [ -99.737477, 21.207806 ] } },
{ "type": "Feature", "properties": { "NO": 155, "ENTIDAD": "QUERETARO", "MUNICIPIO": "PEÑAMILLER", "PUEBLO INDIGENA O AFROMEXICANO": "PAME", "LOCALIDAD": "SAN MIGUEL PALMAS (MISION DE PALMAS)", "CLAVE LOC": 220130054, "TIPO DE ASENTAMIENTO": "COMUNIDAD INDIGENA", "NOMBRE": "SAN MIGUEL PALMAS", "MONTO ASIGNADO (PESOS)": 1264709, "LATITUD": 21.099572, "LONGITUD": -99.963243 }, "geometry": { "type": "Point", "coordinates": [ -99.963243, 21.099572 ] } },
{ "type": "Feature", "properties": { "NO": 156, "ENTIDAD": "QUERETARO", "MUNICIPIO": "PINAL DE AMOLES", "PUEBLO INDIGENA O AFROMEXICANO": "OTOMÍ", "LOCALIDAD": "MABY ", "CLAVE LOC": 220020047, "TIPO DE ASENTAMIENTO": "COMUNIDAD INDIGENA", "NOMBRE": "MABY", "MONTO ASIGNADO (PESOS)": 239846, "LATITUD": 21.150811, "LONGITUD": -99.510843 }, "geometry": { "type": "Point", "coordinates": [ -99.510843, 21.150811 ] } },
{ "type": "Feature", "properties": { "NO": 157, "ENTIDAD": "QUERETARO", "MUNICIPIO": "PINAL DE AMOLES", "PUEBLO INDIGENA O AFROMEXICANO": "PAME", "LOCALIDAD": "QUIRAMBAL", "CLAVE LOC": 220020070, "TIPO DE ASENTAMIENTO": "COMUNIDAD INDIGENA", "NOMBRE": "QUIRAMBAL", "MONTO ASIGNADO (PESOS)": 297240, "LATITUD": 21.192286, "LONGITUD": -99.543029 }, "geometry": { "type": "Point", "coordinates": [ -99.543029, 21.192286 ] } },
{ "type": "Feature", "properties": { "NO": 158, "ENTIDAD": "QUERETARO", "MUNICIPIO": "SAN JOAQUIN", "PUEBLO INDIGENA O AFROMEXICANO": "OTOMÍ", "LOCALIDAD": "CULEBRAS ", "CLAVE LOC": 220150078, "TIPO DE ASENTAMIENTO": "LOCALIDAD CON POBLACION\nINDIGENA", "NOMBRE": "CULEBRAS", "MONTO ASIGNADO (PESOS)": 170064, "LATITUD": 20.950054, "LONGITUD": -99.671071 }, "geometry": { "type": "Point", "coordinates": [ -99.671071, 20.950054 ] } },
{ "type": "Feature", "properties": { "NO": 159, "ENTIDAD": "QUERETARO", "MUNICIPIO": "SAN JOAQUIN", "PUEBLO INDIGENA O AFROMEXICANO": "OTOMÍ", "LOCALIDAD": "EL DECONI ", "CLAVE LOC": 220150007, "TIPO DE ASENTAMIENTO": "COMUNIDAD INDIGENA", "NOMBRE": "EL DECONI", "MONTO ASIGNADO (PESOS)": 184069, "LATITUD": 20.915403, "LONGITUD": -99.547708 }, "geometry": { "type": "Point", "coordinates": [ -99.547708, 20.915403 ] } },
{ "type": "Feature", "properties": { "NO": 160, "ENTIDAD": "QUERETARO", "MUNICIPIO": "SAN JOAQUIN", "PUEBLO INDIGENA O AFROMEXICANO": "OTOMÍ", "LOCALIDAD": "EL PLATANO ", "CLAVE LOC": 220150017, "TIPO DE ASENTAMIENTO": "COMUNIDAD INDIGENA", "NOMBRE": "EL PLÁTANO", "MONTO ASIGNADO (PESOS)": 171135, "LATITUD": 21.009077, "LONGITUD": -99.513767 }, "geometry": { "type": "Point", "coordinates": [ -99.513767, 21.009077 ] } },
{ "type": "Feature", "properties": { "NO": 161, "ENTIDAD": "QUERETARO", "MUNICIPIO": "SAN JOAQUIN", "PUEBLO INDIGENA O AFROMEXICANO": "OTOMÍ", "LOCALIDAD": "LLANOS DE SANTA CLARA", "CLAVE LOC": 220150047, "TIPO DE ASENTAMIENTO": "COMUNIDAD INDIGENA", "NOMBRE": "LLANOS DE SANTA CLARA", "MONTO ASIGNADO (PESOS)": 127352, "LATITUD": 21.074979, "LONGITUD": -99.440406 }, "geometry": { "type": "Point", "coordinates": [ -99.440406, 21.074979 ] } },
{ "type": "Feature", "properties": { "NO": 162, "ENTIDAD": "QUERETARO", "MUNICIPIO": "SAN JOAQUIN", "PUEBLO INDIGENA O AFROMEXICANO": "OTOMÍ", "LOCALIDAD": "PUERTO DE LA GARITA ", "CLAVE LOC": 220150090, "TIPO DE ASENTAMIENTO": "COMUNIDAD INDIGENA", "NOMBRE": "PUERTO DE LA GARITA", "MONTO ASIGNADO (PESOS)": 116974, "LATITUD": 21.049667, "LONGITUD": -99.474182 }, "geometry": { "type": "Point", "coordinates": [ -99.474182, 21.049667 ] } },
{ "type": "Feature", "properties": { "NO": 163, "ENTIDAD": "QUERETARO", "MUNICIPIO": "SAN JOAQUIN", "PUEBLO INDIGENA O AFROMEXICANO": "OTOMÍ", "LOCALIDAD": "PUERTO HONDO ", "CLAVE LOC": 220150020, "TIPO DE ASENTAMIENTO": "COMUNIDAD INDIGENA", "NOMBRE": "PUERTO HONDO", "MONTO ASIGNADO (PESOS)": 137992, "LATITUD": 20.97111, "LONGITUD": -99.553889 }, "geometry": { "type": "Point", "coordinates": [ -99.553889, 20.97111 ] } },
{ "type": "Feature", "properties": { "NO": 164, "ENTIDAD": "QUERETARO", "MUNICIPIO": "SAN JOAQUIN", "PUEBLO INDIGENA O AFROMEXICANO": "OTOMÍ", "LOCALIDAD": "SAN FRANCISCO GATOS ", "CLAVE LOC": 220150024, "TIPO DE ASENTAMIENTO": "COMUNIDAD INDIGENA", "NOMBRE": "SAN FRANCISCO GATOS", "MONTO ASIGNADO (PESOS)": 176793, "LATITUD": 20.969367, "LONGITUD": -99.615684 }, "geometry": { "type": "Point", "coordinates": [ -99.615684, 20.969367 ] } },
{ "type": "Feature", "properties": { "NO": 165, "ENTIDAD": "QUERETARO", "MUNICIPIO": "SAN JOAQUIN", "PUEBLO INDIGENA O AFROMEXICANO": "PAME", "LOCALIDAD": "SAN JUAN TETLA ", "CLAVE LOC": 220150027, "TIPO DE ASENTAMIENTO": "COMUNIDAD INDIGENA", "NOMBRE": "SAN JUAN TETLA", "MONTO ASIGNADO (PESOS)": 127483, "LATITUD": 20.976478, "LONGITUD": -99.499204 }, "geometry": { "type": "Point", "coordinates": [ -99.499204, 20.976478 ] } },
{ "type": "Feature", "properties": { "NO": 166, "ENTIDAD": "QUERETARO", "MUNICIPIO": "SAN JOAQUIN", "PUEBLO INDIGENA O AFROMEXICANO": "OTOMÍ", "LOCALIDAD": "SANTA MONICA LAS TINAJAS ", "CLAVE LOC": 220150083, "TIPO DE ASENTAMIENTO": "COMUNIDAD INDIGENA", "NOMBRE": "SANTA MÓNICA LAS TINAJAS", "MONTO ASIGNADO (PESOS)": 158201, "LATITUD": 21.055699, "LONGITUD": -99.401525 }, "geometry": { "type": "Point", "coordinates": [ -99.401525, 21.055699 ] } },
{ "type": "Feature", "properties": { "NO": 167, "ENTIDAD": "QUERETARO", "MUNICIPIO": "TEQUISQUIAPAN", "PUEBLO INDIGENA O AFROMEXICANO": "OTOMÍ", "LOCALIDAD": "SAN JOSE DE LA LAJA ", "CLAVE LOC": 220170014, "TIPO DE ASENTAMIENTO": "COMUNIDAD INDIGENA", "NOMBRE": "SAN JOSÉ LA LAJA", "MONTO ASIGNADO (PESOS)": 1732094, "LATITUD": 20.619976, "LONGITUD": -99.974298 }, "geometry": { "type": "Point", "coordinates": [ -99.974298, 20.619976 ] } },
{ "type": "Feature", "properties": { "NO": 168, "ENTIDAD": "QUERETARO", "MUNICIPIO": "TEQUISQUIAPAN", "PUEBLO INDIGENA O AFROMEXICANO": "OTOMÍ", "LOCALIDAD": "SAN NICOLAS ", "CLAVE LOC": 220170016, "TIPO DE ASENTAMIENTO": "COMUNIDAD INDIGENA", "NOMBRE": "SAN NICOLÁS", "MONTO ASIGNADO (PESOS)": 133950, "LATITUD": 20.480364, "LONGITUD": -99.940106 }, "geometry": { "type": "Point", "coordinates": [ -99.940106, 20.480364 ] } },
{ "type": "Feature", "properties": { "NO": 169, "ENTIDAD": "QUERETARO", "MUNICIPIO": "TOLIMAN", "PUEBLO INDIGENA O AFROMEXICANO": "OTOMÍ", "LOCALIDAD": "CASA BLANCA ", "CLAVE LOC": 220180009, "TIPO DE ASENTAMIENTO": "COMUNIDAD INDIGENA", "NOMBRE": "HIGUERAS", "MONTO ASIGNADO (PESOS)": 7927217, "LATITUD": 20.930256, "LONGITUD": -99.967708 }, "geometry": { "type": "Point", "coordinates": [ -99.967708, 20.930256 ] } },
{ "type": "Feature", "properties": { "NO": 170, "ENTIDAD": "QUERETARO", "MUNICIPIO": "TOLIMAN", "PUEBLO INDIGENA O AFROMEXICANO": "OTOMÍ", "LOCALIDAD": "GRANJENO ", "CLAVE LOC": 220180021, "TIPO DE ASENTAMIENTO": "COMUNIDAD INDIGENA", "NOMBRE": "EL GRANJENO", "MONTO ASIGNADO (PESOS)": 358437, "LATITUD": 20.896695, "LONGITUD": -99.931721 }, "geometry": { "type": "Point", "coordinates": [ -99.931721, 20.896695 ] } },
{ "type": "Feature", "properties": { "NO": 171, "ENTIDAD": "QUERETARO", "MUNICIPIO": "TOLIMAN", "PUEBLO INDIGENA O AFROMEXICANO": "OTOMÍ", "LOCALIDAD": "LA LOMA", "CLAVE LOC": 220180131, "TIPO DE ASENTAMIENTO": "COMUNIDAD INDIGENA", "NOMBRE": "LA LOMA", "MONTO ASIGNADO (PESOS)": 84639, "LATITUD": 20.908601, "LONGITUD": -99.924035 }, "geometry": { "type": "Point", "coordinates": [ -99.924035, 20.908601 ] } },
{ "type": "Feature", "properties": { "NO": 172, "ENTIDAD": "QUERETARO", "MUNICIPIO": "TOLIMAN", "PUEBLO INDIGENA O AFROMEXICANO": "OTOMÍ", "LOCALIDAD": "RANCHO NUEVO ", "CLAVE LOC": 220180040, "TIPO DE ASENTAMIENTO": "COMUNIDAD INDIGENA", "NOMBRE": "RANCHO NUEVO", "MONTO ASIGNADO (PESOS)": 534092, "LATITUD": 20.821944, "LONGITUD": -99.841666 }, "geometry": { "type": "Point", "coordinates": [ -99.841666, 20.821944 ] } },
{ "type": "Feature", "properties": { "NO": 173, "ENTIDAD": "QUERETARO", "MUNICIPIO": "TOLIMAN", "PUEBLO INDIGENA O AFROMEXICANO": "OTOMÍ", "LOCALIDAD": "SAN ANTONIO DE LA CAL ", "CLAVE LOC": 220180047, "TIPO DE ASENTAMIENTO": "COMUNIDAD INDIGENA", "NOMBRE": "SAN ANTONIO DE LA CAL", "MONTO ASIGNADO (PESOS)": 139608, "LATITUD": 20.767096, "LONGITUD": -99.93764 }, "geometry": { "type": "Point", "coordinates": [ -99.93764, 20.767096 ] } },
{ "type": "Feature", "properties": { "NO": 174, "ENTIDAD": "QUERETARO", "MUNICIPIO": "TOLIMAN", "PUEBLO INDIGENA O AFROMEXICANO": "OTOMÍ", "LOCALIDAD": "SAN MIGUEL ", "CLAVE LOC": 220180049, "TIPO DE ASENTAMIENTO": "COMUNIDAD INDIGENA", "NOMBRE": "SAN MIGUEL TOLIMÁN", "MONTO ASIGNADO (PESOS)": 5676816, "LATITUD": 20.868894, "LONGITUD": -99.962019 }, "geometry": { "type": "Point", "coordinates": [ -99.962019, 20.868894 ] } },
{ "type": "Feature", "properties": { "NO": 175, "ENTIDAD": "QUERETARO", "MUNICIPIO": "TOLIMAN", "PUEBLO INDIGENA O AFROMEXICANO": "OTOMÍ", "LOCALIDAD": "SAN PABLO TOLIMAN ", "CLAVE LOC": 220180050, "TIPO DE ASENTAMIENTO": "COMUNIDAD INDIGENA", "NOMBRE": "SAN PABLO", "MONTO ASIGNADO (PESOS)": 1016747, "LATITUD": 20.859044, "LONGITUD": -99.899053 }, "geometry": { "type": "Point", "coordinates": [ -99.899053, 20.859044 ] } },
{ "type": "Feature", "properties": { "NO": 176, "ENTIDAD": "QUERETARO", "MUNICIPIO": "TOLIMAN", "PUEBLO INDIGENA O AFROMEXICANO": "OTOMÍ", "LOCALIDAD": "TOLIMAN ", "CLAVE LOC": 220180001, "TIPO DE ASENTAMIENTO": "COMUNIDAD INDIGENA", "NOMBRE": "EL MOLINO", "MONTO ASIGNADO (PESOS)": 1056298, "LATITUD": 20.908149, "LONGITUD": -99.9308 }, "geometry": { "type": "Point", "coordinates": [ -99.9308, 20.908149 ] } }
]
}
