{
"type": "FeatureCollection",
"name": "quintanaroo_loc_monto",
"crs": { "type": "name", "properties": { "name": "urn:ogc:def:crs:OGC:1.3:CRS84" } },
"features": [
{ "type": "Feature", "properties": { "NO": 1, "ENTIDAD": "QUINTANA ROO", "MUNICIPIO": "BACALAR", "PUEBLO INDIGENA O AFROMEXICANO": "MAYA", "LOCALIDAD": "ANDRES QUINTANA ROO", "CLAVE LOC": 230100011, "TIPO DE ASENTAMIENTO": "COMUNIDAD INDIGENA", "NOMBRE": "ANDRÉS QUINTANA ROO", "MONTO ASIGNADO (PESOS)": 159818, "LATITUD": 18.839577, "LONGITUD": -88.543724 }, "geometry": { "type": "Point", "coordinates": [ -88.543724, 18.839577 ] } },
{ "type": "Feature", "properties": { "NO": 2, "ENTIDAD": "QUINTANA ROO", "MUNICIPIO": "BACALAR", "PUEBLO INDIGENA O AFROMEXICANO": "MAYA", "LOCALIDAD": "BLANCA FLOR ", "CLAVE LOC": 230100020, "TIPO DE ASENTAMIENTO": "COMUNIDAD INDIGENA", "NOMBRE": "BLANCA FLOR", "MONTO ASIGNADO (PESOS)": 596337, "LATITUD": 18.923348, "LONGITUD": -88.5001 }, "geometry": { "type": "Point", "coordinates": [ -88.5001, 18.923348 ] } },
{ "type": "Feature", "properties": { "NO": 3, "ENTIDAD": "QUINTANA ROO", "MUNICIPIO": "BACALAR", "PUEBLO INDIGENA O AFROMEXICANO": "MAYA", "LOCALIDAD": "BUENA ESPERANZA", "CLAVE LOC": 230100021, "TIPO DE ASENTAMIENTO": "COMUNIDAD INDIGENA", "NOMBRE": "BUENA ESPERANZA", "MONTO ASIGNADO (PESOS)": 363527, "LATITUD": 18.941429, "LONGITUD": -88.641352 }, "geometry": { "type": "Point", "coordinates": [ -88.641352, 18.941429 ] } },
{ "type": "Feature", "properties": { "NO": 4, "ENTIDAD": "QUINTANA ROO", "MUNICIPIO": "BACALAR", "PUEBLO INDIGENA O AFROMEXICANO": "MAYA", "LOCALIDAD": "CHACCHOBEN", "CLAVE LOC": 230100030, "TIPO DE ASENTAMIENTO": "COMUNIDAD INDIGENA", "NOMBRE": "CHACCHOBEN", "MONTO ASIGNADO (PESOS)": 638372, "LATITUD": 19.037092, "LONGITUD": -88.176668 }, "geometry": { "type": "Point", "coordinates": [ -88.176668, 19.037092 ] } },
{ "type": "Feature", "properties": { "NO": 5, "ENTIDAD": "QUINTANA ROO", "MUNICIPIO": "BACALAR", "PUEBLO INDIGENA O AFROMEXICANO": "MAYA", "LOCALIDAD": "EL CEDRALITO ", "CLAVE LOC": 230100052, "TIPO DE ASENTAMIENTO": "COMUNIDAD INDIGENA", "NOMBRE": "EL CEDRALITO", "MONTO ASIGNADO (PESOS)": 289157, "LATITUD": 18.93372, "LONGITUD": -88.737166 }, "geometry": { "type": "Point", "coordinates": [ -88.737166, 18.93372 ] } },
{ "type": "Feature", "properties": { "NO": 6, "ENTIDAD": "QUINTANA ROO", "MUNICIPIO": "BACALAR", "PUEBLO INDIGENA O AFROMEXICANO": "MAYA", "LOCALIDAD": "GABINO VAZQUEZ ", "CLAVE LOC": 230100101, "TIPO DE ASENTAMIENTO": "COMUNIDAD INDIGENA", "NOMBRE": "GABINO VÁZQUEZ", "MONTO ASIGNADO (PESOS)": 99190, "LATITUD": 19.043583, "LONGITUD": -88.750809 }, "geometry": { "type": "Point", "coordinates": [ -88.750809, 19.043583 ] } },
{ "type": "Feature", "properties": { "NO": 7, "ENTIDAD": "QUINTANA ROO", "MUNICIPIO": "BACALAR", "PUEBLO INDIGENA O AFROMEXICANO": "MAYA", "LOCALIDAD": "GUADALUPE VICTORIA ", "CLAVE LOC": 230100106, "TIPO DE ASENTAMIENTO": "COMUNIDAD INDIGENA", "NOMBRE": "GUADALUPE VICTORIA", "MONTO ASIGNADO (PESOS)": 456489, "LATITUD": 19.128343, "LONGITUD": -88.598124 }, "geometry": { "type": "Point", "coordinates": [ -88.598124, 19.128343 ] } },
{ "type": "Feature", "properties": { "NO": 8, "ENTIDAD": "QUINTANA ROO", "MUNICIPIO": "BACALAR", "PUEBLO INDIGENA O AFROMEXICANO": "MAYA", "LOCALIDAD": "ISIDRO FABELA ", "CLAVE LOC": 230100110, "TIPO DE ASENTAMIENTO": "COMUNIDAD INDIGENA", "NOMBRE": "ISIDRO FAVELA", "MONTO ASIGNADO (PESOS)": 147692, "LATITUD": 18.909444, "LONGITUD": -88.861944 }, "geometry": { "type": "Point", "coordinates": [ -88.861944, 18.909444 ] } },
{ "type": "Feature", "properties": { "NO": 9, "ENTIDAD": "QUINTANA ROO", "MUNICIPIO": "BACALAR", "PUEBLO INDIGENA O AFROMEXICANO": "MAYA", "LOCALIDAD": "JESUS MARTINEZ ROSS", "CLAVE LOC": 230100116, "TIPO DE ASENTAMIENTO": "COMUNIDAD INDIGENA", "NOMBRE": "JESÚS MARTÍNEZ ROSS", "MONTO ASIGNADO (PESOS)": 209937, "LATITUD": 19.061748, "LONGITUD": -88.74672 }, "geometry": { "type": "Point", "coordinates": [ -88.74672, 19.061748 ] } },
{ "type": "Feature", "properties": { "NO": 10, "ENTIDAD": "QUINTANA ROO", "MUNICIPIO": "BACALAR", "PUEBLO INDIGENA O AFROMEXICANO": "MAYA", "LOCALIDAD": "LA BUENA FE ", "CLAVE LOC": 230100124, "TIPO DE ASENTAMIENTO": "COMUNIDAD INDIGENA", "NOMBRE": "BUENA FE", "MONTO ASIGNADO (PESOS)": 257630, "LATITUD": 18.982649, "LONGITUD": -88.507833 }, "geometry": { "type": "Point", "coordinates": [ -88.507833, 18.982649 ] } },
{ "type": "Feature", "properties": { "NO": 11, "ENTIDAD": "QUINTANA ROO", "MUNICIPIO": "BACALAR", "PUEBLO INDIGENA O AFROMEXICANO": "MAYA", "LOCALIDAD": "LA PANTERA ", "CLAVE LOC": 230100145, "TIPO DE ASENTAMIENTO": "COMUNIDAD INDIGENA", "NOMBRE": "EJIDO Y COMUNIDAD PROFESOR GRACIANO\nSÁNCHEZ (LA PANTERA)", "MONTO ASIGNADO (PESOS)": 903517, "LATITUD": 19.141523, "LONGITUD": -88.494002 }, "geometry": { "type": "Point", "coordinates": [ -88.494002, 19.141523 ] } },
{ "type": "Feature", "properties": { "NO": 12, "ENTIDAD": "QUINTANA ROO", "MUNICIPIO": "BACALAR", "PUEBLO INDIGENA O AFROMEXICANO": "MAYA", "LOCALIDAD": "LOS DIVORCIADOS", "CLAVE LOC": 230100188, "TIPO DE ASENTAMIENTO": "COMUNIDAD INDIGENA", "NOMBRE": "EJIDO LOS DIVORCIADOS", "MONTO ASIGNADO (PESOS)": 1094292, "LATITUD": 19.076796, "LONGITUD": -88.456357 }, "geometry": { "type": "Point", "coordinates": [ -88.456357, 19.076796 ] } },
{ "type": "Feature", "properties": { "NO": 13, "ENTIDAD": "QUINTANA ROO", "MUNICIPIO": "BACALAR", "PUEBLO INDIGENA O AFROMEXICANO": "MAYA", "LOCALIDAD": "MARGARITA MAZA DE JUAREZ ", "CLAVE LOC": 230100203, "TIPO DE ASENTAMIENTO": "COMUNIDAD INDIGENA", "NOMBRE": "MARGARITA MAZA DE JUÁREZ", "MONTO ASIGNADO (PESOS)": 245505, "LATITUD": 19.085774, "LONGITUD": -88.593132 }, "geometry": { "type": "Point", "coordinates": [ -88.593132, 19.085774 ] } },
{ "type": "Feature", "properties": { "NO": 14, "ENTIDAD": "QUINTANA ROO", "MUNICIPIO": "BACALAR", "PUEBLO INDIGENA O AFROMEXICANO": "MAYA", "LOCALIDAD": "NUEVO HOCTUN ", "CLAVE LOC": 230100240, "TIPO DE ASENTAMIENTO": "COMUNIDAD INDIGENA", "NOMBRE": "NUEVO HOCTUN", "MONTO ASIGNADO (PESOS)": 115357, "LATITUD": 19.075171, "LONGITUD": -88.720579 }, "geometry": { "type": "Point", "coordinates": [ -88.720579, 19.075171 ] } },
{ "type": "Feature", "properties": { "NO": 15, "ENTIDAD": "QUINTANA ROO", "MUNICIPIO": "BACALAR", "PUEBLO INDIGENA O AFROMEXICANO": "MAYA", "LOCALIDAD": "NUEVO JERUSALEN ", "CLAVE LOC": 230100241, "TIPO DE ASENTAMIENTO": "COMUNIDAD INDIGENA", "NOMBRE": "NUEVO JERUSALÉN", "MONTO ASIGNADO (PESOS)": 456489, "LATITUD": 18.996751, "LONGITUD": -88.570086 }, "geometry": { "type": "Point", "coordinates": [ -88.570086, 18.996751 ] } },
{ "type": "Feature", "properties": { "NO": 16, "ENTIDAD": "QUINTANA ROO", "MUNICIPIO": "BACALAR", "PUEBLO INDIGENA O AFROMEXICANO": "MAYA", "LOCALIDAD": "REFORMA ", "CLAVE LOC": 230100271, "TIPO DE ASENTAMIENTO": "COMUNIDAD INDIGENA", "NOMBRE": "REFORMA", "MONTO ASIGNADO (PESOS)": 1065190, "LATITUD": 18.813232, "LONGITUD": -88.572115 }, "geometry": { "type": "Point", "coordinates": [ -88.572115, 18.813232 ] } },
{ "type": "Feature", "properties": { "NO": 17, "ENTIDAD": "QUINTANA ROO", "MUNICIPIO": "BACALAR", "PUEBLO INDIGENA O AFROMEXICANO": "MAYA", "LOCALIDAD": "RIO ESCONDIDO", "CLAVE LOC": 230100275, "TIPO DE ASENTAMIENTO": "COMUNIDAD INDIGENA", "NOMBRE": "RÍO ESCONDIDO", "MONTO ASIGNADO (PESOS)": 354634, "LATITUD": 18.881913, "LONGITUD": -88.75389 }, "geometry": { "type": "Point", "coordinates": [ -88.75389, 18.881913 ] } },
{ "type": "Feature", "properties": { "NO": 18, "ENTIDAD": "QUINTANA ROO", "MUNICIPIO": "BACALAR", "PUEBLO INDIGENA O AFROMEXICANO": "MAYA", "LOCALIDAD": "SAN ROMAN ", "CLAVE LOC": 230100310, "TIPO DE ASENTAMIENTO": "COMUNIDAD INDIGENA", "NOMBRE": "SAN ROMÁN", "MONTO ASIGNADO (PESOS)": 553493, "LATITUD": 18.796794, "LONGITUD": -88.727801 }, "geometry": { "type": "Point", "coordinates": [ -88.727801, 18.796794 ] } },
{ "type": "Feature", "properties": { "NO": 19, "ENTIDAD": "QUINTANA ROO", "MUNICIPIO": "FELIPE CARRILLO PUERTO", "PUEBLO INDIGENA O AFROMEXICANO": "MAYA", "LOCALIDAD": "ANDRES QUINTANA ROO ", "CLAVE LOC": 230020306, "TIPO DE ASENTAMIENTO": "COMUNIDAD INDIGENA", "NOMBRE": "ANDRÉS QUINTANA ROO", "MONTO ASIGNADO (PESOS)": 424154, "LATITUD": 19.161881, "LONGITUD": -88.103411 }, "geometry": { "type": "Point", "coordinates": [ -88.103411, 19.161881 ] } },
{ "type": "Feature", "properties": { "NO": 20, "ENTIDAD": "QUINTANA ROO", "MUNICIPIO": "FELIPE CARRILLO PUERTO", "PUEBLO INDIGENA O AFROMEXICANO": "MAYA", "LOCALIDAD": "BETANIA ", "CLAVE LOC": 230020011, "TIPO DE ASENTAMIENTO": "COMUNIDAD INDIGENA", "NOMBRE": "BETANIA", "MONTO ASIGNADO (PESOS)": 627863, "LATITUD": 19.638369, "LONGITUD": -88.287095 }, "geometry": { "type": "Point", "coordinates": [ -88.287095, 19.638369 ] } },
{ "type": "Feature", "properties": { "NO": 21, "ENTIDAD": "QUINTANA ROO", "MUNICIPIO": "FELIPE CARRILLO PUERTO", "PUEBLO INDIGENA O AFROMEXICANO": "MAYA", "LOCALIDAD": "CANZEPCHEN ", "CLAVE LOC": 230020308, "TIPO DE ASENTAMIENTO": "COMUNIDAD INDIGENA", "NOMBRE": "CANZEPCHÉN", "MONTO ASIGNADO (PESOS)": 305324, "LATITUD": 20.01208, "LONGITUD": -88.15761 }, "geometry": { "type": "Point", "coordinates": [ -88.15761, 20.01208 ] } },
{ "type": "Feature", "properties": { "NO": 22, "ENTIDAD": "QUINTANA ROO", "MUNICIPIO": "FELIPE CARRILLO PUERTO", "PUEBLO INDIGENA O AFROMEXICANO": "MAYA", "LOCALIDAD": "CECILIO CHI (KILOMETRO SESENTA Y CUATRO)", "CLAVE LOC": 230020587, "TIPO DE ASENTAMIENTO": "COMUNIDAD INDIGENA", "NOMBRE": "CECILIO CHI", "MONTO ASIGNADO (PESOS)": 222827, "LATITUD": 20.022299, "LONGITUD": -87.669843 }, "geometry": { "type": "Point", "coordinates": [ -87.669843, 20.022299 ] } },
{ "type": "Feature", "properties": { "NO": 23, "ENTIDAD": "QUINTANA ROO", "MUNICIPIO": "FELIPE CARRILLO PUERTO", "PUEBLO INDIGENA O AFROMEXICANO": "MAYA", "LOCALIDAD": "CHAN CHEN CHUC ", "CLAVE LOC": 230020312, "TIPO DE ASENTAMIENTO": "COMUNIDAD INDIGENA", "NOMBRE": "CHAN CHEN CHUC", "MONTO ASIGNADO (PESOS)": 138658, "LATITUD": 19.401001, "LONGITUD": -88.391196 }, "geometry": { "type": "Point", "coordinates": [ -88.391196, 19.401001 ] } },
{ "type": "Feature", "properties": { "NO": 24, "ENTIDAD": "QUINTANA ROO", "MUNICIPIO": "FELIPE CARRILLO PUERTO", "PUEBLO INDIGENA O AFROMEXICANO": "MAYA", "LOCALIDAD": "CHAN SANTA CRUZ ", "CLAVE LOC": 230020314, "TIPO DE ASENTAMIENTO": "COMUNIDAD INDIGENA", "NOMBRE": "CHAN SANTA CRUZ", "MONTO ASIGNADO (PESOS)": 554302, "LATITUD": 19.36973, "LONGITUD": -88.333044 }, "geometry": { "type": "Point", "coordinates": [ -88.333044, 19.36973 ] } },
{ "type": "Feature", "properties": { "NO": 25, "ENTIDAD": "QUINTANA ROO", "MUNICIPIO": "FELIPE CARRILLO PUERTO", "PUEBLO INDIGENA O AFROMEXICANO": "MAYA", "LOCALIDAD": "CHANCAH DERREPENTE ", "CLAVE LOC": 230020033, "TIPO DE ASENTAMIENTO": "COMUNIDAD INDIGENA", "NOMBRE": "CHANCAH DERREPENTE", "MONTO ASIGNADO (PESOS)": 476698, "LATITUD": 19.400567, "LONGITUD": -88.229413 }, "geometry": { "type": "Point", "coordinates": [ -88.229413, 19.400567 ] } },
{ "type": "Feature", "properties": { "NO": 26, "ENTIDAD": "QUINTANA ROO", "MUNICIPIO": "FELIPE CARRILLO PUERTO", "PUEBLO INDIGENA O AFROMEXICANO": "MAYA", "LOCALIDAD": "CHANCAH VERACRUZ ", "CLAVE LOC": 230020034, "TIPO DE ASENTAMIENTO": "COMUNIDAD INDIGENA", "NOMBRE": "CHANCAH VERACRUZ", "MONTO ASIGNADO (PESOS)": 476698, "LATITUD": 19.494894, "LONGITUD": -87.994321 }, "geometry": { "type": "Point", "coordinates": [ -87.994321, 19.494894 ] } },
{ "type": "Feature", "properties": { "NO": 27, "ENTIDAD": "QUINTANA ROO", "MUNICIPIO": "FELIPE CARRILLO PUERTO", "PUEBLO INDIGENA O AFROMEXICANO": "MAYA", "LOCALIDAD": "CHANCHEN COMANDANTE ", "CLAVE LOC": 230020036, "TIPO DE ASENTAMIENTO": "COMUNIDAD INDIGENA", "NOMBRE": "CHANCHÉN COMANDANTE", "MONTO ASIGNADO (PESOS)": 154159, "LATITUD": 19.838977, "LONGITUD": -88.107079 }, "geometry": { "type": "Point", "coordinates": [ -88.107079, 19.838977 ] } },
{ "type": "Feature", "properties": { "NO": 28, "ENTIDAD": "QUINTANA ROO", "MUNICIPIO": "FELIPE CARRILLO PUERTO", "PUEBLO INDIGENA O AFROMEXICANO": "MAYA", "LOCALIDAD": "CHUMPON ", "CLAVE LOC": 230020042, "TIPO DE ASENTAMIENTO": "COMUNIDAD INDIGENA", "NOMBRE": "CHUMPON", "MONTO ASIGNADO (PESOS)": 820255, "LATITUD": 20.002827, "LONGITUD": -87.811203 }, "geometry": { "type": "Point", "coordinates": [ -87.811203, 20.002827 ] } },
{ "type": "Feature", "properties": { "NO": 29, "ENTIDAD": "QUINTANA ROO", "MUNICIPIO": "FELIPE CARRILLO PUERTO", "PUEBLO INDIGENA O AFROMEXICANO": "MAYA", "LOCALIDAD": "CHUN ON ", "CLAVE LOC": 230020041, "TIPO DE ASENTAMIENTO": "COMUNIDAD INDIGENA", "NOMBRE": "CHUN ON", "MONTO ASIGNADO (PESOS)": 393436, "LATITUD": 20.031236, "LONGITUD": -87.870571 }, "geometry": { "type": "Point", "coordinates": [ -87.870571, 20.031236 ] } },
{ "type": "Feature", "properties": { "NO": 30, "ENTIDAD": "QUINTANA ROO", "MUNICIPIO": "FELIPE CARRILLO PUERTO", "PUEBLO INDIGENA O AFROMEXICANO": "MAYA", "LOCALIDAD": "CHUNHUAS ", "CLAVE LOC": 230020043, "TIPO DE ASENTAMIENTO": "COMUNIDAD INDIGENA", "NOMBRE": "CHUNHUAS", "MONTO ASIGNADO (PESOS)": 661815, "LATITUD": 19.632027, "LONGITUD": -88.210289 }, "geometry": { "type": "Point", "coordinates": [ -88.210289, 19.632027 ] } },
{ "type": "Feature", "properties": { "NO": 31, "ENTIDAD": "QUINTANA ROO", "MUNICIPIO": "FELIPE CARRILLO PUERTO", "PUEBLO INDIGENA O AFROMEXICANO": "MAYA", "LOCALIDAD": "CHUN-YAH ", "CLAVE LOC": 230020535, "TIPO DE ASENTAMIENTO": "COMUNIDAD INDIGENA", "NOMBRE": "CHUN YAH", "MONTO ASIGNADO (PESOS)": 973845, "LATITUD": 20.101727, "LONGITUD": -87.926959 }, "geometry": { "type": "Point", "coordinates": [ -87.926959, 20.101727 ] } },
{ "type": "Feature", "properties": { "NO": 32, "ENTIDAD": "QUINTANA ROO", "MUNICIPIO": "FELIPE CARRILLO PUERTO", "PUEBLO INDIGENA O AFROMEXICANO": "MAYA", "LOCALIDAD": "CHUNYAXCHE ", "CLAVE LOC": 230020536, "TIPO DE ASENTAMIENTO": "COMUNIDAD INDIGENA", "NOMBRE": "CHUNYAXCHÉ", "MONTO ASIGNADO (PESOS)": 349784, "LATITUD": 20.077825, "LONGITUD": -87.61487 }, "geometry": { "type": "Point", "coordinates": [ -87.61487, 20.077825 ] } },
{ "type": "Feature", "properties": { "NO": 33, "ENTIDAD": "QUINTANA ROO", "MUNICIPIO": "FELIPE CARRILLO PUERTO", "PUEBLO INDIGENA O AFROMEXICANO": "MAYA", "LOCALIDAD": "CRUZ-CHEN ", "CLAVE LOC": 230021061, "TIPO DE ASENTAMIENTO": "COMUNIDAD INDIGENA", "NOMBRE": "CRUZ CHEN", "MONTO ASIGNADO (PESOS)": 119814, "LATITUD": 20.321957, "LONGITUD": -88.06095 }, "geometry": { "type": "Point", "coordinates": [ -88.06095, 20.321957 ] } },
{ "type": "Feature", "properties": { "NO": 34, "ENTIDAD": "QUINTANA ROO", "MUNICIPIO": "FELIPE CARRILLO PUERTO", "PUEBLO INDIGENA O AFROMEXICANO": "MAYA", "LOCALIDAD": "DZOYOLA", "CLAVE LOC": 230020052, "TIPO DE ASENTAMIENTO": "COMUNIDAD INDIGENA", "NOMBRE": "DZOYOLA", "MONTO ASIGNADO (PESOS)": 522775, "LATITUD": 19.942469, "LONGITUD": -88.445299 }, "geometry": { "type": "Point", "coordinates": [ -88.445299, 19.942469 ] } },
{ "type": "Feature", "properties": { "NO": 35, "ENTIDAD": "QUINTANA ROO", "MUNICIPIO": "FELIPE CARRILLO PUERTO", "PUEBLO INDIGENA O AFROMEXICANO": "MAYA", "LOCALIDAD": "DZULA ", "CLAVE LOC": 230020053, "TIPO DE ASENTAMIENTO": "COMUNIDAD INDIGENA", "NOMBRE": "DZULÁ", "MONTO ASIGNADO (PESOS)": 1014263, "LATITUD": 19.603323, "LONGITUD": -88.41575 }, "geometry": { "type": "Point", "coordinates": [ -88.41575, 19.603323 ] } },
{ "type": "Feature", "properties": { "NO": 36, "ENTIDAD": "QUINTANA ROO", "MUNICIPIO": "FELIPE CARRILLO PUERTO", "PUEBLO INDIGENA O AFROMEXICANO": "MAYA", "LOCALIDAD": "EMILIANO ZAPATA ", "CLAVE LOC": 230020322, "TIPO DE ASENTAMIENTO": "COMUNIDAD INDIGENA", "NOMBRE": "EMILIANO ZAPATA", "MONTO ASIGNADO (PESOS)": 501758, "LATITUD": 19.203944, "LONGITUD": -88.535001 }, "geometry": { "type": "Point", "coordinates": [ -88.535001, 19.203944 ] } },
{ "type": "Feature", "properties": { "NO": 37, "ENTIDAD": "QUINTANA ROO", "MUNICIPIO": "FELIPE CARRILLO PUERTO", "PUEBLO INDIGENA O AFROMEXICANO": "MAYA", "LOCALIDAD": "FILOMENO MATA", "CLAVE LOC": 230020058, "TIPO DE ASENTAMIENTO": "COMUNIDAD INDIGENA", "NOMBRE": "FILOMENO MATA", "MONTO ASIGNADO (PESOS)": 690916, "LATITUD": 19.859475, "LONGITUD": -88.39458 }, "geometry": { "type": "Point", "coordinates": [ -88.39458, 19.859475 ] } },
{ "type": "Feature", "properties": { "NO": 38, "ENTIDAD": "QUINTANA ROO", "MUNICIPIO": "FELIPE CARRILLO PUERTO", "PUEBLO INDIGENA O AFROMEXICANO": "MAYA", "LOCALIDAD": "FRANCISCO I. MADERO", "CLAVE LOC": 230020324, "TIPO DE ASENTAMIENTO": "COMUNIDAD INDIGENA", "NOMBRE": "FRANCISCO I. MADERO", "MONTO ASIGNADO (PESOS)": 385352, "LATITUD": 20.156462, "LONGITUD": -88.026447 }, "geometry": { "type": "Point", "coordinates": [ -88.026447, 20.156462 ] } },
{ "type": "Feature", "properties": { "NO": 39, "ENTIDAD": "QUINTANA ROO", "MUNICIPIO": "FELIPE CARRILLO PUERTO", "PUEBLO INDIGENA O AFROMEXICANO": "MAYA", "LOCALIDAD": "FRANCISCO MAY ", "CLAVE LOC": 230020325, "TIPO DE ASENTAMIENTO": "COMUNIDAD INDIGENA", "NOMBRE": "FRANCISCO MAY", "MONTO ASIGNADO (PESOS)": 334633, "LATITUD": 20.153653, "LONGITUD": -88.157481 }, "geometry": { "type": "Point", "coordinates": [ -88.157481, 20.153653 ] } },
{ "type": "Feature", "properties": { "NO": 40, "ENTIDAD": "QUINTANA ROO", "MUNICIPIO": "FELIPE CARRILLO PUERTO", "PUEBLO INDIGENA O AFROMEXICANO": "MAYA", "LOCALIDAD": "HOBOMPICH ", "CLAVE LOC": 230020065, "TIPO DE ASENTAMIENTO": "COMUNIDAD INDIGENA", "NOMBRE": "HOBOMPICH", "MONTO ASIGNADO (PESOS)": 230146, "LATITUD": 19.808333, "LONGITUD": -88.351111 }, "geometry": { "type": "Point", "coordinates": [ -88.351111, 19.808333 ] } },
{ "type": "Feature", "properties": { "NO": 41, "ENTIDAD": "QUINTANA ROO", "MUNICIPIO": "FELIPE CARRILLO PUERTO", "PUEBLO INDIGENA O AFROMEXICANO": "MAYA", "LOCALIDAD": "IGNACIO MANUEL ALTAMIRANO ", "CLAVE LOC": 230020006, "TIPO DE ASENTAMIENTO": "COMUNIDAD INDIGENA", "NOMBRE": "IGNACIO MANUEL ALTAMIRANO", "MONTO ASIGNADO (PESOS)": 504991, "LATITUD": 19.287257, "LONGITUD": -88.575494 }, "geometry": { "type": "Point", "coordinates": [ -88.575494, 19.287257 ] } },
{ "type": "Feature", "properties": { "NO": 42, "ENTIDAD": "QUINTANA ROO", "MUNICIPIO": "FELIPE CARRILLO PUERTO", "PUEBLO INDIGENA O AFROMEXICANO": "MAYA", "LOCALIDAD": "JOSE MARIA PINO SUAREZ ", "CLAVE LOC": 230020399, "TIPO DE ASENTAMIENTO": "COMUNIDAD INDIGENA", "NOMBRE": "JOSÉ MARÍA PINO SUAREZ", "MONTO ASIGNADO (PESOS)": 331192, "LATITUD": 19.804586, "LONGITUD": -88.118632 }, "geometry": { "type": "Point", "coordinates": [ -88.118632, 19.804586 ] } },
{ "type": "Feature", "properties": { "NO": 43, "ENTIDAD": "QUINTANA ROO", "MUNICIPIO": "FELIPE CARRILLO PUERTO", "PUEBLO INDIGENA O AFROMEXICANO": "MAYA", "LOCALIDAD": "JOSE MARIA PINO SUAREZ ", "CLAVE LOC": 230021072, "TIPO DE ASENTAMIENTO": "COMUNIDAD INDIGENA", "NOMBRE": "JOSÉ MARÍA PINO SUÁREZ NORTE", "MONTO ASIGNADO (PESOS)": 133633, "LATITUD": 20.110628, "LONGITUD": -87.59237 }, "geometry": { "type": "Point", "coordinates": [ -87.59237, 20.110628 ] } },
{ "type": "Feature", "properties": { "NO": 44, "ENTIDAD": "QUINTANA ROO", "MUNICIPIO": "FELIPE CARRILLO PUERTO", "PUEBLO INDIGENA O AFROMEXICANO": "MAYA", "LOCALIDAD": "KAMPOKOLCHE ", "CLAVE LOC": 230020400, "TIPO DE ASENTAMIENTO": "COMUNIDAD INDIGENA", "NOMBRE": "KAMPOCOLCHE", "MONTO ASIGNADO (PESOS)": 601187, "LATITUD": 19.852509, "LONGITUD": -88.33055 }, "geometry": { "type": "Point", "coordinates": [ -88.33055, 19.852509 ] } },
{ "type": "Feature", "properties": { "NO": 45, "ENTIDAD": "QUINTANA ROO", "MUNICIPIO": "FELIPE CARRILLO PUERTO", "PUEBLO INDIGENA O AFROMEXICANO": "MAYA", "LOCALIDAD": "KANKABDZONOT ", "CLAVE LOC": 230020584, "TIPO DE ASENTAMIENTO": "COMUNIDAD INDIGENA", "NOMBRE": "KANKABDZONOT", "MONTO ASIGNADO (PESOS)": 281871, "LATITUD": 20.136574, "LONGITUD": -87.961999 }, "geometry": { "type": "Point", "coordinates": [ -87.961999, 20.136574 ] } },
{ "type": "Feature", "properties": { "NO": 46, "ENTIDAD": "QUINTANA ROO", "MUNICIPIO": "FELIPE CARRILLO PUERTO", "PUEBLO INDIGENA O AFROMEXICANO": "MAYA", "LOCALIDAD": "KOPCHEN ", "CLAVE LOC": 230020084, "TIPO DE ASENTAMIENTO": "COMUNIDAD INDIGENA", "NOMBRE": "KOPCHEN", "MONTO ASIGNADO (PESOS)": 551876, "LATITUD": 19.374015, "LONGITUD": -88.153048 }, "geometry": { "type": "Point", "coordinates": [ -88.153048, 19.374015 ] } },
{ "type": "Feature", "properties": { "NO": 47, "ENTIDAD": "QUINTANA ROO", "MUNICIPIO": "FELIPE CARRILLO PUERTO", "PUEBLO INDIGENA O AFROMEXICANO": "MAYA", "LOCALIDAD": "LA NORIA ", "CLAVE LOC": 230020111, "TIPO DE ASENTAMIENTO": "COMUNIDAD INDIGENA", "NOMBRE": "LA NORIA", "MONTO ASIGNADO (PESOS)": 147452, "LATITUD": 20.210459, "LONGITUD": -88.156928 }, "geometry": { "type": "Point", "coordinates": [ -88.156928, 20.210459 ] } },
{ "type": "Feature", "properties": { "NO": 48, "ENTIDAD": "QUINTANA ROO", "MUNICIPIO": "FELIPE CARRILLO PUERTO", "PUEBLO INDIGENA O AFROMEXICANO": "MAYA", "LOCALIDAD": "LAGUNA KANA ", "CLAVE LOC": 230020087, "TIPO DE ASENTAMIENTO": "COMUNIDAD INDIGENA", "NOMBRE": "LAGUNA KANA", "MONTO ASIGNADO (PESOS)": 716784, "LATITUD": 19.501727, "LONGITUD": -88.39759 }, "geometry": { "type": "Point", "coordinates": [ -88.39759, 19.501727 ] } },
{ "type": "Feature", "properties": { "NO": 49, "ENTIDAD": "QUINTANA ROO", "MUNICIPIO": "FELIPE CARRILLO PUERTO", "PUEBLO INDIGENA O AFROMEXICANO": "MAYA", "LOCALIDAD": "MARIA ELENA ", "CLAVE LOC": 230020455, "TIPO DE ASENTAMIENTO": "COMUNIDAD INDIGENA", "NOMBRE": "MARÍA ELENA", "MONTO ASIGNADO (PESOS)": 119814, "LATITUD": 19.405968, "LONGITUD": -87.517472 }, "geometry": { "type": "Point", "coordinates": [ -87.517472, 19.405968 ] } },
{ "type": "Feature", "properties": { "NO": 50, "ENTIDAD": "QUINTANA ROO", "MUNICIPIO": "FELIPE CARRILLO PUERTO", "PUEBLO INDIGENA O AFROMEXICANO": "MAYA", "LOCALIDAD": "MELCHOR OCAMPO", "CLAVE LOC": 230020101, "TIPO DE ASENTAMIENTO": "COMUNIDAD INDIGENA", "NOMBRE": "MELCHOR OCAMPO", "MONTO ASIGNADO (PESOS)": 201853, "LATITUD": 20.02536, "LONGITUD": -88.279091 }, "geometry": { "type": "Point", "coordinates": [ -88.279091, 20.02536 ] } },
{ "type": "Feature", "properties": { "NO": 51, "ENTIDAD": "QUINTANA ROO", "MUNICIPIO": "FELIPE CARRILLO PUERTO", "PUEBLO INDIGENA O AFROMEXICANO": "MAYA", "LOCALIDAD": "MIXTEQUILLA", "CLAVE LOC": 230020336, "TIPO DE ASENTAMIENTO": "COMUNIDAD INDIGENA", "NOMBRE": "MIXTEQUILLA", "MONTO ASIGNADO (PESOS)": 163860, "LATITUD": 19.386991, "LONGITUD": -88.265491 }, "geometry": { "type": "Point", "coordinates": [ -88.265491, 19.386991 ] } },
{ "type": "Feature", "properties": { "NO": 52, "ENTIDAD": "QUINTANA ROO", "MUNICIPIO": "FELIPE CARRILLO PUERTO", "PUEBLO INDIGENA O AFROMEXICANO": "MAYA", "LOCALIDAD": "NARANJAL PONIENTE ", "CLAVE LOC": 230020105, "TIPO DE ASENTAMIENTO": "COMUNIDAD INDIGENA", "NOMBRE": "NARANJAL PONIENTE", "MONTO ASIGNADO (PESOS)": 736184, "LATITUD": 19.361607, "LONGITUD": -88.460548 }, "geometry": { "type": "Point", "coordinates": [ -88.460548, 19.361607 ] } },
{ "type": "Feature", "properties": { "NO": 53, "ENTIDAD": "QUINTANA ROO", "MUNICIPIO": "FELIPE CARRILLO PUERTO", "PUEBLO INDIGENA O AFROMEXICANO": "MAYA", "LOCALIDAD": "NOH-BEC ", "CLAVE LOC": 230020108, "TIPO DE ASENTAMIENTO": "COMUNIDAD INDIGENA", "NOMBRE": "NOH BEC", "MONTO ASIGNADO (PESOS)": 1743412, "LATITUD": 19.142812, "LONGITUD": -88.169665 }, "geometry": { "type": "Point", "coordinates": [ -88.169665, 19.142812 ] } },
{ "type": "Feature", "properties": { "NO": 54, "ENTIDAD": "QUINTANA ROO", "MUNICIPIO": "FELIPE CARRILLO PUERTO", "PUEBLO INDIGENA O AFROMEXICANO": "MAYA", "LOCALIDAD": "NOH-CAH ", "CLAVE LOC": 230020110, "TIPO DE ASENTAMIENTO": "COMUNIDAD INDIGENA", "NOMBRE": "NOH-CAH", "MONTO ASIGNADO (PESOS)": 146884, "LATITUD": 19.421678, "LONGITUD": -88.159883 }, "geometry": { "type": "Point", "coordinates": [ -88.159883, 19.421678 ] } },
{ "type": "Feature", "properties": { "NO": 55, "ENTIDAD": "QUINTANA ROO", "MUNICIPIO": "FELIPE CARRILLO PUERTO", "PUEBLO INDIGENA O AFROMEXICANO": "MAYA", "LOCALIDAD": "NOHKANCAB ", "CLAVE LOC": 230020612, "TIPO DE ASENTAMIENTO": "COMUNIDAD INDIGENA", "NOMBRE": "NOHKANCAB", "MONTO ASIGNADO (PESOS)": 98458, "LATITUD": 19.813798, "LONGITUD": -87.992988 }, "geometry": { "type": "Point", "coordinates": [ -87.992988, 19.813798 ] } },
{ "type": "Feature", "properties": { "NO": 56, "ENTIDAD": "QUINTANA ROO", "MUNICIPIO": "FELIPE CARRILLO PUERTO", "PUEBLO INDIGENA O AFROMEXICANO": "MAYA", "LOCALIDAD": "NUEVA LORIA ", "CLAVE LOC": 230020339, "TIPO DE ASENTAMIENTO": "COMUNIDAD INDIGENA", "NOMBRE": "NUEVA LORIA", "MONTO ASIGNADO (PESOS)": 279456, "LATITUD": 19.301779, "LONGITUD": -88.537062 }, "geometry": { "type": "Point", "coordinates": [ -88.537062, 19.301779 ] } },
{ "type": "Feature", "properties": { "NO": 57, "ENTIDAD": "QUINTANA ROO", "MUNICIPIO": "FELIPE CARRILLO PUERTO", "PUEBLO INDIGENA O AFROMEXICANO": "MAYA", "LOCALIDAD": "NUEVO ISRAEL ", "CLAVE LOC": 230020340, "TIPO DE ASENTAMIENTO": "COMUNIDAD INDIGENA", "NOMBRE": "NUEVO ISRAEL", "MONTO ASIGNADO (PESOS)": 392628, "LATITUD": 19.241687, "LONGITUD": -88.55245 }, "geometry": { "type": "Point", "coordinates": [ -88.55245, 19.241687 ] } },
{ "type": "Feature", "properties": { "NO": 58, "ENTIDAD": "QUINTANA ROO", "MUNICIPIO": "FELIPE CARRILLO PUERTO", "PUEBLO INDIGENA O AFROMEXICANO": "MAYA", "LOCALIDAD": "PETCACAB ", "CLAVE LOC": 230020118, "TIPO DE ASENTAMIENTO": "COMUNIDAD INDIGENA", "NOMBRE": "PETCACAB", "MONTO ASIGNADO (PESOS)": 804896, "LATITUD": 19.290823, "LONGITUD": -88.225412 }, "geometry": { "type": "Point", "coordinates": [ -88.225412, 19.290823 ] } },
{ "type": "Feature", "properties": { "NO": 59, "ENTIDAD": "QUINTANA ROO", "MUNICIPIO": "FELIPE CARRILLO PUERTO", "PUEBLO INDIGENA O AFROMEXICANO": "MAYA", "LOCALIDAD": "POLINKIN ", "CLAVE LOC": 230020125, "TIPO DE ASENTAMIENTO": "COMUNIDAD INDIGENA", "NOMBRE": "POLINKIN", "MONTO ASIGNADO (PESOS)": 239846, "LATITUD": 19.174618, "LONGITUD": -88.168407 }, "geometry": { "type": "Point", "coordinates": [ -88.168407, 19.174618 ] } },
{ "type": "Feature", "properties": { "NO": 60, "ENTIDAD": "QUINTANA ROO", "MUNICIPIO": "FELIPE CARRILLO PUERTO", "PUEBLO INDIGENA O AFROMEXICANO": "MAYA", "LOCALIDAD": "POLYUC ", "CLAVE LOC": 230020126, "TIPO DE ASENTAMIENTO": "COMUNIDAD INDIGENA", "NOMBRE": "POLYUC", "MONTO ASIGNADO (PESOS)": 1012646, "LATITUD": 19.609333, "LONGITUD": -88.562287 }, "geometry": { "type": "Point", "coordinates": [ -88.562287, 19.609333 ] } },
{ "type": "Feature", "properties": { "NO": 61, "ENTIDAD": "QUINTANA ROO", "MUNICIPIO": "FELIPE CARRILLO PUERTO", "PUEBLO INDIGENA O AFROMEXICANO": "MAYA", "LOCALIDAD": "PRESIDENTE JUAREZ ", "CLAVE LOC": 230020131, "TIPO DE ASENTAMIENTO": "COMUNIDAD INDIGENA", "NOMBRE": "PRESIDENTE JUÁREZ", "MONTO ASIGNADO (PESOS)": 920492, "LATITUD": 19.328783, "LONGITUD": -88.561935 }, "geometry": { "type": "Point", "coordinates": [ -88.561935, 19.328783 ] } },
{ "type": "Feature", "properties": { "NO": 62, "ENTIDAD": "QUINTANA ROO", "MUNICIPIO": "FELIPE CARRILLO PUERTO", "PUEBLO INDIGENA O AFROMEXICANO": "MAYA", "LOCALIDAD": "PUNTA HERRERO", "CLAVE LOC": 230020456, "TIPO DE ASENTAMIENTO": "COMUNIDAD INDIGENA", "NOMBRE": "PUNTA HERRERO", "MONTO ASIGNADO (PESOS)": 109764, "LATITUD": 19.32101, "LONGITUD": -87.462248 }, "geometry": { "type": "Point", "coordinates": [ -87.462248, 19.32101 ] } },
{ "type": "Feature", "properties": { "NO": 63, "ENTIDAD": "QUINTANA ROO", "MUNICIPIO": "FELIPE CARRILLO PUERTO", "PUEBLO INDIGENA O AFROMEXICANO": "MAYA", "LOCALIDAD": "RAMONAL ", "CLAVE LOC": 230020139, "TIPO DE ASENTAMIENTO": "COMUNIDAD INDIGENA", "NOMBRE": "RAMONAL", "MONTO ASIGNADO (PESOS)": 394245, "LATITUD": 19.396842, "LONGITUD": -88.619524 }, "geometry": { "type": "Point", "coordinates": [ -88.619524, 19.396842 ] } },
{ "type": "Feature", "properties": { "NO": 64, "ENTIDAD": "QUINTANA ROO", "MUNICIPIO": "FELIPE CARRILLO PUERTO", "PUEBLO INDIGENA O AFROMEXICANO": "MAYA", "LOCALIDAD": "REFORMA AGRARIA ", "CLAVE LOC": 230020420, "TIPO DE ASENTAMIENTO": "COMUNIDAD INDIGENA", "NOMBRE": "REFORMA AGRARIA", "MONTO ASIGNADO (PESOS)": 447597, "LATITUD": 19.197186, "LONGITUD": -88.115155 }, "geometry": { "type": "Point", "coordinates": [ -88.115155, 19.197186 ] } },
{ "type": "Feature", "properties": { "NO": 65, "ENTIDAD": "QUINTANA ROO", "MUNICIPIO": "FELIPE CARRILLO PUERTO", "PUEBLO INDIGENA O AFROMEXICANO": "MAYA", "LOCALIDAD": "SAHCABCHEN ", "CLAVE LOC": 230020648, "TIPO DE ASENTAMIENTO": "COMUNIDAD INDIGENA", "NOMBRE": "SAHCABCHÉN", "MONTO ASIGNADO (PESOS)": 114789, "LATITUD": 20.172475, "LONGITUD": -87.927316 }, "geometry": { "type": "Point", "coordinates": [ -87.927316, 20.172475 ] } },
{ "type": "Feature", "properties": { "NO": 66, "ENTIDAD": "QUINTANA ROO", "MUNICIPIO": "FELIPE CARRILLO PUERTO", "PUEBLO INDIGENA O AFROMEXICANO": "MAYA", "LOCALIDAD": "SAN ANDRES ", "CLAVE LOC": 230020149, "TIPO DE ASENTAMIENTO": "COMUNIDAD INDIGENA", "NOMBRE": "SAN ANDRÉS", "MONTO ASIGNADO (PESOS)": 366760, "LATITUD": 19.40209, "LONGITUD": -88.131889 }, "geometry": { "type": "Point", "coordinates": [ -88.131889, 19.40209 ] } },
{ "type": "Feature", "properties": { "NO": 67, "ENTIDAD": "QUINTANA ROO", "MUNICIPIO": "FELIPE CARRILLO PUERTO", "PUEBLO INDIGENA O AFROMEXICANO": "MAYA", "LOCALIDAD": "SAN ANTONIO NUEVO", "CLAVE LOC": 230020658, "TIPO DE ASENTAMIENTO": "COMUNIDAD INDIGENA", "NOMBRE": "SAN ANTONIO NUEVO", "MONTO ASIGNADO (PESOS)": 192677, "LATITUD": 20.140559, "LONGITUD": -87.968702 }, "geometry": { "type": "Point", "coordinates": [ -87.968702, 20.140559 ] } },
{ "type": "Feature", "properties": { "NO": 68, "ENTIDAD": "QUINTANA ROO", "MUNICIPIO": "FELIPE CARRILLO PUERTO", "PUEBLO INDIGENA O AFROMEXICANO": "MAYA", "LOCALIDAD": "SAN ANTONIO NUEVO ", "CLAVE LOC": 230020381, "TIPO DE ASENTAMIENTO": "COMUNIDAD INDIGENA", "NOMBRE": "SAN ANTONIO NUEVO (NORTE)", "MONTO ASIGNADO (PESOS)": 141225, "LATITUD": 19.626161, "LONGITUD": -88.067063 }, "geometry": { "type": "Point", "coordinates": [ -88.067063, 19.626161 ] } },
{ "type": "Feature", "properties": { "NO": 69, "ENTIDAD": "QUINTANA ROO", "MUNICIPIO": "FELIPE CARRILLO PUERTO", "PUEBLO INDIGENA O AFROMEXICANO": "MAYA", "LOCALIDAD": "SAN BARTOLO ", "CLAVE LOC": 230020354, "TIPO DE ASENTAMIENTO": "COMUNIDAD INDIGENA", "NOMBRE": "SAN BARTOLO", "MONTO ASIGNADO (PESOS)": 116166, "LATITUD": 20.161915, "LONGITUD": -88.062868 }, "geometry": { "type": "Point", "coordinates": [ -88.062868, 20.161915 ] } },
{ "type": "Feature", "properties": { "NO": 70, "ENTIDAD": "QUINTANA ROO", "MUNICIPIO": "FELIPE CARRILLO PUERTO", "PUEBLO INDIGENA O AFROMEXICANO": "MAYA", "LOCALIDAD": "SAN FELIPE BERRIOZABAL", "CLAVE LOC": 230020169, "TIPO DE ASENTAMIENTO": "COMUNIDAD INDIGENA", "NOMBRE": "SAN FELIPE BERRIOZÁBAL", "MONTO ASIGNADO (PESOS)": 468614, "LATITUD": 20.053365, "LONGITUD": -88.168481 }, "geometry": { "type": "Point", "coordinates": [ -88.168481, 20.053365 ] } },
{ "type": "Feature", "properties": { "NO": 71, "ENTIDAD": "QUINTANA ROO", "MUNICIPIO": "FELIPE CARRILLO PUERTO", "PUEBLO INDIGENA O AFROMEXICANO": "MAYA", "LOCALIDAD": "SAN FRANCISCO AKE ", "CLAVE LOC": 230020172, "TIPO DE ASENTAMIENTO": "COMUNIDAD INDIGENA", "NOMBRE": "SAN FRANCISCO AKE", "MONTO ASIGNADO (PESOS)": 494482, "LATITUD": 19.956187, "LONGITUD": -88.344578 }, "geometry": { "type": "Point", "coordinates": [ -88.344578, 19.956187 ] } },
{ "type": "Feature", "properties": { "NO": 72, "ENTIDAD": "QUINTANA ROO", "MUNICIPIO": "FELIPE CARRILLO PUERTO", "PUEBLO INDIGENA O AFROMEXICANO": "MAYA", "LOCALIDAD": "SAN HIPOLITO ", "CLAVE LOC": 230020358, "TIPO DE ASENTAMIENTO": "COMUNIDAD INDIGENA", "NOMBRE": "SAN HIPÓLITO", "MONTO ASIGNADO (PESOS)": 134889, "LATITUD": 20.136804, "LONGITUD": -87.999462 }, "geometry": { "type": "Point", "coordinates": [ -87.999462, 20.136804 ] } },
{ "type": "Feature", "properties": { "NO": 73, "ENTIDAD": "QUINTANA ROO", "MUNICIPIO": "FELIPE CARRILLO PUERTO", "PUEBLO INDIGENA O AFROMEXICANO": "MAYA", "LOCALIDAD": "SAN JOSE PRIMERO ", "CLAVE LOC": 230020181, "TIPO DE ASENTAMIENTO": "COMUNIDAD INDIGENA", "NOMBRE": "SAN JOSÉ PRIMERO", "MONTO ASIGNADO (PESOS)": 91106, "LATITUD": 19.81175, "LONGITUD": -88.11067 }, "geometry": { "type": "Point", "coordinates": [ -88.11067, 19.81175 ] } },
{ "type": "Feature", "properties": { "NO": 74, "ENTIDAD": "QUINTANA ROO", "MUNICIPIO": "FELIPE CARRILLO PUERTO", "PUEBLO INDIGENA O AFROMEXICANO": "MAYA", "LOCALIDAD": "SAN JOSE SEGUNDO ", "CLAVE LOC": 230020182, "TIPO DE ASENTAMIENTO": "COMUNIDAD INDIGENA", "NOMBRE": "SAN JOSÉ SEGUNDO", "MONTO ASIGNADO (PESOS)": 353587, "LATITUD": 19.969992, "LONGITUD": -88.227057 }, "geometry": { "type": "Point", "coordinates": [ -88.227057, 19.969992 ] } },
{ "type": "Feature", "properties": { "NO": 75, "ENTIDAD": "QUINTANA ROO", "MUNICIPIO": "FELIPE CARRILLO PUERTO", "PUEBLO INDIGENA O AFROMEXICANO": "MAYA", "LOCALIDAD": "SAN LUIS ", "CLAVE LOC": 230020193, "TIPO DE ASENTAMIENTO": "COMUNIDAD INDIGENA", "NOMBRE": "SAN LUIS", "MONTO ASIGNADO (PESOS)": 231762, "LATITUD": 19.646025, "LONGITUD": -88.447649 }, "geometry": { "type": "Point", "coordinates": [ -88.447649, 19.646025 ] } },
{ "type": "Feature", "properties": { "NO": 76, "ENTIDAD": "QUINTANA ROO", "MUNICIPIO": "FELIPE CARRILLO PUERTO", "PUEBLO INDIGENA O AFROMEXICANO": "MAYA", "LOCALIDAD": "SAN RAMON ", "CLAVE LOC": 230020207, "TIPO DE ASENTAMIENTO": "COMUNIDAD INDIGENA", "NOMBRE": "SAN RAMÓN", "MONTO ASIGNADO (PESOS)": 525200, "LATITUD": 20.145196, "LONGITUD": -88.107966 }, "geometry": { "type": "Point", "coordinates": [ -88.107966, 20.145196 ] } },
{ "type": "Feature", "properties": { "NO": 77, "ENTIDAD": "QUINTANA ROO", "MUNICIPIO": "FELIPE CARRILLO PUERTO", "PUEBLO INDIGENA O AFROMEXICANO": "MAYA", "LOCALIDAD": "SAN SALVADOR ", "CLAVE LOC": 230021065, "TIPO DE ASENTAMIENTO": "COMUNIDAD INDIGENA", "NOMBRE": "SAN SALVADOR", "MONTO ASIGNADO (PESOS)": 175089, "LATITUD": 20.32827, "LONGITUD": -88.07297 }, "geometry": { "type": "Point", "coordinates": [ -88.07297, 20.32827 ] } },
{ "type": "Feature", "properties": { "NO": 78, "ENTIDAD": "QUINTANA ROO", "MUNICIPIO": "FELIPE CARRILLO PUERTO", "PUEBLO INDIGENA O AFROMEXICANO": "MAYA", "LOCALIDAD": "SAN SILVERIO ", "CLAVE LOC": 230021075, "TIPO DE ASENTAMIENTO": "COMUNIDAD INDIGENA", "NOMBRE": "SAN SILVERIO", "MONTO ASIGNADO (PESOS)": 600379, "LATITUD": 20.359251, "LONGITUD": -88.036973 }, "geometry": { "type": "Point", "coordinates": [ -88.036973, 20.359251 ] } },
{ "type": "Feature", "properties": { "NO": 79, "ENTIDAD": "QUINTANA ROO", "MUNICIPIO": "FELIPE CARRILLO PUERTO", "PUEBLO INDIGENA O AFROMEXICANO": "MAYA", "LOCALIDAD": "SANTA AMALIA ", "CLAVE LOC": 230020707, "TIPO DE ASENTAMIENTO": "COMUNIDAD INDIGENA", "NOMBRE": "SANTA AMALIA", "MONTO ASIGNADO (PESOS)": 191421, "LATITUD": 19.765772, "LONGITUD": -87.862603 }, "geometry": { "type": "Point", "coordinates": [ -87.862603, 19.765772 ] } },
{ "type": "Feature", "properties": { "NO": 80, "ENTIDAD": "QUINTANA ROO", "MUNICIPIO": "FELIPE CARRILLO PUERTO", "PUEBLO INDIGENA O AFROMEXICANO": "MAYA", "LOCALIDAD": "SANTA ISABEL ", "CLAVE LOC": 230020432, "TIPO DE ASENTAMIENTO": "COMUNIDAD INDIGENA", "NOMBRE": "SANTA ISABEL", "MONTO ASIGNADO (PESOS)": 129100, "LATITUD": 19.469103, "LONGITUD": -88.097207 }, "geometry": { "type": "Point", "coordinates": [ -88.097207, 19.469103 ] } },
{ "type": "Feature", "properties": { "NO": 81, "ENTIDAD": "QUINTANA ROO", "MUNICIPIO": "FELIPE CARRILLO PUERTO", "PUEBLO INDIGENA O AFROMEXICANO": "MAYA", "LOCALIDAD": "SANTA LUCIA", "CLAVE LOC": 230020221, "TIPO DE ASENTAMIENTO": "COMUNIDAD INDIGENA", "NOMBRE": "SANTA LUCÍA", "MONTO ASIGNADO (PESOS)": 239846, "LATITUD": 19.382731, "LONGITUD": -88.642313 }, "geometry": { "type": "Point", "coordinates": [ -88.642313, 19.382731 ] } },
{ "type": "Feature", "properties": { "NO": 82, "ENTIDAD": "QUINTANA ROO", "MUNICIPIO": "FELIPE CARRILLO PUERTO", "PUEBLO INDIGENA O AFROMEXICANO": "MAYA", "LOCALIDAD": "SANTA MARIA PONIENTE ", "CLAVE LOC": 230020225, "TIPO DE ASENTAMIENTO": "COMUNIDAD INDIGENA", "NOMBRE": "SANTA MARIA PONIENTE", "MONTO ASIGNADO (PESOS)": 734568, "LATITUD": 19.367637, "LONGITUD": -88.407411 }, "geometry": { "type": "Point", "coordinates": [ -88.407411, 19.367637 ] } },
{ "type": "Feature", "properties": { "NO": 83, "ENTIDAD": "QUINTANA ROO", "MUNICIPIO": "FELIPE CARRILLO PUERTO", "PUEBLO INDIGENA O AFROMEXICANO": "MAYA", "LOCALIDAD": "SANTA ROSA", "CLAVE LOC": 230020461, "TIPO DE ASENTAMIENTO": "COMUNIDAD INDIGENA", "NOMBRE": "SANTA ROSA", "MONTO ASIGNADO (PESOS)": 84639, "LATITUD": 19.49974, "LONGITUD": -87.4292 }, "geometry": { "type": "Point", "coordinates": [ -87.4292, 19.49974 ] } },
{ "type": "Feature", "properties": { "NO": 84, "ENTIDAD": "QUINTANA ROO", "MUNICIPIO": "FELIPE CARRILLO PUERTO", "PUEBLO INDIGENA O AFROMEXICANO": "MAYA", "LOCALIDAD": "SANTA ROSA SEGUNDO ", "CLAVE LOC": 230020232, "TIPO DE ASENTAMIENTO": "LOCALIDAD CON POBLACION\nINDIGENA", "NOMBRE": "SANTA ROSA SEGUNDO", "MONTO ASIGNADO (PESOS)": 849356, "LATITUD": 19.978937, "LONGITUD": -88.261741 }, "geometry": { "type": "Point", "coordinates": [ -88.261741, 19.978937 ] } },
{ "type": "Feature", "properties": { "NO": 85, "ENTIDAD": "QUINTANA ROO", "MUNICIPIO": "FELIPE CARRILLO PUERTO", "PUEBLO INDIGENA O AFROMEXICANO": "MAYA", "LOCALIDAD": "TABI ", "CLAVE LOC": 230020243, "TIPO DE ASENTAMIENTO": "COMUNIDAD INDIGENA", "NOMBRE": "TABÍ", "MONTO ASIGNADO (PESOS)": 367568, "LATITUD": 19.720656, "LONGITUD": -88.265169 }, "geometry": { "type": "Point", "coordinates": [ -88.265169, 19.720656 ] } },
{ "type": "Feature", "properties": { "NO": 86, "ENTIDAD": "QUINTANA ROO", "MUNICIPIO": "FELIPE CARRILLO PUERTO", "PUEBLO INDIGENA O AFROMEXICANO": "MAYA", "LOCALIDAD": "TAC-CHIVO", "CLAVE LOC": 230020244, "TIPO DE ASENTAMIENTO": "COMUNIDAD INDIGENA", "NOMBRE": "TAC-CHIVO", "MONTO ASIGNADO (PESOS)": 387396, "LATITUD": 20.22111, "LONGITUD": -88.040833 }, "geometry": { "type": "Point", "coordinates": [ -88.040833, 20.22111 ] } },
{ "type": "Feature", "properties": { "NO": 87, "ENTIDAD": "QUINTANA ROO", "MUNICIPIO": "FELIPE CARRILLO PUERTO", "PUEBLO INDIGENA O AFROMEXICANO": "MAYA", "LOCALIDAD": "TEPICH", "CLAVE LOC": 230020248, "TIPO DE ASENTAMIENTO": "COMUNIDAD INDIGENA", "NOMBRE": "TEPICH", "MONTO ASIGNADO (PESOS)": 2969707, "LATITUD": 20.241374, "LONGITUD": -88.256409 }, "geometry": { "type": "Point", "coordinates": [ -88.256409, 20.241374 ] } },
{ "type": "Feature", "properties": { "NO": 88, "ENTIDAD": "QUINTANA ROO", "MUNICIPIO": "FELIPE CARRILLO PUERTO", "PUEBLO INDIGENA O AFROMEXICANO": "MAYA", "LOCALIDAD": "TIXCACAL GUARDIA", "CLAVE LOC": 230020251, "TIPO DE ASENTAMIENTO": "COMUNIDAD INDIGENA", "NOMBRE": "TIXCACAL GUARDIA", "MONTO ASIGNADO (PESOS)": 696574, "LATITUD": 19.858631, "LONGITUD": -88.175278 }, "geometry": { "type": "Point", "coordinates": [ -88.175278, 19.858631 ] } },
{ "type": "Feature", "properties": { "NO": 89, "ENTIDAD": "QUINTANA ROO", "MUNICIPIO": "FELIPE CARRILLO PUERTO", "PUEBLO INDIGENA O AFROMEXICANO": "MAYA", "LOCALIDAD": "TRAPICH ", "CLAVE LOC": 230020254, "TIPO DE ASENTAMIENTO": "COMUNIDAD INDIGENA", "NOMBRE": "TRAPICH", "MONTO ASIGNADO (PESOS)": 262480, "LATITUD": 20.013757, "LONGITUD": -88.140512 }, "geometry": { "type": "Point", "coordinates": [ -88.140512, 20.013757 ] } },
{ "type": "Feature", "properties": { "NO": 90, "ENTIDAD": "QUINTANA ROO", "MUNICIPIO": "FELIPE CARRILLO PUERTO", "PUEBLO INDIGENA O AFROMEXICANO": "MAYA", "LOCALIDAD": "TRES REYES ", "CLAVE LOC": 230020738, "TIPO DE ASENTAMIENTO": "COMUNIDAD INDIGENA", "NOMBRE": "TRES REYES", "MONTO ASIGNADO (PESOS)": 137183, "LATITUD": 19.836201, "LONGITUD": -87.861459 }, "geometry": { "type": "Point", "coordinates": [ -87.861459, 19.836201 ] } },
{ "type": "Feature", "properties": { "NO": 91, "ENTIDAD": "QUINTANA ROO", "MUNICIPIO": "FELIPE CARRILLO PUERTO", "PUEBLO INDIGENA O AFROMEXICANO": "MAYA", "LOCALIDAD": "TUZIK ", "CLAVE LOC": 230020259, "TIPO DE ASENTAMIENTO": "COMUNIDAD INDIGENA", "NOMBRE": "TUZIK", "MONTO ASIGNADO (PESOS)": 694149, "LATITUD": 19.915273, "LONGITUD": -88.159277 }, "geometry": { "type": "Point", "coordinates": [ -88.159277, 19.915273 ] } },
{ "type": "Feature", "properties": { "NO": 92, "ENTIDAD": "QUINTANA ROO", "MUNICIPIO": "FELIPE CARRILLO PUERTO", "PUEBLO INDIGENA O AFROMEXICANO": "MAYA", "LOCALIDAD": "TUZIK II ", "CLAVE LOC": 230020740, "TIPO DE ASENTAMIENTO": "COMUNIDAD INDIGENA", "NOMBRE": "TUZIK II", "MONTO ASIGNADO (PESOS)": 117302, "LATITUD": 20.191823, "LONGITUD": -88.013496 }, "geometry": { "type": "Point", "coordinates": [ -88.013496, 20.191823 ] } },
{ "type": "Feature", "properties": { "NO": 93, "ENTIDAD": "QUINTANA ROO", "MUNICIPIO": "FELIPE CARRILLO PUERTO", "PUEBLO INDIGENA O AFROMEXICANO": "MAYA", "LOCALIDAD": "TZUKUM", "CLAVE LOC": 230020869, "TIPO DE ASENTAMIENTO": "COMUNIDAD INDIGENA", "NOMBRE": "TZUKUM", "MONTO ASIGNADO (PESOS)": 116046, "LATITUD": 19.751389, "LONGITUD": -88.15 }, "geometry": { "type": "Point", "coordinates": [ -88.15, 19.751389 ] } },
{ "type": "Feature", "properties": { "NO": 94, "ENTIDAD": "QUINTANA ROO", "MUNICIPIO": "FELIPE CARRILLO PUERTO", "PUEBLO INDIGENA O AFROMEXICANO": "MAYA", "LOCALIDAD": "UH MAY", "CLAVE LOC": 230020262, "TIPO DE ASENTAMIENTO": "COMUNIDAD INDIGENA", "NOMBRE": "UH-MAY", "MONTO ASIGNADO (PESOS)": 473465, "LATITUD": 19.416404, "LONGITUD": -88.048732 }, "geometry": { "type": "Point", "coordinates": [ -88.048732, 19.416404 ] } },
{ "type": "Feature", "properties": { "NO": 95, "ENTIDAD": "QUINTANA ROO", "MUNICIPIO": "FELIPE CARRILLO PUERTO", "PUEBLO INDIGENA O AFROMEXICANO": "MAYA", "LOCALIDAD": "VILLAHERMOSA", "CLAVE LOC": 230021066, "TIPO DE ASENTAMIENTO": "COMUNIDAD INDIGENA", "NOMBRE": "VILLAHERMOSA", "MONTO ASIGNADO (PESOS)": 387396, "LATITUD": 20.278695, "LONGITUD": -88.070319 }, "geometry": { "type": "Point", "coordinates": [ -88.070319, 20.278695 ] } },
{ "type": "Feature", "properties": { "NO": 96, "ENTIDAD": "QUINTANA ROO", "MUNICIPIO": "FELIPE CARRILLO PUERTO", "PUEBLO INDIGENA O AFROMEXICANO": "MAYA", "LOCALIDAD": "XAAN", "CLAVE LOC": 230020269, "TIPO DE ASENTAMIENTO": "COMUNIDAD INDIGENA", "NOMBRE": "XAAN", "MONTO ASIGNADO (PESOS)": 116046, "LATITUD": 20.000589, "LONGITUD": -88.035193 }, "geometry": { "type": "Point", "coordinates": [ -88.035193, 20.000589 ] } },
{ "type": "Feature", "properties": { "NO": 97, "ENTIDAD": "QUINTANA ROO", "MUNICIPIO": "FELIPE CARRILLO PUERTO", "PUEBLO INDIGENA O AFROMEXICANO": "MAYA", "LOCALIDAD": "X-HAZIL NORTE", "CLAVE LOC": 230020768, "TIPO DE ASENTAMIENTO": "COMUNIDAD INDIGENA", "NOMBRE": "X-HAZIL NORTE", "MONTO ASIGNADO (PESOS)": 352221, "LATITUD": 20.214389, "LONGITUD": -87.98249 }, "geometry": { "type": "Point", "coordinates": [ -87.98249, 20.214389 ] } },
{ "type": "Feature", "properties": { "NO": 98, "ENTIDAD": "QUINTANA ROO", "MUNICIPIO": "FELIPE CARRILLO PUERTO", "PUEBLO INDIGENA O AFROMEXICANO": "MAYA", "LOCALIDAD": "X-HAZIL PRIMERO ", "CLAVE LOC": 230020978, "TIPO DE ASENTAMIENTO": "COMUNIDAD INDIGENA", "NOMBRE": "X-HAZIL PRIMERO", "MONTO ASIGNADO (PESOS)": 168808, "LATITUD": 20.170792, "LONGITUD": -87.992167 }, "geometry": { "type": "Point", "coordinates": [ -87.992167, 20.170792 ] } },
{ "type": "Feature", "properties": { "NO": 99, "ENTIDAD": "QUINTANA ROO", "MUNICIPIO": "FELIPE CARRILLO PUERTO", "PUEBLO INDIGENA O AFROMEXICANO": "MAYA", "LOCALIDAD": "X-HAZIL SUR ", "CLAVE LOC": 230020276, "TIPO DE ASENTAMIENTO": "COMUNIDAD INDIGENA", "NOMBRE": "X-HAZIL SUR", "MONTO ASIGNADO (PESOS)": 1287492, "LATITUD": 19.391322, "LONGITUD": -88.075496 }, "geometry": { "type": "Point", "coordinates": [ -88.075496, 19.391322 ] } },
{ "type": "Feature", "properties": { "NO": 100, "ENTIDAD": "QUINTANA ROO", "MUNICIPIO": "FELIPE CARRILLO PUERTO", "PUEBLO INDIGENA O AFROMEXICANO": "MAYA", "LOCALIDAD": "X-KONHA ", "CLAVE LOC": 230020368, "TIPO DE ASENTAMIENTO": "COMUNIDAD INDIGENA", "NOMBRE": "X-CONHA", "MONTO ASIGNADO (PESOS)": 159009, "LATITUD": 19.431739, "LONGITUD": -88.101204 }, "geometry": { "type": "Point", "coordinates": [ -88.101204, 19.431739 ] } },
{ "type": "Feature", "properties": { "NO": 101, "ENTIDAD": "QUINTANA ROO", "MUNICIPIO": "FELIPE CARRILLO PUERTO", "PUEBLO INDIGENA O AFROMEXICANO": "MAYA", "LOCALIDAD": "X-PICHIL ", "CLAVE LOC": 230020282, "TIPO DE ASENTAMIENTO": "COMUNIDAD INDIGENA", "NOMBRE": "X-PICHIL", "MONTO ASIGNADO (PESOS)": 1076508, "LATITUD": 19.695634, "LONGITUD": -88.37795 }, "geometry": { "type": "Point", "coordinates": [ -88.37795, 19.695634 ] } },
{ "type": "Feature", "properties": { "NO": 102, "ENTIDAD": "QUINTANA ROO", "MUNICIPIO": "FELIPE CARRILLO PUERTO", "PUEBLO INDIGENA O AFROMEXICANO": "MAYA", "LOCALIDAD": "X-YATIL ", "CLAVE LOC": 230020284, "TIPO DE ASENTAMIENTO": "COMUNIDAD INDIGENA", "NOMBRE": "X-YATIL", "MONTO ASIGNADO (PESOS)": 833189, "LATITUD": 19.662475, "LONGITUD": -88.443913 }, "geometry": { "type": "Point", "coordinates": [ -88.443913, 19.662475 ] } },
{ "type": "Feature", "properties": { "NO": 103, "ENTIDAD": "QUINTANA ROO", "MUNICIPIO": "FELIPE CARRILLO PUERTO", "PUEBLO INDIGENA O AFROMEXICANO": "MAYA", "LOCALIDAD": "YALCHEN", "CLAVE LOC": 230021078, "TIPO DE ASENTAMIENTO": "COMUNIDAD INDIGENA", "NOMBRE": "YALCHÉN", "MONTO ASIGNADO (PESOS)": 823314, "LATITUD": 20.309946, "LONGITUD": -88.016054 }, "geometry": { "type": "Point", "coordinates": [ -88.016054, 20.309946 ] } },
{ "type": "Feature", "properties": { "NO": 104, "ENTIDAD": "QUINTANA ROO", "MUNICIPIO": "FELIPE CARRILLO PUERTO", "PUEBLO INDIGENA O AFROMEXICANO": "MAYA", "LOCALIDAD": "YAXCHE CHAL ", "CLAVE LOC": 230020285, "TIPO DE ASENTAMIENTO": "COMUNIDAD INDIGENA", "NOMBRE": "YAXCHÉ CHAL", "MONTO ASIGNADO (PESOS)": 131121, "LATITUD": 20.065898, "LONGITUD": -88.088063 }, "geometry": { "type": "Point", "coordinates": [ -88.088063, 20.065898 ] } },
{ "type": "Feature", "properties": { "NO": 105, "ENTIDAD": "QUINTANA ROO", "MUNICIPIO": "FELIPE CARRILLO PUERTO", "PUEBLO INDIGENA O AFROMEXICANO": "MAYA", "LOCALIDAD": "YAXLEY", "CLAVE LOC": 230020287, "TIPO DE ASENTAMIENTO": "COMUNIDAD INDIGENA", "NOMBRE": "YAXLEY", "MONTO ASIGNADO (PESOS)": 593103, "LATITUD": 19.768204, "LONGITUD": -88.199766 }, "geometry": { "type": "Point", "coordinates": [ -88.199766, 19.768204 ] } },
{ "type": "Feature", "properties": { "NO": 106, "ENTIDAD": "QUINTANA ROO", "MUNICIPIO": "FELIPE CARRILLO PUERTO", "PUEBLO INDIGENA O AFROMEXICANO": "MAYA", "LOCALIDAD": "YOACTUN ", "CLAVE LOC": 230020288, "TIPO DE ASENTAMIENTO": "COMUNIDAD INDIGENA", "NOMBRE": "YOACTÚN", "MONTO ASIGNADO (PESOS)": 515500, "LATITUD": 19.459391, "LONGITUD": -88.358634 }, "geometry": { "type": "Point", "coordinates": [ -88.358634, 19.459391 ] } },
{ "type": "Feature", "properties": { "NO": 107, "ENTIDAD": "QUINTANA ROO", "MUNICIPIO": "FELIPE CARRILLO PUERTO", "PUEBLO INDIGENA O AFROMEXICANO": "MAYA", "LOCALIDAD": "YODZONOT CHICO ", "CLAVE LOC": 230020292, "TIPO DE ASENTAMIENTO": "COMUNIDAD INDIGENA", "NOMBRE": "YODZONOT CHICO", "MONTO ASIGNADO (PESOS)": 204278, "LATITUD": 20.050134, "LONGITUD": -87.948931 }, "geometry": { "type": "Point", "coordinates": [ -87.948931, 20.050134 ] } },
{ "type": "Feature", "properties": { "NO": 108, "ENTIDAD": "QUINTANA ROO", "MUNICIPIO": "FELIPE CARRILLO PUERTO", "PUEBLO INDIGENA O AFROMEXICANO": "MAYA", "LOCALIDAD": "YODZONOT NUEVO ", "CLAVE LOC": 230020445, "TIPO DE ASENTAMIENTO": "COMUNIDAD INDIGENA", "NOMBRE": "YODZONOT NUEVO", "MONTO ASIGNADO (PESOS)": 159009, "LATITUD": 19.785229, "LONGITUD": -88.288392 }, "geometry": { "type": "Point", "coordinates": [ -88.288392, 19.785229 ] } },
{ "type": "Feature", "properties": { "NO": 109, "ENTIDAD": "QUINTANA ROO", "MUNICIPIO": "JOSE MARIA MORELOS", "PUEBLO INDIGENA O AFROMEXICANO": "MAYA", "LOCALIDAD": "ADOLFO DE LA HUERTA ", "CLAVE LOC": 230060001, "TIPO DE ASENTAMIENTO": "COMUNIDAD INDIGENA", "NOMBRE": "ADOLFO DE LA HUERTA", "MONTO ASIGNADO (PESOS)": 157393, "LATITUD": 19.418437, "LONGITUD": -88.829155 }, "geometry": { "type": "Point", "coordinates": [ -88.829155, 19.418437 ] } },
{ "type": "Feature", "properties": { "NO": 110, "ENTIDAD": "QUINTANA ROO", "MUNICIPIO": "JOSE MARIA MORELOS", "PUEBLO INDIGENA O AFROMEXICANO": "MAYA", "LOCALIDAD": "ADOLFO LOPEZ MATEOS ", "CLAVE LOC": 230060003, "TIPO DE ASENTAMIENTO": "COMUNIDAD INDIGENA", "NOMBRE": "ADOLFO LÓPEZ MATEOS", "MONTO ASIGNADO (PESOS)": 347359, "LATITUD": 19.632611, "LONGITUD": -88.688141 }, "geometry": { "type": "Point", "coordinates": [ -88.688141, 19.632611 ] } },
{ "type": "Feature", "properties": { "NO": 111, "ENTIDAD": "QUINTANA ROO", "MUNICIPIO": "JOSE MARIA MORELOS", "PUEBLO INDIGENA O AFROMEXICANO": "MAYA", "LOCALIDAD": "AGUADA LA PRESUMIDA ", "CLAVE LOC": 230060425, "TIPO DE ASENTAMIENTO": "COMUNIDAD INDIGENA", "NOMBRE": "AGUADA LA PRESUMIDA", "MONTO ASIGNADO (PESOS)": 133950, "LATITUD": 19.443406, "LONGITUD": -89.018678 }, "geometry": { "type": "Point", "coordinates": [ -89.018678, 19.443406 ] } },
{ "type": "Feature", "properties": { "NO": 112, "ENTIDAD": "QUINTANA ROO", "MUNICIPIO": "JOSE MARIA MORELOS", "PUEBLO INDIGENA O AFROMEXICANO": "MAYA", "LOCALIDAD": "BENITO JUAREZ", "CLAVE LOC": 230060010, "TIPO DE ASENTAMIENTO": "COMUNIDAD INDIGENA", "NOMBRE": "BENITO JUÁREZ", "MONTO ASIGNADO (PESOS)": 167093, "LATITUD": 19.711061, "LONGITUD": -88.770792 }, "geometry": { "type": "Point", "coordinates": [ -88.770792, 19.711061 ] } },
{ "type": "Feature", "properties": { "NO": 113, "ENTIDAD": "QUINTANA ROO", "MUNICIPIO": "JOSE MARIA MORELOS", "PUEBLO INDIGENA O AFROMEXICANO": "MAYA", "LOCALIDAD": "CAFETAL GRANDE ", "CLAVE LOC": 230060015, "TIPO DE ASENTAMIENTO": "COMUNIDAD INDIGENA", "NOMBRE": "CAFETAL GRANDE", "MONTO ASIGNADO (PESOS)": 346551, "LATITUD": 19.716096, "LONGITUD": -88.82128 }, "geometry": { "type": "Point", "coordinates": [ -88.82128, 19.716096 ] } },
{ "type": "Feature", "properties": { "NO": 114, "ENTIDAD": "QUINTANA ROO", "MUNICIPIO": "JOSE MARIA MORELOS", "PUEBLO INDIGENA O AFROMEXICANO": "MAYA", "LOCALIDAD": "CAFETALITO ", "CLAVE LOC": 230060016, "TIPO DE ASENTAMIENTO": "COMUNIDAD INDIGENA", "NOMBRE": "CAFETALITO", "MONTO ASIGNADO (PESOS)": 336042, "LATITUD": 19.727267, "LONGITUD": -88.797863 }, "geometry": { "type": "Point", "coordinates": [ -88.797863, 19.727267 ] } },
{ "type": "Feature", "properties": { "NO": 115, "ENTIDAD": "QUINTANA ROO", "MUNICIPIO": "JOSE MARIA MORELOS", "PUEBLO INDIGENA O AFROMEXICANO": "MAYA", "LOCALIDAD": "CANDELARIA ", "CLAVE LOC": 230060018, "TIPO DE ASENTAMIENTO": "COMUNIDAD INDIGENA", "NOMBRE": "CANDELARIA", "MONTO ASIGNADO (PESOS)": 939085, "LATITUD": 19.737954, "LONGITUD": -88.958911 }, "geometry": { "type": "Point", "coordinates": [ -88.958911, 19.737954 ] } },
{ "type": "Feature", "properties": { "NO": 116, "ENTIDAD": "QUINTANA ROO", "MUNICIPIO": "JOSE MARIA MORELOS", "PUEBLO INDIGENA O AFROMEXICANO": "MAYA", "LOCALIDAD": "COLMENITAS ", "CLAVE LOC": 230060336, "TIPO DE ASENTAMIENTO": "COMUNIDAD INDIGENA", "NOMBRE": "COLMENITAS", "MONTO ASIGNADO (PESOS)": 132377, "LATITUD": 19.504046, "LONGITUD": -88.77837 }, "geometry": { "type": "Point", "coordinates": [ -88.77837, 19.504046 ] } },
{ "type": "Feature", "properties": { "NO": 117, "ENTIDAD": "QUINTANA ROO", "MUNICIPIO": "JOSE MARIA MORELOS", "PUEBLO INDIGENA O AFROMEXICANO": "MAYA", "LOCALIDAD": "DOS AGUADAS ", "CLAVE LOC": 230060048, "TIPO DE ASENTAMIENTO": "COMUNIDAD INDIGENA", "NOMBRE": "DOS AGUADAS", "MONTO ASIGNADO (PESOS)": 249547, "LATITUD": 19.66649, "LONGITUD": -88.698147 }, "geometry": { "type": "Point", "coordinates": [ -88.698147, 19.66649 ] } },
{ "type": "Feature", "properties": { "NO": 118, "ENTIDAD": "QUINTANA ROO", "MUNICIPIO": "JOSE MARIA MORELOS", "PUEBLO INDIGENA O AFROMEXICANO": "MAYA", "LOCALIDAD": "EL MARTIRIO ", "CLAVE LOC": 230060100, "TIPO DE ASENTAMIENTO": "COMUNIDAD INDIGENA", "NOMBRE": "EL MARTIRIO", "MONTO ASIGNADO (PESOS)": 150926, "LATITUD": 19.641525, "LONGITUD": -88.836397 }, "geometry": { "type": "Point", "coordinates": [ -88.836397, 19.641525 ] } },
{ "type": "Feature", "properties": { "NO": 119, "ENTIDAD": "QUINTANA ROO", "MUNICIPIO": "JOSE MARIA MORELOS", "PUEBLO INDIGENA O AFROMEXICANO": "MAYA", "LOCALIDAD": "EL NARANJAL ", "CLAVE LOC": 230060026, "TIPO DE ASENTAMIENTO": "COMUNIDAD INDIGENA", "NOMBRE": "EL NARANJAL", "MONTO ASIGNADO (PESOS)": 1038133, "LATITUD": 19.642682, "LONGITUD": -88.784801 }, "geometry": { "type": "Point", "coordinates": [ -88.784801, 19.642682 ] } },
{ "type": "Feature", "properties": { "NO": 120, "ENTIDAD": "QUINTANA ROO", "MUNICIPIO": "JOSE MARIA MORELOS", "PUEBLO INDIGENA O AFROMEXICANO": "MAYA", "LOCALIDAD": "EL TRIUNFO", "CLAVE LOC": 230060330, "TIPO DE ASENTAMIENTO": "COMUNIDAD INDIGENA", "NOMBRE": "TRIUNFO", "MONTO ASIGNADO (PESOS)": 204278, "LATITUD": 19.425555, "LONGITUD": -88.764766 }, "geometry": { "type": "Point", "coordinates": [ -88.764766, 19.425555 ] } },
{ "type": "Feature", "properties": { "NO": 121, "ENTIDAD": "QUINTANA ROO", "MUNICIPIO": "JOSE MARIA MORELOS", "PUEBLO INDIGENA O AFROMEXICANO": "MAYA", "LOCALIDAD": "GAVILANES", "CLAVE LOC": 230060061, "TIPO DE ASENTAMIENTO": "COMUNIDAD INDIGENA", "NOMBRE": "GAVILANES", "MONTO ASIGNADO (PESOS)": 319875, "LATITUD": 19.490448, "LONGITUD": -88.753493 }, "geometry": { "type": "Point", "coordinates": [ -88.753493, 19.490448 ] } },
{ "type": "Feature", "properties": { "NO": 122, "ENTIDAD": "QUINTANA ROO", "MUNICIPIO": "JOSE MARIA MORELOS", "PUEBLO INDIGENA O AFROMEXICANO": "MAYA", "LOCALIDAD": "HUAY MAX ", "CLAVE LOC": 230060067, "TIPO DE ASENTAMIENTO": "COMUNIDAD INDIGENA", "NOMBRE": "HUAY MAX", "MONTO ASIGNADO (PESOS)": 1281833, "LATITUD": 20.04169, "LONGITUD": -88.525797 }, "geometry": { "type": "Point", "coordinates": [ -88.525797, 20.04169 ] } },
{ "type": "Feature", "properties": { "NO": 123, "ENTIDAD": "QUINTANA ROO", "MUNICIPIO": "JOSE MARIA MORELOS", "PUEBLO INDIGENA O AFROMEXICANO": "MAYA", "LOCALIDAD": "INSURGENTES", "CLAVE LOC": 230060287, "TIPO DE ASENTAMIENTO": "COMUNIDAD INDIGENA", "NOMBRE": "INSURGENTES", "MONTO ASIGNADO (PESOS)": 146075, "LATITUD": 19.593787, "LONGITUD": -88.785115 }, "geometry": { "type": "Point", "coordinates": [ -88.785115, 19.593787 ] } },
{ "type": "Feature", "properties": { "NO": 124, "ENTIDAD": "QUINTANA ROO", "MUNICIPIO": "JOSE MARIA MORELOS", "PUEBLO INDIGENA O AFROMEXICANO": "MAYA", "LOCALIDAD": "JAVIER ROJO GOMEZ ", "CLAVE LOC": 230060033, "TIPO DE ASENTAMIENTO": "COMUNIDAD INDIGENA", "NOMBRE": "JAVIER ROJO GOMEZ", "MONTO ASIGNADO (PESOS)": 137402, "LATITUD": 19.88777, "LONGITUD": -88.593887 }, "geometry": { "type": "Point", "coordinates": [ -88.593887, 19.88777 ] } },
{ "type": "Feature", "properties": { "NO": 125, "ENTIDAD": "QUINTANA ROO", "MUNICIPIO": "JOSE MARIA MORELOS", "PUEBLO INDIGENA O AFROMEXICANO": "MAYA", "LOCALIDAD": "KANCABCHEN ", "CLAVE LOC": 230060278, "TIPO DE ASENTAMIENTO": "COMUNIDAD INDIGENA", "NOMBRE": "KANKABCHEN", "MONTO ASIGNADO (PESOS)": 939893, "LATITUD": 19.714106, "LONGITUD": -88.861742 }, "geometry": { "type": "Point", "coordinates": [ -88.861742, 19.714106 ] } },
{ "type": "Feature", "properties": { "NO": 126, "ENTIDAD": "QUINTANA ROO", "MUNICIPIO": "JOSE MARIA MORELOS", "PUEBLO INDIGENA O AFROMEXICANO": "MAYA", "LOCALIDAD": "KANTEMO ", "CLAVE LOC": 230060076, "TIPO DE ASENTAMIENTO": "COMUNIDAD INDIGENA", "NOMBRE": "KANTEMÓ", "MONTO ASIGNADO (PESOS)": 283498, "LATITUD": 19.929722, "LONGITUD": -88.806111 }, "geometry": { "type": "Point", "coordinates": [ -88.806111, 19.929722 ] } },
{ "type": "Feature", "properties": { "NO": 127, "ENTIDAD": "QUINTANA ROO", "MUNICIPIO": "JOSE MARIA MORELOS", "PUEBLO INDIGENA O AFROMEXICANO": "MAYA", "LOCALIDAD": "LA CAROLINA ", "CLAVE LOC": 230060004, "TIPO DE ASENTAMIENTO": "COMUNIDAD INDIGENA", "NOMBRE": "LA CAROLINA", "MONTO ASIGNADO (PESOS)": 184877, "LATITUD": 19.606192, "LONGITUD": -89.057415 }, "geometry": { "type": "Point", "coordinates": [ -89.057415, 19.606192 ] } },
{ "type": "Feature", "properties": { "NO": 128, "ENTIDAD": "QUINTANA ROO", "MUNICIPIO": "JOSE MARIA MORELOS", "PUEBLO INDIGENA O AFROMEXICANO": "MAYA", "LOCALIDAD": "LA ESPERANZA ", "CLAVE LOC": 230060057, "TIPO DE ASENTAMIENTO": "COMUNIDAD INDIGENA", "NOMBRE": "LA ESPERANZA", "MONTO ASIGNADO (PESOS)": 711125, "LATITUD": 19.864827, "LONGITUD": -88.585464 }, "geometry": { "type": "Point", "coordinates": [ -88.585464, 19.864827 ] } },
{ "type": "Feature", "properties": { "NO": 129, "ENTIDAD": "QUINTANA ROO", "MUNICIPIO": "JOSE MARIA MORELOS", "PUEBLO INDIGENA O AFROMEXICANO": "MAYA", "LOCALIDAD": "LA PIMIENTITA", "CLAVE LOC": 230060357, "TIPO DE ASENTAMIENTO": "COMUNIDAD INDIGENA", "NOMBRE": "LA PIMIENTITA", "MONTO ASIGNADO (PESOS)": 327958, "LATITUD": 19.504756, "LONGITUD": -88.670184 }, "geometry": { "type": "Point", "coordinates": [ -88.670184, 19.504756 ] } },
{ "type": "Feature", "properties": { "NO": 130, "ENTIDAD": "QUINTANA ROO", "MUNICIPIO": "JOSE MARIA MORELOS", "PUEBLO INDIGENA O AFROMEXICANO": "MAYA", "LOCALIDAD": "LA PRESUMIDA ", "CLAVE LOC": 230060133, "TIPO DE ASENTAMIENTO": "COMUNIDAD INDIGENA", "NOMBRE": "LA PRESUMIDA", "MONTO ASIGNADO (PESOS)": 1146027, "LATITUD": 19.801101, "LONGITUD": -88.754044 }, "geometry": { "type": "Point", "coordinates": [ -88.754044, 19.801101 ] } },
{ "type": "Feature", "properties": { "NO": 131, "ENTIDAD": "QUINTANA ROO", "MUNICIPIO": "JOSE MARIA MORELOS", "PUEBLO INDIGENA O AFROMEXICANO": "MAYA", "LOCALIDAD": "LAZARO CARDENAS ", "CLAVE LOC": 230060090, "TIPO DE ASENTAMIENTO": "COMUNIDAD INDIGENA", "NOMBRE": "LÁZARO CÁRDENAS", "MONTO ASIGNADO (PESOS)": 207511, "LATITUD": 19.594555, "LONGITUD": -88.707865 }, "geometry": { "type": "Point", "coordinates": [ -88.707865, 19.594555 ] } },
{ "type": "Feature", "properties": { "NO": 132, "ENTIDAD": "QUINTANA ROO", "MUNICIPIO": "JOSE MARIA MORELOS", "PUEBLO INDIGENA O AFROMEXICANO": "MAYA", "LOCALIDAD": "LOS LAGARTOS ", "CLAVE LOC": 230060519, "TIPO DE ASENTAMIENTO": "COMUNIDAD INDIGENA", "NOMBRE": "LOS LAGARTOS", "MONTO ASIGNADO (PESOS)": 102227, "LATITUD": 19.45, "LONGITUD": -88.976666 }, "geometry": { "type": "Point", "coordinates": [ -88.976666, 19.45 ] } },
{ "type": "Feature", "properties": { "NO": 133, "ENTIDAD": "QUINTANA ROO", "MUNICIPIO": "JOSE MARIA MORELOS", "PUEBLO INDIGENA O AFROMEXICANO": "MAYA", "LOCALIDAD": "MARIANO MATAMOROS ", "CLAVE LOC": 230060099, "TIPO DE ASENTAMIENTO": "COMUNIDAD INDIGENA", "NOMBRE": "MARÍANO MATAMOROS", "MONTO ASIGNADO (PESOS)": 103232, "LATITUD": 19.633576, "LONGITUD": -88.752149 }, "geometry": { "type": "Point", "coordinates": [ -88.752149, 19.633576 ] } },
{ "type": "Feature", "properties": { "NO": 134, "ENTIDAD": "QUINTANA ROO", "MUNICIPIO": "JOSE MARIA MORELOS", "PUEBLO INDIGENA O AFROMEXICANO": "MAYA", "LOCALIDAD": "NUEVA REFORMA", "CLAVE LOC": 230060141, "TIPO DE ASENTAMIENTO": "COMUNIDAD INDIGENA", "NOMBRE": "NUEVA REFORMA", "MONTO ASIGNADO (PESOS)": 346551, "LATITUD": 19.799283, "LONGITUD": -88.856953 }, "geometry": { "type": "Point", "coordinates": [ -88.856953, 19.799283 ] } },
{ "type": "Feature", "properties": { "NO": 135, "ENTIDAD": "QUINTANA ROO", "MUNICIPIO": "JOSE MARIA MORELOS", "PUEBLO INDIGENA O AFROMEXICANO": "MAYA", "LOCALIDAD": "NUEVO PLAN DE LA NORIA ", "CLAVE LOC": 230060414, "TIPO DE ASENTAMIENTO": "COMUNIDAD INDIGENA", "NOMBRE": "NUEVO PLAN DE LA NORIA", "MONTO ASIGNADO (PESOS)": 346551, "LATITUD": 19.288996, "LONGITUD": -88.63891 }, "geometry": { "type": "Point", "coordinates": [ -88.63891, 19.288996 ] } },
{ "type": "Feature", "properties": { "NO": 136, "ENTIDAD": "QUINTANA ROO", "MUNICIPIO": "JOSE MARIA MORELOS", "PUEBLO INDIGENA O AFROMEXICANO": "MAYA", "LOCALIDAD": "NUEVO SAN MARCOS ", "CLAVE LOC": 230060195, "TIPO DE ASENTAMIENTO": "COMUNIDAD INDIGENA", "NOMBRE": "NUEVO SAN MARCOS", "MONTO ASIGNADO (PESOS)": 252780, "LATITUD": 19.841556, "LONGITUD": -88.77877 }, "geometry": { "type": "Point", "coordinates": [ -88.77877, 19.841556 ] } },
{ "type": "Feature", "properties": { "NO": 137, "ENTIDAD": "QUINTANA ROO", "MUNICIPIO": "JOSE MARIA MORELOS", "PUEBLO INDIGENA O AFROMEXICANO": "MAYA", "LOCALIDAD": "OTHON P. BLANCO ", "CLAVE LOC": 230060027, "TIPO DE ASENTAMIENTO": "COMUNIDAD INDIGENA", "NOMBRE": "OTHÓN P. BLANCO", "MONTO ASIGNADO (PESOS)": 571277, "LATITUD": 19.621186, "LONGITUD": -89.004367 }, "geometry": { "type": "Point", "coordinates": [ -89.004367, 19.621186 ] } },
{ "type": "Feature", "properties": { "NO": 138, "ENTIDAD": "QUINTANA ROO", "MUNICIPIO": "JOSE MARIA MORELOS", "PUEBLO INDIGENA O AFROMEXICANO": "MAYA", "LOCALIDAD": "PEDRO MORENO ", "CLAVE LOC": 230060117, "TIPO DE ASENTAMIENTO": "COMUNIDAD INDIGENA", "NOMBRE": "PEDRO MORENO", "MONTO ASIGNADO (PESOS)": 136375, "LATITUD": 19.534082, "LONGITUD": -88.736551 }, "geometry": { "type": "Point", "coordinates": [ -88.736551, 19.534082 ] } },
{ "type": "Feature", "properties": { "NO": 139, "ENTIDAD": "QUINTANA ROO", "MUNICIPIO": "JOSE MARIA MORELOS", "PUEBLO INDIGENA O AFROMEXICANO": "MAYA", "LOCALIDAD": "PIEDRAS NEGRAS ", "CLAVE LOC": 230060121, "TIPO DE ASENTAMIENTO": "COMUNIDAD INDIGENA", "NOMBRE": "PIEDRAS NEGRAS", "MONTO ASIGNADO (PESOS)": 180027, "LATITUD": 19.437676, "LONGITUD": -88.798092 }, "geometry": { "type": "Point", "coordinates": [ -88.798092, 19.437676 ] } },
{ "type": "Feature", "properties": { "NO": 140, "ENTIDAD": "QUINTANA ROO", "MUNICIPIO": "JOSE MARIA MORELOS", "PUEBLO INDIGENA O AFROMEXICANO": "MAYA", "LOCALIDAD": "PLAN DE LA NORIA PONIENTE ", "CLAVE LOC": 230060296, "TIPO DE ASENTAMIENTO": "COMUNIDAD INDIGENA", "NOMBRE": "PLAN DE LA NORIA PONIENTE", "MONTO ASIGNADO (PESOS)": 289157, "LATITUD": 19.309212, "LONGITUD": -88.788145 }, "geometry": { "type": "Point", "coordinates": [ -88.788145, 19.309212 ] } },
{ "type": "Feature", "properties": { "NO": 141, "ENTIDAD": "QUINTANA ROO", "MUNICIPIO": "JOSE MARIA MORELOS", "PUEBLO INDIGENA O AFROMEXICANO": "MAYA", "LOCALIDAD": "POZO PIRATA ", "CLAVE LOC": 230060130, "TIPO DE ASENTAMIENTO": "COMUNIDAD INDIGENA", "NOMBRE": "POZO PIRATA", "MONTO ASIGNADO (PESOS)": 221254, "LATITUD": 19.615162, "LONGITUD": -88.890112 }, "geometry": { "type": "Point", "coordinates": [ -88.890112, 19.615162 ] } },
{ "type": "Feature", "properties": { "NO": 142, "ENTIDAD": "QUINTANA ROO", "MUNICIPIO": "JOSE MARIA MORELOS", "PUEBLO INDIGENA O AFROMEXICANO": "MAYA", "LOCALIDAD": "PUERTO ARTURO", "CLAVE LOC": 230060135, "TIPO DE ASENTAMIENTO": "COMUNIDAD INDIGENA", "NOMBRE": "PUERTO ARTURO", "MONTO ASIGNADO (PESOS)": 663431, "LATITUD": 19.660632, "LONGITUD": -89.06719 }, "geometry": { "type": "Point", "coordinates": [ -89.06719, 19.660632 ] } },
{ "type": "Feature", "properties": { "NO": 143, "ENTIDAD": "QUINTANA ROO", "MUNICIPIO": "JOSE MARIA MORELOS", "PUEBLO INDIGENA O AFROMEXICANO": "MAYA", "LOCALIDAD": "RANCHO VIEJO", "CLAVE LOC": 230060300, "TIPO DE ASENTAMIENTO": "COMUNIDAD INDIGENA", "NOMBRE": "RANCHO VIEJO", "MONTO ASIGNADO (PESOS)": 123583, "LATITUD": 19.913106, "LONGITUD": -88.544014 }, "geometry": { "type": "Point", "coordinates": [ -88.544014, 19.913106 ] } },
{ "type": "Feature", "properties": { "NO": 144, "ENTIDAD": "QUINTANA ROO", "MUNICIPIO": "JOSE MARIA MORELOS", "PUEBLO INDIGENA O AFROMEXICANO": "MAYA", "LOCALIDAD": "SABAN ", "CLAVE LOC": 230060035, "TIPO DE ASENTAMIENTO": "COMUNIDAD INDIGENA", "NOMBRE": "SABAN", "MONTO ASIGNADO (PESOS)": 2008556, "LATITUD": 20.035375, "LONGITUD": -88.538713 }, "geometry": { "type": "Point", "coordinates": [ -88.538713, 20.035375 ] } },
{ "type": "Feature", "properties": { "NO": 145, "ENTIDAD": "QUINTANA ROO", "MUNICIPIO": "JOSE MARIA MORELOS", "PUEBLO INDIGENA O AFROMEXICANO": "MAYA", "LOCALIDAD": "SABANA SAN FRANCISCO ", "CLAVE LOC": 230060036, "TIPO DE ASENTAMIENTO": "COMUNIDAD INDIGENA", "NOMBRE": "SABANA SAN FRANCISCO", "MONTO ASIGNADO (PESOS)": 209937, "LATITUD": 19.548551, "LONGITUD": -89.077586 }, "geometry": { "type": "Point", "coordinates": [ -89.077586, 19.548551 ] } },
{ "type": "Feature", "properties": { "NO": 146, "ENTIDAD": "QUINTANA ROO", "MUNICIPIO": "JOSE MARIA MORELOS", "PUEBLO INDIGENA O AFROMEXICANO": "MAYA", "LOCALIDAD": "SACALACA ", "CLAVE LOC": 230060146, "TIPO DE ASENTAMIENTO": "COMUNIDAD INDIGENA", "NOMBRE": "SACALACA", "MONTO ASIGNADO (PESOS)": 923726, "LATITUD": 20.062267, "LONGITUD": -88.595322 }, "geometry": { "type": "Point", "coordinates": [ -88.595322, 20.062267 ] } },
{ "type": "Feature", "properties": { "NO": 147, "ENTIDAD": "QUINTANA ROO", "MUNICIPIO": "JOSE MARIA MORELOS", "PUEBLO INDIGENA O AFROMEXICANO": "MAYA", "LOCALIDAD": "SACZUQUIL ", "CLAVE LOC": 230060038, "TIPO DE ASENTAMIENTO": "COMUNIDAD INDIGENA", "NOMBRE": "SACZUQUIL", "MONTO ASIGNADO (PESOS)": 407178, "LATITUD": 19.785232, "LONGITUD": -88.977626 }, "geometry": { "type": "Point", "coordinates": [ -88.977626, 19.785232 ] } },
{ "type": "Feature", "properties": { "NO": 148, "ENTIDAD": "QUINTANA ROO", "MUNICIPIO": "JOSE MARIA MORELOS", "PUEBLO INDIGENA O AFROMEXICANO": "MAYA", "LOCALIDAD": "SAN ANTONIO TUK ", "CLAVE LOC": 230060153, "TIPO DE ASENTAMIENTO": "COMUNIDAD INDIGENA", "NOMBRE": "SAN ANTONIO TUK", "MONTO ASIGNADO (PESOS)": 232571, "LATITUD": 19.782676, "LONGITUD": -88.547557 }, "geometry": { "type": "Point", "coordinates": [ -88.547557, 19.782676 ] } },
{ "type": "Feature", "properties": { "NO": 149, "ENTIDAD": "QUINTANA ROO", "MUNICIPIO": "JOSE MARIA MORELOS", "PUEBLO INDIGENA O AFROMEXICANO": "MAYA", "LOCALIDAD": "SAN CARLOS ", "CLAVE LOC": 230060039, "TIPO DE ASENTAMIENTO": "COMUNIDAD INDIGENA", "NOMBRE": "SAN CARLOS", "MONTO ASIGNADO (PESOS)": 268052, "LATITUD": 19.633742, "LONGITUD": -88.938934 }, "geometry": { "type": "Point", "coordinates": [ -88.938934, 19.633742 ] } },
{ "type": "Feature", "properties": { "NO": 150, "ENTIDAD": "QUINTANA ROO", "MUNICIPIO": "JOSE MARIA MORELOS", "PUEBLO INDIGENA O AFROMEXICANO": "MAYA", "LOCALIDAD": "SAN DIEGO ", "CLAVE LOC": 230060040, "TIPO DE ASENTAMIENTO": "COMUNIDAD INDIGENA", "NOMBRE": "SAN DIEGO", "MONTO ASIGNADO (PESOS)": 635947, "LATITUD": 19.844743, "LONGITUD": -88.729737 }, "geometry": { "type": "Point", "coordinates": [ -88.729737, 19.844743 ] } },
{ "type": "Feature", "properties": { "NO": 151, "ENTIDAD": "QUINTANA ROO", "MUNICIPIO": "JOSE MARIA MORELOS", "PUEBLO INDIGENA O AFROMEXICANO": "MAYA", "LOCALIDAD": "SAN FELIPE ORIENTE", "CLAVE LOC": 230060170, "TIPO DE ASENTAMIENTO": "COMUNIDAD INDIGENA", "NOMBRE": "SAN FELIPE ORIENTE", "MONTO ASIGNADO (PESOS)": 272181, "LATITUD": 19.975995, "LONGITUD": -88.627036 }, "geometry": { "type": "Point", "coordinates": [ -88.627036, 19.975995 ] } },
{ "type": "Feature", "properties": { "NO": 152, "ENTIDAD": "QUINTANA ROO", "MUNICIPIO": "JOSE MARIA MORELOS", "PUEBLO INDIGENA O AFROMEXICANO": "MAYA", "LOCALIDAD": "SAN FELIPE PRIMERO", "CLAVE LOC": 230060167, "TIPO DE ASENTAMIENTO": "COMUNIDAD INDIGENA", "NOMBRE": "SAN FELIPE PRIMERO", "MONTO ASIGNADO (PESOS)": 731334, "LATITUD": 19.813202, "LONGITUD": -88.832509 }, "geometry": { "type": "Point", "coordinates": [ -88.832509, 19.813202 ] } },
{ "type": "Feature", "properties": { "NO": 153, "ENTIDAD": "QUINTANA ROO", "MUNICIPIO": "JOSE MARIA MORELOS", "PUEBLO INDIGENA O AFROMEXICANO": "MAYA", "LOCALIDAD": "SAN FELIPE SEGUNDO ", "CLAVE LOC": 230060168, "TIPO DE ASENTAMIENTO": "LOCALIDAD CON POBLACION\nINDIGENA", "NOMBRE": "SAN FELIPE SEGUNDO", "MONTO ASIGNADO (PESOS)": 305324, "LATITUD": 19.828353, "LONGITUD": -88.891834 }, "geometry": { "type": "Point", "coordinates": [ -88.891834, 19.828353 ] } },
{ "type": "Feature", "properties": { "NO": 154, "ENTIDAD": "QUINTANA ROO", "MUNICIPIO": "JOSE MARIA MORELOS", "PUEBLO INDIGENA O AFROMEXICANO": "MAYA", "LOCALIDAD": "SAN ISIDRO PONIENTE ", "CLAVE LOC": 230060308, "TIPO DE ASENTAMIENTO": "COMUNIDAD INDIGENA", "NOMBRE": "SAN ISIDRO PONIENTE", "MONTO ASIGNADO (PESOS)": 229108, "LATITUD": 19.330556, "LONGITUD": -88.88814 }, "geometry": { "type": "Point", "coordinates": [ -88.88814, 19.330556 ] } },
{ "type": "Feature", "properties": { "NO": 155, "ENTIDAD": "QUINTANA ROO", "MUNICIPIO": "JOSE MARIA MORELOS", "PUEBLO INDIGENA O AFROMEXICANO": "MAYA", "LOCALIDAD": "SAN JUAN ORIENTE", "CLAVE LOC": 230060378, "TIPO DE ASENTAMIENTO": "COMUNIDAD INDIGENA", "NOMBRE": "SAN JUAN ORIENTE", "MONTO ASIGNADO (PESOS)": 215595, "LATITUD": 20.018188, "LONGITUD": -88.609726 }, "geometry": { "type": "Point", "coordinates": [ -88.609726, 20.018188 ] } },
{ "type": "Feature", "properties": { "NO": 156, "ENTIDAD": "QUINTANA ROO", "MUNICIPIO": "JOSE MARIA MORELOS", "PUEBLO INDIGENA O AFROMEXICANO": "MAYA", "LOCALIDAD": "SANTA GERTRUDIS ", "CLAVE LOC": 230060217, "TIPO DE ASENTAMIENTO": "COMUNIDAD INDIGENA", "NOMBRE": "SANTA GERTRUDIS", "MONTO ASIGNADO (PESOS)": 844506, "LATITUD": 19.799248, "LONGITUD": -88.773976 }, "geometry": { "type": "Point", "coordinates": [ -88.773976, 19.799248 ] } },
{ "type": "Feature", "properties": { "NO": 157, "ENTIDAD": "QUINTANA ROO", "MUNICIPIO": "JOSE MARIA MORELOS", "PUEBLO INDIGENA O AFROMEXICANO": "MAYA", "LOCALIDAD": "SANTO DOMINGO ", "CLAVE LOC": 230060235, "TIPO DE ASENTAMIENTO": "COMUNIDAD INDIGENA", "NOMBRE": "SANTO DOMINGO", "MONTO ASIGNADO (PESOS)": 95946, "LATITUD": 19.792254, "LONGITUD": -88.710929 }, "geometry": { "type": "Point", "coordinates": [ -88.710929, 19.792254 ] } },
{ "type": "Feature", "properties": { "NO": 158, "ENTIDAD": "QUINTANA ROO", "MUNICIPIO": "JOSE MARIA MORELOS", "PUEBLO INDIGENA O AFROMEXICANO": "MAYA", "LOCALIDAD": "TABASCO", "CLAVE LOC": 230060241, "TIPO DE ASENTAMIENTO": "COMUNIDAD INDIGENA", "NOMBRE": "TABASCO", "MONTO ASIGNADO (PESOS)": 328767, "LATITUD": 19.977078, "LONGITUD": -88.684967 }, "geometry": { "type": "Point", "coordinates": [ -88.684967, 19.977078 ] } },
{ "type": "Feature", "properties": { "NO": 159, "ENTIDAD": "QUINTANA ROO", "MUNICIPIO": "JOSE MARIA MORELOS", "PUEBLO INDIGENA O AFROMEXICANO": "MAYA", "LOCALIDAD": "VENUSTIANO CARRANZA ", "CLAVE LOC": 230060331, "TIPO DE ASENTAMIENTO": "COMUNIDAD INDIGENA", "NOMBRE": "VENUSTIANO CARRANZA", "MONTO ASIGNADO (PESOS)": 290773, "LATITUD": 19.274208, "LONGITUD": -88.755683 }, "geometry": { "type": "Point", "coordinates": [ -88.755683, 19.274208 ] } },
{ "type": "Feature", "properties": { "NO": 160, "ENTIDAD": "QUINTANA ROO", "MUNICIPIO": "JOSE MARIA MORELOS", "PUEBLO INDIGENA O AFROMEXICANO": "MAYA", "LOCALIDAD": "X-CABIL ", "CLAVE LOC": 230060272, "TIPO DE ASENTAMIENTO": "COMUNIDAD INDIGENA", "NOMBRE": "X-CABIL", "MONTO ASIGNADO (PESOS)": 1061149, "LATITUD": 20.165709, "LONGITUD": -88.464193 }, "geometry": { "type": "Point", "coordinates": [ -88.464193, 20.165709 ] } },
{ "type": "Feature", "properties": { "NO": 161, "ENTIDAD": "QUINTANA ROO", "MUNICIPIO": "JOSE MARIA MORELOS", "PUEBLO INDIGENA O AFROMEXICANO": "MAYA", "LOCALIDAD": "XNOH CRUZ ", "CLAVE LOC": 230060412, "TIPO DE ASENTAMIENTO": "COMUNIDAD INDIGENA", "NOMBRE": "X-NOH CRUZ", "MONTO ASIGNADO (PESOS)": 260864, "LATITUD": 19.607232, "LONGITUD": -89.166019 }, "geometry": { "type": "Point", "coordinates": [ -89.166019, 19.607232 ] } },
{ "type": "Feature", "properties": { "NO": 162, "ENTIDAD": "QUINTANA ROO", "MUNICIPIO": "JOSE MARIA MORELOS", "PUEBLO INDIGENA O AFROMEXICANO": "MAYA", "LOCALIDAD": "X-QUEROL ", "CLAVE LOC": 230060070, "TIPO DE ASENTAMIENTO": "COMUNIDAD INDIGENA", "NOMBRE": "X-QUEROL", "MONTO ASIGNADO (PESOS)": 150117, "LATITUD": 20.132742, "LONGITUD": -88.617427 }, "geometry": { "type": "Point", "coordinates": [ -88.617427, 20.132742 ] } },
{ "type": "Feature", "properties": { "NO": 163, "ENTIDAD": "QUINTANA ROO", "MUNICIPIO": "JOSE MARIA MORELOS", "PUEBLO INDIGENA O AFROMEXICANO": "MAYA", "LOCALIDAD": "ZAFARRANCHO ", "CLAVE LOC": 230060071, "TIPO DE ASENTAMIENTO": "COMUNIDAD INDIGENA", "NOMBRE": "ZAFARRANCHO", "MONTO ASIGNADO (PESOS)": 539402, "LATITUD": 19.514076, "LONGITUD": -88.889329 }, "geometry": { "type": "Point", "coordinates": [ -88.889329, 19.514076 ] } },
{ "type": "Feature", "properties": { "NO": 164, "ENTIDAD": "QUINTANA ROO", "MUNICIPIO": "LAZARO CARDENAS", "PUEBLO INDIGENA O AFROMEXICANO": "MAYA", "LOCALIDAD": "AGUA AZUL", "CLAVE LOC": 230070002, "TIPO DE ASENTAMIENTO": "COMUNIDAD INDIGENA", "NOMBRE": "AGUA AZUL", "MONTO ASIGNADO (PESOS)": 488015, "LATITUD": 20.857775, "LONGITUD": -87.325469 }, "geometry": { "type": "Point", "coordinates": [ -87.325469, 20.857775 ] } },
{ "type": "Feature", "properties": { "NO": 165, "ENTIDAD": "QUINTANA ROO", "MUNICIPIO": "LAZARO CARDENAS", "PUEBLO INDIGENA O AFROMEXICANO": "MAYA", "LOCALIDAD": "CEDRALITO SEGUNDO ", "CLAVE LOC": 230070006, "TIPO DE ASENTAMIENTO": "COMUNIDAD INDIGENA", "NOMBRE": "CEDRALITO SEGUNDO", "MONTO ASIGNADO (PESOS)": 121016, "LATITUD": 20.900651, "LONGITUD": -87.549898 }, "geometry": { "type": "Point", "coordinates": [ -87.549898, 20.900651 ] } },
{ "type": "Feature", "properties": { "NO": 166, "ENTIDAD": "QUINTANA ROO", "MUNICIPIO": "LAZARO CARDENAS", "PUEBLO INDIGENA O AFROMEXICANO": "MAYA", "LOCALIDAD": "CHIQUILA ", "CLAVE LOC": 230070008, "TIPO DE ASENTAMIENTO": "COMUNIDAD INDIGENA", "NOMBRE": "CHIQUILÁ", "MONTO ASIGNADO (PESOS)": 1952779, "LATITUD": 21.432598, "LONGITUD": -87.335714 }, "geometry": { "type": "Point", "coordinates": [ -87.335714, 21.432598 ] } },
{ "type": "Feature", "properties": { "NO": 167, "ENTIDAD": "QUINTANA ROO", "MUNICIPIO": "LAZARO CARDENAS", "PUEBLO INDIGENA O AFROMEXICANO": "MAYA", "LOCALIDAD": "CONSTITUYENTES DEL SETENTA Y CUATRO", "CLAVE LOC": 230070389, "TIPO DE ASENTAMIENTO": "COMUNIDAD INDIGENA", "NOMBRE": "CONSTITUYENTES DEL SETENTA Y CUATRO", "MONTO ASIGNADO (PESOS)": 200214, "LATITUD": 20.68715, "LONGITUD": -87.435189 }, "geometry": { "type": "Point", "coordinates": [ -87.435189, 20.68715 ] } },
{ "type": "Feature", "properties": { "NO": 168, "ENTIDAD": "QUINTANA ROO", "MUNICIPIO": "LAZARO CARDENAS", "PUEBLO INDIGENA O AFROMEXICANO": "MAYA", "LOCALIDAD": "CRISTOBAL COLON ", "CLAVE LOC": 230070007, "TIPO DE ASENTAMIENTO": "COMUNIDAD INDIGENA", "NOMBRE": "CRISTÓBAL COLÓN", "MONTO ASIGNADO (PESOS)": 377269, "LATITUD": 20.935267, "LONGITUD": -87.346801 }, "geometry": { "type": "Point", "coordinates": [ -87.346801, 20.935267 ] } },
{ "type": "Feature", "properties": { "NO": 169, "ENTIDAD": "QUINTANA ROO", "MUNICIPIO": "LAZARO CARDENAS", "PUEBLO INDIGENA O AFROMEXICANO": "MAYA", "LOCALIDAD": "DELIRIOS ", "CLAVE LOC": 230070009, "TIPO DE ASENTAMIENTO": "COMUNIDAD INDIGENA", "NOMBRE": "DELIRIOS", "MONTO ASIGNADO (PESOS)": 142842, "LATITUD": 20.845832, "LONGITUD": -87.192078 }, "geometry": { "type": "Point", "coordinates": [ -87.192078, 20.845832 ] } },
{ "type": "Feature", "properties": { "NO": 170, "ENTIDAD": "QUINTANA ROO", "MUNICIPIO": "LAZARO CARDENAS", "PUEBLO INDIGENA O AFROMEXICANO": "MAYA", "LOCALIDAD": "EL CEDRAL", "CLAVE LOC": 230070005, "TIPO DE ASENTAMIENTO": "COMUNIDAD INDIGENA", "NOMBRE": "EL CEDRAL", "MONTO ASIGNADO (PESOS)": 779836, "LATITUD": 20.950062, "LONGITUD": -87.551044 }, "geometry": { "type": "Point", "coordinates": [ -87.551044, 20.950062 ] } },
{ "type": "Feature", "properties": { "NO": 171, "ENTIDAD": "QUINTANA ROO", "MUNICIPIO": "LAZARO CARDENAS", "PUEBLO INDIGENA O AFROMEXICANO": "MAYA", "LOCALIDAD": "EL IDEAL", "CLAVE LOC": 230070013, "TIPO DE ASENTAMIENTO": "COMUNIDAD INDIGENA", "NOMBRE": "EL IDEAL", "MONTO ASIGNADO (PESOS)": 819446, "LATITUD": 20.882505, "LONGITUD": -87.54603 }, "geometry": { "type": "Point", "coordinates": [ -87.54603, 20.882505 ] } },
{ "type": "Feature", "properties": { "NO": 172, "ENTIDAD": "QUINTANA ROO", "MUNICIPIO": "LAZARO CARDENAS", "PUEBLO INDIGENA O AFROMEXICANO": "MAYA", "LOCALIDAD": "EL NARANJAL ", "CLAVE LOC": 230070015, "TIPO DE ASENTAMIENTO": "COMUNIDAD INDIGENA", "NOMBRE": "EL NARANJAL", "MONTO ASIGNADO (PESOS)": 175177, "LATITUD": 20.804695, "LONGITUD": -87.476797 }, "geometry": { "type": "Point", "coordinates": [ -87.476797, 20.804695 ] } },
{ "type": "Feature", "properties": { "NO": 173, "ENTIDAD": "QUINTANA ROO", "MUNICIPIO": "LAZARO CARDENAS", "PUEBLO INDIGENA O AFROMEXICANO": "MAYA", "LOCALIDAD": "EL POCITO", "CLAVE LOC": 230070021, "TIPO DE ASENTAMIENTO": "COMUNIDAD INDIGENA", "NOMBRE": "EL POCITO", "MONTO ASIGNADO (PESOS)": 198619, "LATITUD": 20.889977, "LONGITUD": -87.483002 }, "geometry": { "type": "Point", "coordinates": [ -87.483002, 20.889977 ] } },
{ "type": "Feature", "properties": { "NO": 174, "ENTIDAD": "QUINTANA ROO", "MUNICIPIO": "LAZARO CARDENAS", "PUEBLO INDIGENA O AFROMEXICANO": "MAYA", "LOCALIDAD": "EL TINTAL ", "CLAVE LOC": 230070039, "TIPO DE ASENTAMIENTO": "COMUNIDAD INDIGENA", "NOMBRE": "EL TINTAL", "MONTO ASIGNADO (PESOS)": 905133, "LATITUD": 20.893139, "LONGITUD": -87.465443 }, "geometry": { "type": "Point", "coordinates": [ -87.465443, 20.893139 ] } },
{ "type": "Feature", "properties": { "NO": 175, "ENTIDAD": "QUINTANA ROO", "MUNICIPIO": "LAZARO CARDENAS", "PUEBLO INDIGENA O AFROMEXICANO": "MAYA", "LOCALIDAD": "ESPERANZA ", "CLAVE LOC": 230070010, "TIPO DE ASENTAMIENTO": "COMUNIDAD INDIGENA", "NOMBRE": "ESPERANZA", "MONTO ASIGNADO (PESOS)": 478315, "LATITUD": 20.971901, "LONGITUD": -87.395713 }, "geometry": { "type": "Point", "coordinates": [ -87.395713, 20.971901 ] } },
{ "type": "Feature", "properties": { "NO": 176, "ENTIDAD": "QUINTANA ROO", "MUNICIPIO": "LAZARO CARDENAS", "PUEBLO INDIGENA O AFROMEXICANO": "MAYA", "LOCALIDAD": "GUADALUPE VICTORIA ", "CLAVE LOC": 230070042, "TIPO DE ASENTAMIENTO": "COMUNIDAD INDIGENA", "NOMBRE": "GUADALUPE VICTORIA", "MONTO ASIGNADO (PESOS)": 146884, "LATITUD": 20.790682, "LONGITUD": -87.280557 }, "geometry": { "type": "Point", "coordinates": [ -87.280557, 20.790682 ] } },
{ "type": "Feature", "properties": { "NO": 177, "ENTIDAD": "QUINTANA ROO", "MUNICIPIO": "LAZARO CARDENAS", "PUEBLO INDIGENA O AFROMEXICANO": "MAYA", "LOCALIDAD": "HEROE DE NACOZARI ", "CLAVE LOC": 230070011, "TIPO DE ASENTAMIENTO": "COMUNIDAD INDIGENA", "NOMBRE": "HÉROES DE NACOZARI", "MONTO ASIGNADO (PESOS)": 202661, "LATITUD": 20.772437, "LONGITUD": -87.252648 }, "geometry": { "type": "Point", "coordinates": [ -87.252648, 20.772437 ] } },
{ "type": "Feature", "properties": { "NO": 178, "ENTIDAD": "QUINTANA ROO", "MUNICIPIO": "LAZARO CARDENAS", "PUEBLO INDIGENA O AFROMEXICANO": "MAYA", "LOCALIDAD": "IGNACIO ZARAGOZA ", "CLAVE LOC": 230070043, "TIPO DE ASENTAMIENTO": "COMUNIDAD INDIGENA", "NOMBRE": "IGNACIO ZARAGOZA", "MONTO ASIGNADO (PESOS)": 2015832, "LATITUD": 20.882027, "LONGITUD": -87.523489 }, "geometry": { "type": "Point", "coordinates": [ -87.523489, 20.882027 ] } },
{ "type": "Feature", "properties": { "NO": 179, "ENTIDAD": "QUINTANA ROO", "MUNICIPIO": "LAZARO CARDENAS", "PUEBLO INDIGENA O AFROMEXICANO": "MAYA", "LOCALIDAD": "JUAREZ", "CLAVE LOC": 230070014, "TIPO DE ASENTAMIENTO": "COMUNIDAD INDIGENA", "NOMBRE": "BENITO JUÁREZ", "MONTO ASIGNADO (PESOS)": 242271, "LATITUD": 20.823133, "LONGITUD": -87.330084 }, "geometry": { "type": "Point", "coordinates": [ -87.330084, 20.823133 ] } },
{ "type": "Feature", "properties": { "NO": 180, "ENTIDAD": "QUINTANA ROO", "MUNICIPIO": "LAZARO CARDENAS", "PUEBLO INDIGENA O AFROMEXICANO": "MAYA", "LOCALIDAD": "KANTUNILKIN ", "CLAVE LOC": 230070001, "TIPO DE ASENTAMIENTO": "COMUNIDAD INDIGENA", "NOMBRE": "KANTUNILKÍN", "MONTO ASIGNADO (PESOS)": 84639, "LATITUD": 21.101399, "LONGITUD": -87.487222 }, "geometry": { "type": "Point", "coordinates": [ -87.487222, 21.101399 ] } },
{ "type": "Feature", "properties": { "NO": 181, "ENTIDAD": "QUINTANA ROO", "MUNICIPIO": "LAZARO CARDENAS", "PUEBLO INDIGENA O AFROMEXICANO": "MAYA", "LOCALIDAD": "LAGUNA COSTA RICA ", "CLAVE LOC": 230070298, "TIPO DE ASENTAMIENTO": "COMUNIDAD INDIGENA", "NOMBRE": "LAGUNA COSTA RICA", "MONTO ASIGNADO (PESOS)": 141171, "LATITUD": 20.716176, "LONGITUD": -87.347129 }, "geometry": { "type": "Point", "coordinates": [ -87.347129, 20.716176 ] } },
{ "type": "Feature", "properties": { "NO": 182, "ENTIDAD": "QUINTANA ROO", "MUNICIPIO": "LAZARO CARDENAS", "PUEBLO INDIGENA O AFROMEXICANO": "MAYA", "LOCALIDAD": "NUEVO DURANGO", "CLAVE LOC": 230070017, "TIPO DE ASENTAMIENTO": "COMUNIDAD INDIGENA", "NOMBRE": "NUEVO DURANGO", "MONTO ASIGNADO (PESOS)": 281073, "LATITUD": 20.721502, "LONGITUD": -87.583819 }, "geometry": { "type": "Point", "coordinates": [ -87.583819, 20.721502 ] } },
{ "type": "Feature", "properties": { "NO": 183, "ENTIDAD": "QUINTANA ROO", "MUNICIPIO": "LAZARO CARDENAS", "PUEBLO INDIGENA O AFROMEXICANO": "MAYA", "LOCALIDAD": "NUEVO VALLADOLID ", "CLAVE LOC": 230070041, "TIPO DE ASENTAMIENTO": "COMUNIDAD INDIGENA", "NOMBRE": "VALLADOLID NUEVO", "MONTO ASIGNADO (PESOS)": 1323868, "LATITUD": 20.943475, "LONGITUD": -87.325425 }, "geometry": { "type": "Point", "coordinates": [ -87.325425, 20.943475 ] } },
{ "type": "Feature", "properties": { "NO": 184, "ENTIDAD": "QUINTANA ROO", "MUNICIPIO": "LAZARO CARDENAS", "PUEBLO INDIGENA O AFROMEXICANO": "MAYA", "LOCALIDAD": "NUEVO XCAN ", "CLAVE LOC": 230070018, "TIPO DE ASENTAMIENTO": "COMUNIDAD INDIGENA", "NOMBRE": "NUEVO X'CAN", "MONTO ASIGNADO (PESOS)": 964144, "LATITUD": 20.86993, "LONGITUD": -87.601741 }, "geometry": { "type": "Point", "coordinates": [ -87.601741, 20.86993 ] } },
{ "type": "Feature", "properties": { "NO": 185, "ENTIDAD": "QUINTANA ROO", "MUNICIPIO": "LAZARO CARDENAS", "PUEBLO INDIGENA O AFROMEXICANO": "MAYA", "LOCALIDAD": "PACCHEN ", "CLAVE LOC": 230070139, "TIPO DE ASENTAMIENTO": "COMUNIDAD INDIGENA", "NOMBRE": "PACCHEN", "MONTO ASIGNADO (PESOS)": 213170, "LATITUD": 20.635311, "LONGITUD": -87.5883 }, "geometry": { "type": "Point", "coordinates": [ -87.5883, 20.635311 ] } },
{ "type": "Feature", "properties": { "NO": 186, "ENTIDAD": "QUINTANA ROO", "MUNICIPIO": "LAZARO CARDENAS", "PUEBLO INDIGENA O AFROMEXICANO": "MAYA", "LOCALIDAD": "SAN ANGEL ", "CLAVE LOC": 230070023, "TIPO DE ASENTAMIENTO": "COMUNIDAD INDIGENA", "NOMBRE": "SAN ÁNGEL", "MONTO ASIGNADO (PESOS)": 1112076, "LATITUD": 21.235454, "LONGITUD": -87.431482 }, "geometry": { "type": "Point", "coordinates": [ -87.431482, 21.235454 ] } },
{ "type": "Feature", "properties": { "NO": 187, "ENTIDAD": "QUINTANA ROO", "MUNICIPIO": "LAZARO CARDENAS", "PUEBLO INDIGENA O AFROMEXICANO": "MAYA", "LOCALIDAD": "SAN ANTONIO", "CLAVE LOC": 230070159, "TIPO DE ASENTAMIENTO": "COMUNIDAD INDIGENA", "NOMBRE": "SAN ANTONIO", "MONTO ASIGNADO (PESOS)": 130716, "LATITUD": 20.817347, "LONGITUD": -87.531109 }, "geometry": { "type": "Point", "coordinates": [ -87.531109, 20.817347 ] } },
{ "type": "Feature", "properties": { "NO": 188, "ENTIDAD": "QUINTANA ROO", "MUNICIPIO": "LAZARO CARDENAS", "PUEBLO INDIGENA O AFROMEXICANO": "MAYA", "LOCALIDAD": "SAN COSME ", "CLAVE LOC": 230070025, "TIPO DE ASENTAMIENTO": "COMUNIDAD INDIGENA", "NOMBRE": "SAN COSME", "MONTO ASIGNADO (PESOS)": 419304, "LATITUD": 20.807075, "LONGITUD": -87.504588 }, "geometry": { "type": "Point", "coordinates": [ -87.504588, 20.807075 ] } },
{ "type": "Feature", "properties": { "NO": 189, "ENTIDAD": "QUINTANA ROO", "MUNICIPIO": "LAZARO CARDENAS", "PUEBLO INDIGENA O AFROMEXICANO": "MAYA", "LOCALIDAD": "SAN FRANCISCO", "CLAVE LOC": 230070028, "TIPO DE ASENTAMIENTO": "COMUNIDAD INDIGENA", "NOMBRE": "SAN FRANCISCO", "MONTO ASIGNADO (PESOS)": 821871, "LATITUD": 20.82101, "LONGITUD": -87.503609 }, "geometry": { "type": "Point", "coordinates": [ -87.503609, 20.82101 ] } },
{ "type": "Feature", "properties": { "NO": 190, "ENTIDAD": "QUINTANA ROO", "MUNICIPIO": "LAZARO CARDENAS", "PUEBLO INDIGENA O AFROMEXICANO": "MAYA", "LOCALIDAD": "SAN JUAN DE DIOS ", "CLAVE LOC": 230070030, "TIPO DE ASENTAMIENTO": "COMUNIDAD INDIGENA", "NOMBRE": "SAN JUAN DE DIOS", "MONTO ASIGNADO (PESOS)": 378886, "LATITUD": 20.769175, "LONGITUD": -87.547928 }, "geometry": { "type": "Point", "coordinates": [ -87.547928, 20.769175 ] } },
{ "type": "Feature", "properties": { "NO": 191, "ENTIDAD": "QUINTANA ROO", "MUNICIPIO": "LAZARO CARDENAS", "PUEBLO INDIGENA O AFROMEXICANO": "MAYA", "LOCALIDAD": "SAN LORENZO ", "CLAVE LOC": 230070031, "TIPO DE ASENTAMIENTO": "COMUNIDAD INDIGENA", "NOMBRE": "SAN LORENZO", "MONTO ASIGNADO (PESOS)": 250355, "LATITUD": 20.848941, "LONGITUD": -87.257051 }, "geometry": { "type": "Point", "coordinates": [ -87.257051, 20.848941 ] } },
{ "type": "Feature", "properties": { "NO": 192, "ENTIDAD": "QUINTANA ROO", "MUNICIPIO": "LAZARO CARDENAS", "PUEBLO INDIGENA O AFROMEXICANO": "MAYA", "LOCALIDAD": "SAN LUIS ", "CLAVE LOC": 230070032, "TIPO DE ASENTAMIENTO": "COMUNIDAD INDIGENA", "NOMBRE": "SAN LUIS", "MONTO ASIGNADO (PESOS)": 156246, "LATITUD": 20.851999, "LONGITUD": -87.445734 }, "geometry": { "type": "Point", "coordinates": [ -87.445734, 20.851999 ] } },
{ "type": "Feature", "properties": { "NO": 193, "ENTIDAD": "QUINTANA ROO", "MUNICIPIO": "LAZARO CARDENAS", "PUEBLO INDIGENA O AFROMEXICANO": "MAYA", "LOCALIDAD": "SAN MARTINIANO ", "CLAVE LOC": 230070033, "TIPO DE ASENTAMIENTO": "COMUNIDAD INDIGENA", "NOMBRE": "SAN MARTÍNIANO", "MONTO ASIGNADO (PESOS)": 262480, "LATITUD": 20.828828, "LONGITUD": -87.282521 }, "geometry": { "type": "Point", "coordinates": [ -87.282521, 20.828828 ] } },
{ "type": "Feature", "properties": { "NO": 194, "ENTIDAD": "QUINTANA ROO", "MUNICIPIO": "LAZARO CARDENAS", "PUEBLO INDIGENA O AFROMEXICANO": "MAYA", "LOCALIDAD": "SAN ROMAN ", "CLAVE LOC": 230070035, "TIPO DE ASENTAMIENTO": "COMUNIDAD INDIGENA", "NOMBRE": "SAN ROMÁN", "MONTO ASIGNADO (PESOS)": 199428, "LATITUD": 20.860421, "LONGITUD": -87.464613 }, "geometry": { "type": "Point", "coordinates": [ -87.464613, 20.860421 ] } },
{ "type": "Feature", "properties": { "NO": 195, "ENTIDAD": "QUINTANA ROO", "MUNICIPIO": "LAZARO CARDENAS", "PUEBLO INDIGENA O AFROMEXICANO": "MAYA", "LOCALIDAD": "SANTO DOMINGO ", "CLAVE LOC": 230070194, "TIPO DE ASENTAMIENTO": "COMUNIDAD INDIGENA", "NOMBRE": "SANTO DOMINGO", "MONTO ASIGNADO (PESOS)": 387778, "LATITUD": 20.920271, "LONGITUD": -87.384266 }, "geometry": { "type": "Point", "coordinates": [ -87.384266, 20.920271 ] } },
{ "type": "Feature", "properties": { "NO": 196, "ENTIDAD": "QUINTANA ROO", "MUNICIPIO": "LAZARO CARDENAS", "PUEBLO INDIGENA O AFROMEXICANO": "MAYA", "LOCALIDAD": "SOLFERINO ", "CLAVE LOC": 230070038, "TIPO DE ASENTAMIENTO": "COMUNIDAD INDIGENA", "NOMBRE": "SOLFERINO", "MONTO ASIGNADO (PESOS)": 704658, "LATITUD": 21.351985, "LONGITUD": -87.42917 }, "geometry": { "type": "Point", "coordinates": [ -87.42917, 21.351985 ] } },
{ "type": "Feature", "properties": { "NO": 197, "ENTIDAD": "QUINTANA ROO", "MUNICIPIO": "LAZARO CARDENAS", "PUEBLO INDIGENA O AFROMEXICANO": "MAYA", "LOCALIDAD": "TRES REYES ", "CLAVE LOC": 230070040, "TIPO DE ASENTAMIENTO": "COMUNIDAD INDIGENA", "NOMBRE": "TRES REYES", "MONTO ASIGNADO (PESOS)": 461339, "LATITUD": 20.693664, "LONGITUD": -87.594593 }, "geometry": { "type": "Point", "coordinates": [ -87.594593, 20.693664 ] } },
{ "type": "Feature", "properties": { "NO": 198, "ENTIDAD": "QUINTANA ROO", "MUNICIPIO": "LAZARO CARDENAS", "PUEBLO INDIGENA O AFROMEXICANO": "MAYA", "LOCALIDAD": "VICENTE GUERRERO ", "CLAVE LOC": 230070179, "TIPO DE ASENTAMIENTO": "COMUNIDAD INDIGENA", "NOMBRE": "VICENTE GUERRERO", "MONTO ASIGNADO (PESOS)": 616546, "LATITUD": 20.983779, "LONGITUD": -87.493735 }, "geometry": { "type": "Point", "coordinates": [ -87.493735, 20.983779 ] } },
{ "type": "Feature", "properties": { "NO": 199, "ENTIDAD": "QUINTANA ROO", "MUNICIPIO": "LAZARO CARDENAS", "PUEBLO INDIGENA O AFROMEXICANO": "MAYA", "LOCALIDAD": "VILLA GUADALUPE ", "CLAVE LOC": 230070393, "TIPO DE ASENTAMIENTO": "COMUNIDAD INDIGENA", "NOMBRE": "VILLA GUADALUPE", "MONTO ASIGNADO (PESOS)": 105996, "LATITUD": 20.724977, "LONGITUD": -87.617545 }, "geometry": { "type": "Point", "coordinates": [ -87.617545, 20.724977 ] } },
{ "type": "Feature", "properties": { "NO": 200, "ENTIDAD": "QUINTANA ROO", "MUNICIPIO": "OTHON P. BLANCO", "PUEBLO INDIGENA O AFROMEXICANO": "MAYA", "LOCALIDAD": "PALMAR ", "CLAVE LOC": 230040067, "TIPO DE ASENTAMIENTO": "COMUNIDAD INDIGENA", "NOMBRE": "EL PALMAR", "MONTO ASIGNADO (PESOS)": 975462, "LATITUD": 18.446758, "LONGITUD": -88.529273 }, "geometry": { "type": "Point", "coordinates": [ -88.529273, 18.446758 ] } },
{ "type": "Feature", "properties": { "NO": 201, "ENTIDAD": "QUINTANA ROO", "MUNICIPIO": "OTHON P. BLANCO", "PUEBLO INDIGENA O AFROMEXICANO": "MAYA", "LOCALIDAD": "RAMONAL ", "CLAVE LOC": 230040073, "TIPO DE ASENTAMIENTO": "COMUNIDAD INDIGENA", "NOMBRE": "RAMONAL", "MONTO ASIGNADO (PESOS)": 942318, "LATITUD": 18.419456, "LONGITUD": -88.531017 }, "geometry": { "type": "Point", "coordinates": [ -88.531017, 18.419456 ] } },
{ "type": "Feature", "properties": { "NO": 202, "ENTIDAD": "QUINTANA ROO", "MUNICIPIO": "OTHON P. BLANCO", "PUEBLO INDIGENA O AFROMEXICANO": "MAYA", "LOCALIDAD": "SACXAN ", "CLAVE LOC": 230040110, "TIPO DE ASENTAMIENTO": "COMUNIDAD INDIGENA", "NOMBRE": "SACXAN", "MONTO ASIGNADO (PESOS)": 957677, "LATITUD": 18.465571, "LONGITUD": -88.519955 }, "geometry": { "type": "Point", "coordinates": [ -88.519955, 18.465571 ] } },
{ "type": "Feature", "properties": { "NO": 203, "ENTIDAD": "QUINTANA ROO", "MUNICIPIO": "OTHON P. BLANCO", "PUEBLO INDIGENA O AFROMEXICANO": "MAYA", "LOCALIDAD": "SAN FRANCISCO BOTES ", "CLAVE LOC": 230040032, "TIPO DE ASENTAMIENTO": "COMUNIDAD INDIGENA", "NOMBRE": "SAN FRANCISCO BOTES", "MONTO ASIGNADO (PESOS)": 638372, "LATITUD": 18.115416, "LONGITUD": -88.717118 }, "geometry": { "type": "Point", "coordinates": [ -88.717118, 18.115416 ] } },
{ "type": "Feature", "properties": { "NO": 204, "ENTIDAD": "QUINTANA ROO", "MUNICIPIO": "PUERTO MORELOS", "PUEBLO INDIGENA O AFROMEXICANO": "MAYA", "LOCALIDAD": "CENTRAL VALLARTA ", "CLAVE LOC": 230110033, "TIPO DE ASENTAMIENTO": "COMUNIDAD INDIGENA", "NOMBRE": "CENTRAL VALLARTA", "MONTO ASIGNADO (PESOS)": 130716, "LATITUD": 20.863039, "LONGITUD": -87.048945 }, "geometry": { "type": "Point", "coordinates": [ -87.048945, 20.863039 ] } },
{ "type": "Feature", "properties": { "NO": 205, "ENTIDAD": "QUINTANA ROO", "MUNICIPIO": "SOLIDARIDAD", "PUEBLO INDIGENA O AFROMEXICANO": "MAYA", "LOCALIDAD": "HIDALGO Y CORTEZ ", "CLAVE LOC": 230080711, "TIPO DE ASENTAMIENTO": "COMUNIDAD INDIGENA", "NOMBRE": "CAMPAMENTO HIDALGO", "MONTO ASIGNADO (PESOS)": 217802, "LATITUD": 20.596732, "LONGITUD": -87.669006 }, "geometry": { "type": "Point", "coordinates": [ -87.669006, 20.596732 ] } },
{ "type": "Feature", "properties": { "NO": 206, "ENTIDAD": "QUINTANA ROO", "MUNICIPIO": "SOLIDARIDAD", "PUEBLO INDIGENA O AFROMEXICANO": "MAYA", "LOCALIDAD": "PUNTA LAGUNA", "CLAVE LOC": 230080716, "TIPO DE ASENTAMIENTO": "COMUNIDAD INDIGENA", "NOMBRE": "PUNTA LAGUNA", "MONTO ASIGNADO (PESOS)": 284383, "LATITUD": 20.645677, "LONGITUD": -87.631265 }, "geometry": { "type": "Point", "coordinates": [ -87.631265, 20.645677 ] } },
{ "type": "Feature", "properties": { "NO": 207, "ENTIDAD": "QUINTANA ROO", "MUNICIPIO": "TULUM", "PUEBLO INDIGENA O AFROMEXICANO": "MAYA", "LOCALIDAD": "CHANCHEN PALMAR ", "CLAVE LOC": 230090051, "TIPO DE ASENTAMIENTO": "COMUNIDAD INDIGENA", "NOMBRE": "CHAN CHEN PALMAR", "MONTO ASIGNADO (PESOS)": 834620, "LATITUD": 20.289269, "LONGITUD": -87.97451 }, "geometry": { "type": "Point", "coordinates": [ -87.97451, 20.289269 ] } },
{ "type": "Feature", "properties": { "NO": 208, "ENTIDAD": "QUINTANA ROO", "MUNICIPIO": "TULUM", "PUEBLO INDIGENA O AFROMEXICANO": "MAYA", "LOCALIDAD": "CHANCHEN PRIMERO", "CLAVE LOC": 230090052, "TIPO DE ASENTAMIENTO": "COMUNIDAD INDIGENA", "NOMBRE": "CHAN CHEN PRIMERO", "MONTO ASIGNADO (PESOS)": 956061, "LATITUD": 20.401207, "LONGITUD": -87.968373 }, "geometry": { "type": "Point", "coordinates": [ -87.968373, 20.401207 ] } },
{ "type": "Feature", "properties": { "NO": 209, "ENTIDAD": "QUINTANA ROO", "MUNICIPIO": "TULUM", "PUEBLO INDIGENA O AFROMEXICANO": "MAYA", "LOCALIDAD": "COBA", "CLAVE LOC": 230090057, "TIPO DE ASENTAMIENTO": "COMUNIDAD INDIGENA", "NOMBRE": "COBÁ", "MONTO ASIGNADO (PESOS)": 1489584, "LATITUD": 20.495494, "LONGITUD": -87.734721 }, "geometry": { "type": "Point", "coordinates": [ -87.734721, 20.495494 ] } },
{ "type": "Feature", "properties": { "NO": 210, "ENTIDAD": "QUINTANA ROO", "MUNICIPIO": "TULUM", "PUEBLO INDIGENA O AFROMEXICANO": "MAYA", "LOCALIDAD": "FRANCISCO UH MAY ", "CLAVE LOC": 230090092, "TIPO DE ASENTAMIENTO": "COMUNIDAD INDIGENA", "NOMBRE": "FRANCISCO UH MAY", "MONTO ASIGNADO (PESOS)": 1125818, "LATITUD": 20.36439, "LONGITUD": -87.590084 }, "geometry": { "type": "Point", "coordinates": [ -87.590084, 20.36439 ] } },
{ "type": "Feature", "properties": { "NO": 211, "ENTIDAD": "QUINTANA ROO", "MUNICIPIO": "TULUM", "PUEBLO INDIGENA O AFROMEXICANO": "MAYA", "LOCALIDAD": "HONDZONOT ", "CLAVE LOC": 230090100, "TIPO DE ASENTAMIENTO": "COMUNIDAD INDIGENA", "NOMBRE": "HONDZONOT", "MONTO ASIGNADO (PESOS)": 575833, "LATITUD": 20.367667, "LONGITUD": -87.974463 }, "geometry": { "type": "Point", "coordinates": [ -87.974463, 20.367667 ] } },
{ "type": "Feature", "properties": { "NO": 212, "ENTIDAD": "QUINTANA ROO", "MUNICIPIO": "TULUM", "PUEBLO INDIGENA O AFROMEXICANO": "MAYA", "LOCALIDAD": "MACARIO GOMEZ ", "CLAVE LOC": 230090133, "TIPO DE ASENTAMIENTO": "COMUNIDAD INDIGENA", "NOMBRE": "MACARIO GÓMEZ", "MONTO ASIGNADO (PESOS)": 799237, "LATITUD": 20.350776, "LONGITUD": -87.575954 }, "geometry": { "type": "Point", "coordinates": [ -87.575954, 20.350776 ] } },
{ "type": "Feature", "properties": { "NO": 213, "ENTIDAD": "QUINTANA ROO", "MUNICIPIO": "TULUM", "PUEBLO INDIGENA O AFROMEXICANO": "MAYA", "LOCALIDAD": "MANUEL ANTONIO AY ", "CLAVE LOC": 230090136, "TIPO DE ASENTAMIENTO": "COMUNIDAD INDIGENA", "NOMBRE": "MANUEL ANTONIO AY", "MONTO ASIGNADO (PESOS)": 586636, "LATITUD": 20.429839, "LONGITUD": -87.652645 }, "geometry": { "type": "Point", "coordinates": [ -87.652645, 20.429839 ] } },
{ "type": "Feature", "properties": { "NO": 214, "ENTIDAD": "QUINTANA ROO", "MUNICIPIO": "TULUM", "PUEBLO INDIGENA O AFROMEXICANO": "MAYA", "LOCALIDAD": "SAHCAB MUCUY", "CLAVE LOC": 230090200, "TIPO DE ASENTAMIENTO": "COMUNIDAD INDIGENA", "NOMBRE": "SAHCAB MUCUY", "MONTO ASIGNADO (PESOS)": 566427, "LATITUD": 20.414971, "LONGITUD": -87.974487 }, "geometry": { "type": "Point", "coordinates": [ -87.974487, 20.414971 ] } },
{ "type": "Feature", "properties": { "NO": 215, "ENTIDAD": "QUINTANA ROO", "MUNICIPIO": "TULUM", "PUEBLO INDIGENA O AFROMEXICANO": "MAYA", "LOCALIDAD": "SAN JUAN ", "CLAVE LOC": 230090210, "TIPO DE ASENTAMIENTO": "COMUNIDAD INDIGENA", "NOMBRE": "SAN JUAN DE DIOS", "MONTO ASIGNADO (PESOS)": 707083, "LATITUD": 20.41614, "LONGITUD": -87.725394 }, "geometry": { "type": "Point", "coordinates": [ -87.725394, 20.41614 ] } },
{ "type": "Feature", "properties": { "NO": 216, "ENTIDAD": "QUINTANA ROO", "MUNICIPIO": "TULUM", "PUEBLO INDIGENA O AFROMEXICANO": "MAYA", "LOCALIDAD": "YAXCHE", "CLAVE LOC": 230090267, "TIPO DE ASENTAMIENTO": "COMUNIDAD INDIGENA", "NOMBRE": "YAXCHE", "MONTO ASIGNADO (PESOS)": 381311, "LATITUD": 20.339889, "LONGITUD": -87.947737 }, "geometry": { "type": "Point", "coordinates": [ -87.947737, 20.339889 ] } }
]
}
