{
"type": "FeatureCollection",
"name": "sinaloa_loc_monto",
"crs": { "type": "name", "properties": { "name": "urn:ogc:def:crs:OGC:1.3:CRS84" } },
"features": [
{ "type": "Feature", "properties": { "NO": 1, "ENTIDAD": "SINALOA", "MUNICIPIO": "AHOME", "PUEBLO INDIGENA O AFROMEXICANO": "MAYO", "LOCALIDAD": "AHOME ", "CLAVE LOC": 250010070, "TIPO DE ASENTAMIENTO": "COMUNIDAD INDIGENA", "NOMBRE": "LA FLORIDA", "MONTO ASIGNADO (PESOS)": 2324163, "LATITUD": 25.920549, "LONGITUD": -109.174697 }, "geometry": { "type": "Point", "coordinates": [ -109.174697, 25.920549 ] } },
{ "type": "Feature", "properties": { "NO": 2, "ENTIDAD": "SINALOA", "MUNICIPIO": "AHOME", "PUEBLO INDIGENA O AFROMEXICANO": "MAYO", "LOCALIDAD": "BACOREHUIS ", "CLAVE LOC": 250010081, "TIPO DE ASENTAMIENTO": "COMUNIDAD INDIGENA", "NOMBRE": "BACOREHUIS", "MONTO ASIGNADO (PESOS)": 2009126, "LATITUD": 26.317532, "LONGITUD": -109.085579 }, "geometry": { "type": "Point", "coordinates": [ -109.085579, 26.317532 ] } },
{ "type": "Feature", "properties": { "NO": 3, "ENTIDAD": "SINALOA", "MUNICIPIO": "AHOME", "PUEBLO INDIGENA O AFROMEXICANO": "MAYO", "LOCALIDAD": "CINCO DE MAYO ", "CLAVE LOC": 250010703, "TIPO DE ASENTAMIENTO": "COMUNIDAD INDIGENA", "NOMBRE": "CINCO DE MAYO", "MONTO ASIGNADO (PESOS)": 2061909, "LATITUD": 25.851251, "LONGITUD": -108.960021 }, "geometry": { "type": "Point", "coordinates": [ -108.960021, 25.851251 ] } },
{ "type": "Feature", "properties": { "NO": 4, "ENTIDAD": "SINALOA", "MUNICIPIO": "AHOME", "PUEBLO INDIGENA O AFROMEXICANO": "MAYO", "LOCALIDAD": "EJIDO OHUIRA ", "CLAVE LOC": 250010193, "TIPO DE ASENTAMIENTO": "COMUNIDAD INDIGENA", "NOMBRE": "OHUIRA", "MONTO ASIGNADO (PESOS)": 2713215, "LATITUD": 25.717019, "LONGITUD": -108.979649 }, "geometry": { "type": "Point", "coordinates": [ -108.979649, 25.717019 ] } },
{ "type": "Feature", "properties": { "NO": 5, "ENTIDAD": "SINALOA", "MUNICIPIO": "AHOME", "PUEBLO INDIGENA O AFROMEXICANO": "MAYO", "LOCALIDAD": "EJIDO PORVENIR VALLEJO", "CLAVE LOC": 250010248, "TIPO DE ASENTAMIENTO": "COMUNIDAD INDIGENA", "NOMBRE": "VALLEJO", "MONTO ASIGNADO (PESOS)": 1571798, "LATITUD": 25.882449, "LONGITUD": -109.074979 }, "geometry": { "type": "Point", "coordinates": [ -109.074979, 25.882449 ] } },
{ "type": "Feature", "properties": { "NO": 6, "ENTIDAD": "SINALOA", "MUNICIPIO": "AHOME", "PUEBLO INDIGENA O AFROMEXICANO": "MAYO", "LOCALIDAD": "EL CARRICITO", "CLAVE LOC": 250010112, "TIPO DE ASENTAMIENTO": "COMUNIDAD INDIGENA", "NOMBRE": "EL CARRICITO (CONCENTRACIÓN LÁZARO\nCÁRDENAS)", "MONTO ASIGNADO (PESOS)": 84639, "LATITUD": 25.531158, "LONGITUD": -108.982365 }, "geometry": { "type": "Point", "coordinates": [ -108.982365, 25.531158 ] } },
{ "type": "Feature", "properties": { "NO": 7, "ENTIDAD": "SINALOA", "MUNICIPIO": "AHOME", "PUEBLO INDIGENA O AFROMEXICANO": "MAYO", "LOCALIDAD": "EL COLORADO", "CLAVE LOC": 250010119, "TIPO DE ASENTAMIENTO": "COMUNIDAD INDIGENA", "NOMBRE": "EL COLORADO", "MONTO ASIGNADO (PESOS)": 2111070, "LATITUD": 25.759874, "LONGITUD": -109.315821 }, "geometry": { "type": "Point", "coordinates": [ -109.315821, 25.759874 ] } },
{ "type": "Feature", "properties": { "NO": 8, "ENTIDAD": "SINALOA", "MUNICIPIO": "AHOME", "PUEBLO INDIGENA O AFROMEXICANO": "MAYO", "LOCALIDAD": "LAZARO CARDENAS (MUELLECITO) ", "CLAVE LOC": 250010448, "TIPO DE ASENTAMIENTO": "COMUNIDAD INDIGENA", "NOMBRE": "CAMPO PESQUERO LÁZARO CÁRDENAS (EL\nMUELLECITO)", "MONTO ASIGNADO (PESOS)": 749118, "LATITUD": 25.599657, "LONGITUD": -108.9688 }, "geometry": { "type": "Point", "coordinates": [ -108.9688, 25.599657 ] } },
{ "type": "Feature", "properties": { "NO": 9, "ENTIDAD": "SINALOA", "MUNICIPIO": "AHOME", "PUEBLO INDIGENA O AFROMEXICANO": "MAYO", "LOCALIDAD": "PRIMERO DE MAYO", "CLAVE LOC": 250010205, "TIPO DE ASENTAMIENTO": "COMUNIDAD INDIGENA", "NOMBRE": "PRIMERO DE MAYO", "MONTO ASIGNADO (PESOS)": 652114, "LATITUD": 25.741219, "LONGITUD": -108.932434 }, "geometry": { "type": "Point", "coordinates": [ -108.932434, 25.741219 ] } },
{ "type": "Feature", "properties": { "NO": 10, "ENTIDAD": "SINALOA", "MUNICIPIO": "AHOME", "PUEBLO INDIGENA O AFROMEXICANO": "MAYO", "LOCALIDAD": "SAN ISIDRO ", "CLAVE LOC": 250010090, "TIPO DE ASENTAMIENTO": "COMUNIDAD INDIGENA", "NOMBRE": "SAN ISIDRO", "MONTO ASIGNADO (PESOS)": 12685051, "LATITUD": 25.976155, "LONGITUD": -109.251155 }, "geometry": { "type": "Point", "coordinates": [ -109.251155, 25.976155 ] } },
{ "type": "Feature", "properties": { "NO": 11, "ENTIDAD": "SINALOA", "MUNICIPIO": "AHOME", "PUEBLO INDIGENA O AFROMEXICANO": "MAYO", "LOCALIDAD": "SAN MIGUEL ZAPOTITLAN", "CLAVE LOC": 250010227, "TIPO DE ASENTAMIENTO": "COMUNIDAD INDIGENA", "NOMBRE": "SAN MIGUEL ZAPOTITLÁN", "MONTO ASIGNADO (PESOS)": 16085798, "LATITUD": 25.946789, "LONGITUD": -109.049674 }, "geometry": { "type": "Point", "coordinates": [ -109.049674, 25.946789 ] } },
{ "type": "Feature", "properties": { "NO": 12, "ENTIDAD": "SINALOA", "MUNICIPIO": "ANGOSTURA", "PUEBLO INDIGENA O AFROMEXICANO": "MAYO", "LOCALIDAD": "SAN LUCIANO", "CLAVE LOC": 250020101, "TIPO DE ASENTAMIENTO": "COMUNIDAD INDIGENA", "NOMBRE": "SAN LUCIANO", "MONTO ASIGNADO (PESOS)": 5299944, "LATITUD": 25.327056, "LONGITUD": -108.213757 }, "geometry": { "type": "Point", "coordinates": [ -108.213757, 25.327056 ] } },
{ "type": "Feature", "properties": { "NO": 13, "ENTIDAD": "SINALOA", "MUNICIPIO": "CHOIX", "PUEBLO INDIGENA O AFROMEXICANO": "MAYO", "LOCALIDAD": "BACA", "CLAVE LOC": 250070024, "TIPO DE ASENTAMIENTO": "COMUNIDAD INDIGENA", "NOMBRE": "BACA", "MONTO ASIGNADO (PESOS)": 1886195, "LATITUD": 26.797331, "LONGITUD": -108.450317 }, "geometry": { "type": "Point", "coordinates": [ -108.450317, 26.797331 ] } },
{ "type": "Feature", "properties": { "NO": 14, "ENTIDAD": "SINALOA", "MUNICIPIO": "CHOIX", "PUEBLO INDIGENA O AFROMEXICANO": "MAYO", "LOCALIDAD": "BAYMENA", "CLAVE LOC": 250070033, "TIPO DE ASENTAMIENTO": "COMUNIDAD INDIGENA", "NOMBRE": "BAYMENA", "MONTO ASIGNADO (PESOS)": 3240671, "LATITUD": 26.522871, "LONGITUD": -108.290099 }, "geometry": { "type": "Point", "coordinates": [ -108.290099, 26.522871 ] } },
{ "type": "Feature", "properties": { "NO": 15, "ENTIDAD": "SINALOA", "MUNICIPIO": "CHOIX", "PUEBLO INDIGENA O AFROMEXICANO": "MAYO", "LOCALIDAD": "CHOIX", "CLAVE LOC": 250070001, "TIPO DE ASENTAMIENTO": "COMUNIDAD INDIGENA", "NOMBRE": "CHOIX HUITES", "MONTO ASIGNADO (PESOS)": 3033294, "LATITUD": 26.707011, "LONGITUD": -108.322351 }, "geometry": { "type": "Point", "coordinates": [ -108.322351, 26.707011 ] } },
{ "type": "Feature", "properties": { "NO": 16, "ENTIDAD": "SINALOA", "MUNICIPIO": "CHOIX", "PUEBLO INDIGENA O AFROMEXICANO": "MAYO", "LOCALIDAD": "SAN JAVIER", "CLAVE LOC": 250070200, "TIPO DE ASENTAMIENTO": "COMUNIDAD INDIGENA", "NOMBRE": "SAN JAVIER", "MONTO ASIGNADO (PESOS)": 1805500, "LATITUD": 26.67203, "LONGITUD": -108.459263 }, "geometry": { "type": "Point", "coordinates": [ -108.459263, 26.67203 ] } },
{ "type": "Feature", "properties": { "NO": 17, "ENTIDAD": "SINALOA", "MUNICIPIO": "EL FUERTE", "PUEBLO INDIGENA O AFROMEXICANO": "MAYO", "LOCALIDAD": "ADOLFO LOPEZ MATEOS (JAHUARA SEGUNDO)", "CLAVE LOC": 250100102, "TIPO DE ASENTAMIENTO": "COMUNIDAD INDIGENA", "NOMBRE": "ADOLFO LÓPEZ MATEOS (JAHUARA SEGUNDO)", "MONTO ASIGNADO (PESOS)": 1384586, "LATITUD": 26.227117, "LONGITUD": -108.954586 }, "geometry": { "type": "Point", "coordinates": [ -108.954586, 26.227117 ] } },
{ "type": "Feature", "properties": { "NO": 18, "ENTIDAD": "SINALOA", "MUNICIPIO": "EL FUERTE", "PUEBLO INDIGENA O AFROMEXICANO": "MAYO", "LOCALIDAD": "CHARAY ", "CLAVE LOC": 250100069, "TIPO DE ASENTAMIENTO": "COMUNIDAD INDIGENA", "NOMBRE": "CHARAY", "MONTO ASIGNADO (PESOS)": 7133437, "LATITUD": 26.02228, "LONGITUD": -108.831588 }, "geometry": { "type": "Point", "coordinates": [ -108.831588, 26.02228 ] } },
{ "type": "Feature", "properties": { "NO": 19, "ENTIDAD": "SINALOA", "MUNICIPIO": "EL FUERTE", "PUEBLO INDIGENA O AFROMEXICANO": "MAYO", "LOCALIDAD": "LOS CAPOMOS", "CLAVE LOC": 250100050, "TIPO DE ASENTAMIENTO": "COMUNIDAD INDIGENA", "NOMBRE": "LOS CAPOMOS", "MONTO ASIGNADO (PESOS)": 1547398, "LATITUD": 26.426107, "LONGITUD": -108.516556 }, "geometry": { "type": "Point", "coordinates": [ -108.516556, 26.426107 ] } },
{ "type": "Feature", "properties": { "NO": 20, "ENTIDAD": "SINALOA", "MUNICIPIO": "EL FUERTE", "PUEBLO INDIGENA O AFROMEXICANO": "MAYO", "LOCALIDAD": "MOCHICAHUI", "CLAVE LOC": 250100133, "TIPO DE ASENTAMIENTO": "COMUNIDAD INDIGENA", "NOMBRE": "MOCHICAHUI", "MONTO ASIGNADO (PESOS)": 10470369, "LATITUD": 25.953134, "LONGITUD": -108.930455 }, "geometry": { "type": "Point", "coordinates": [ -108.930455, 25.953134 ] } },
{ "type": "Feature", "properties": { "NO": 21, "ENTIDAD": "SINALOA", "MUNICIPIO": "EL FUERTE", "PUEBLO INDIGENA O AFROMEXICANO": "MAYO", "LOCALIDAD": "SIBIRIJOA", "CLAVE LOC": 250100190, "TIPO DE ASENTAMIENTO": "COMUNIDAD INDIGENA", "NOMBRE": "SIBIRIJOA", "MONTO ASIGNADO (PESOS)": 4340202, "LATITUD": 26.187377, "LONGITUD": -108.73051 }, "geometry": { "type": "Point", "coordinates": [ -108.73051, 26.187377 ] } },
{ "type": "Feature", "properties": { "NO": 22, "ENTIDAD": "SINALOA", "MUNICIPIO": "EL FUERTE", "PUEBLO INDIGENA O AFROMEXICANO": "MAYO", "LOCALIDAD": "TEHUECO ", "CLAVE LOC": 250100195, "TIPO DE ASENTAMIENTO": "COMUNIDAD INDIGENA", "NOMBRE": "TEHUECO", "MONTO ASIGNADO (PESOS)": 7443576, "LATITUD": 26.294972, "LONGITUD": -108.744266 }, "geometry": { "type": "Point", "coordinates": [ -108.744266, 26.294972 ] } },
{ "type": "Feature", "properties": { "NO": 23, "ENTIDAD": "SINALOA", "MUNICIPIO": "ESCUINAPA", "PUEBLO INDIGENA O AFROMEXICANO": "TEPEHUANO DEL\nSUR", "LOCALIDAD": "EL TREBOL DOS", "CLAVE LOC": 250090635, "TIPO DE ASENTAMIENTO": "COMUNIDAD INDIGENA", "NOMBRE": "EL TRÉBOL DOS", "MONTO ASIGNADO (PESOS)": 213978, "LATITUD": 22.643637, "LONGITUD": -105.470821 }, "geometry": { "type": "Point", "coordinates": [ -105.470821, 22.643637 ] } },
{ "type": "Feature", "properties": { "NO": 24, "ENTIDAD": "SINALOA", "MUNICIPIO": "GUASAVE", "PUEBLO INDIGENA O AFROMEXICANO": "MAYO", "LOCALIDAD": "LOS HORNOS NUMERO UNO (SALSIPUEDES)", "CLAVE LOC": 250110149, "TIPO DE ASENTAMIENTO": "COMUNIDAD INDIGENA", "NOMBRE": "LOS HORNOS NÚMERO UNO (SALSIPUEDES)", "MONTO ASIGNADO (PESOS)": 5281104, "LATITUD": 25.666262, "LONGITUD": -108.49021 }, "geometry": { "type": "Point", "coordinates": [ -108.49021, 25.666262 ] } },
{ "type": "Feature", "properties": { "NO": 25, "ENTIDAD": "SINALOA", "MUNICIPIO": "JUAN JOSE RIOS", "PUEBLO INDIGENA O AFROMEXICANO": "MAYO", "LOCALIDAD": "CARRIZO GRANDE", "CLAVE LOC": 250200030, "TIPO DE ASENTAMIENTO": "COMUNIDAD INDIGENA", "NOMBRE": "CARRIZO GRANDE (EL VADITO)", "MONTO ASIGNADO (PESOS)": 590199, "LATITUD": 25.756923, "LONGITUD": -108.823982 }, "geometry": { "type": "Point", "coordinates": [ -108.823982, 25.756923 ] } },
{ "type": "Feature", "properties": { "NO": 26, "ENTIDAD": "SINALOA", "MUNICIPIO": "JUAN JOSE RIOS", "PUEBLO INDIGENA O AFROMEXICANO": "MAYO", "LOCALIDAD": "JUAN JOSE RIOS", "CLAVE LOC": 250200001, "TIPO DE ASENTAMIENTO": "COMUNIDAD INDIGENA", "NOMBRE": "JUAN JOSÉ RÍOS", "MONTO ASIGNADO (PESOS)": 396430, "LATITUD": 25.756923, "LONGITUD": -108.823982 }, "geometry": { "type": "Point", "coordinates": [ -108.823982, 25.756923 ] } },
{ "type": "Feature", "properties": { "NO": 27, "ENTIDAD": "SINALOA", "MUNICIPIO": "ROSARIO", "PUEBLO INDIGENA O AFROMEXICANO": "TEPEHUANO DEL\nSUR", "LOCALIDAD": "MALOYA", "CLAVE LOC": 250140032, "TIPO DE ASENTAMIENTO": "COMUNIDAD INDIGENA", "NOMBRE": "MALOYA", "MONTO ASIGNADO (PESOS)": 537656, "LATITUD": 22.947267, "LONGITUD": -105.604823 }, "geometry": { "type": "Point", "coordinates": [ -105.604823, 22.947267 ] } },
{ "type": "Feature", "properties": { "NO": 28, "ENTIDAD": "SINALOA", "MUNICIPIO": "ROSARIO", "PUEBLO INDIGENA O AFROMEXICANO": "TEPEHUANO DEL\nSUR", "LOCALIDAD": "MATATAN ", "CLAVE LOC": 250140034, "TIPO DE ASENTAMIENTO": "COMUNIDAD INDIGENA", "NOMBRE": "MATATÁN", "MONTO ASIGNADO (PESOS)": 1550882, "LATITUD": 23.0333, "LONGITUD": -105.72829 }, "geometry": { "type": "Point", "coordinates": [ -105.72829, 23.0333 ] } },
{ "type": "Feature", "properties": { "NO": 29, "ENTIDAD": "SINALOA", "MUNICIPIO": "ROSARIO", "PUEBLO INDIGENA O AFROMEXICANO": "TEPEHUANO DEL\nSUR", "LOCALIDAD": "SAN MARCO OTATITAN ", "CLAVE LOC": 250140112, "TIPO DE ASENTAMIENTO": "COMUNIDAD INDIGENA", "NOMBRE": "SAN MARCO OTATITÁN", "MONTO ASIGNADO (PESOS)": 336044, "LATITUD": 23.01212, "LONGITUD": -105.667007 }, "geometry": { "type": "Point", "coordinates": [ -105.667007, 23.01212 ] } },
{ "type": "Feature", "properties": { "NO": 30, "ENTIDAD": "SINALOA", "MUNICIPIO": "ROSARIO", "PUEBLO INDIGENA O AFROMEXICANO": "TEPEHUANO DEL\nSUR", "LOCALIDAD": "SANTA MARIA (SANTA MARIA DE GRACIA)", "CLAVE LOC": 250140056, "TIPO DE ASENTAMIENTO": "COMUNIDAD INDIGENA", "NOMBRE": "SANTA MARÍA DE GRACIA", "MONTO ASIGNADO (PESOS)": 484871, "LATITUD": 23.110524, "LONGITUD": -105.667507 }, "geometry": { "type": "Point", "coordinates": [ -105.667507, 23.110524 ] } },
{ "type": "Feature", "properties": { "NO": 31, "ENTIDAD": "SINALOA", "MUNICIPIO": "SINALOA", "PUEBLO INDIGENA O AFROMEXICANO": "MAYO", "LOCALIDAD": "LA PLAYA ", "CLAVE LOC": 250170197, "TIPO DE ASENTAMIENTO": "COMUNIDAD INDIGENA", "NOMBRE": "LA PLAYA", "MONTO ASIGNADO (PESOS)": 3263177, "LATITUD": 25.892517, "LONGITUD": -108.458583 }, "geometry": { "type": "Point", "coordinates": [ -108.458583, 25.892517 ] } }
]
}
