{
"type": "FeatureCollection",
"name": "sonora_loc_monto",
"crs": { "type": "name", "properties": { "name": "urn:ogc:def:crs:OGC:1.3:CRS84" } },
"features": [
{ "type": "Feature", "properties": { "NO": 1, "ENTIDAD": "SONORA", "MUNICIPIO": "ALAMOS", "PUEBLO INDIGENA O AFROMEXICANO": "MAYO", "LOCALIDAD": "EL MOCUZARI (CONICARIT)", "CLAVE LOC": 260030159, "TIPO DE ASENTAMIENTO": "COMUNIDAD INDIGENA", "NOMBRE": "EL MOCÚZARIT (CONICÁRIT)", "MONTO ASIGNADO (PESOS)": 947738, "LATITUD": 27.216755, "LONGITUD": -109.097825 }, "geometry": { "type": "Point", "coordinates": [ -109.097825, 27.216755 ] } },
{ "type": "Feature", "properties": { "NO": 2, "ENTIDAD": "SONORA", "MUNICIPIO": "ALAMOS", "PUEBLO INDIGENA O AFROMEXICANO": "GUARIJÍO", "LOCALIDAD": "GUAJARAY ", "CLAVE LOC": 260030110, "TIPO DE ASENTAMIENTO": "COMUNIDAD INDIGENA", "NOMBRE": "GUAJARAY", "MONTO ASIGNADO (PESOS)": 388652, "LATITUD": 27.604843, "LONGITUD": -108.929903 }, "geometry": { "type": "Point", "coordinates": [ -108.929903, 27.604843 ] } },
{ "type": "Feature", "properties": { "NO": 3, "ENTIDAD": "SONORA", "MUNICIPIO": "ALAMOS", "PUEBLO INDIGENA O AFROMEXICANO": "GUARIJÍO", "LOCALIDAD": "LOS ESTRADOS ", "CLAVE LOC": 260030352, "TIPO DE ASENTAMIENTO": "COMUNIDAD INDIGENA", "NOMBRE": "LOS ESTRADOS", "MONTO ASIGNADO (PESOS)": 384097, "LATITUD": 27.565384, "LONGITUD": -108.945183 }, "geometry": { "type": "Point", "coordinates": [ -108.945183, 27.565384 ] } },
{ "type": "Feature", "properties": { "NO": 4, "ENTIDAD": "SONORA", "MUNICIPIO": "ALAMOS", "PUEBLO INDIGENA O AFROMEXICANO": "GUARIJÍO", "LOCALIDAD": "LOS JACALITOS ", "CLAVE LOC": 260030495, "TIPO DE ASENTAMIENTO": "COMUNIDAD INDIGENA", "NOMBRE": "LOS JACALES", "MONTO ASIGNADO (PESOS)": 85448, "LATITUD": 26.79655, "LONGITUD": -108.720552 }, "geometry": { "type": "Point", "coordinates": [ -108.720552, 26.79655 ] } },
{ "type": "Feature", "properties": { "NO": 5, "ENTIDAD": "SONORA", "MUNICIPIO": "ALAMOS", "PUEBLO INDIGENA O AFROMEXICANO": "MAYO", "LOCALIDAD": "MACOYAHUI ", "CLAVE LOC": 260030143, "TIPO DE ASENTAMIENTO": "COMUNIDAD INDIGENA", "NOMBRE": "MACOYAHUI", "MONTO ASIGNADO (PESOS)": 1022265, "LATITUD": 27.325019, "LONGITUD": -108.918656 }, "geometry": { "type": "Point", "coordinates": [ -108.918656, 27.325019 ] } },
{ "type": "Feature", "properties": { "NO": 6, "ENTIDAD": "SONORA", "MUNICIPIO": "ALAMOS", "PUEBLO INDIGENA O AFROMEXICANO": "GUARIJÍO", "LOCALIDAD": "MASCURAGÜI ", "CLAVE LOC": 260030977, "TIPO DE ASENTAMIENTO": "COMUNIDAD INDIGENA", "NOMBRE": "COLONIA MAKURAWE", "MONTO ASIGNADO (PESOS)": 236646, "LATITUD": 27.388117, "LONGITUD": -108.846854 }, "geometry": { "type": "Point", "coordinates": [ -108.846854, 27.388117 ] } },
{ "type": "Feature", "properties": { "NO": 7, "ENTIDAD": "SONORA", "MUNICIPIO": "ALAMOS", "PUEBLO INDIGENA O AFROMEXICANO": "GUARIJÍO", "LOCALIDAD": "MESA COLORADA", "CLAVE LOC": 260030525, "TIPO DE ASENTAMIENTO": "COMUNIDAD INDIGENA", "NOMBRE": "MESA COLORADA", "MONTO ASIGNADO (PESOS)": 1780618, "LATITUD": 27.57001, "LONGITUD": -108.86377 }, "geometry": { "type": "Point", "coordinates": [ -108.86377, 27.57001 ] } },
{ "type": "Feature", "properties": { "NO": 8, "ENTIDAD": "SONORA", "MUNICIPIO": "ALAMOS", "PUEBLO INDIGENA O AFROMEXICANO": "GUARIJÍO", "LOCALIDAD": "SAN JOSE ", "CLAVE LOC": 260030428, "TIPO DE ASENTAMIENTO": "COMUNIDAD INDIGENA", "NOMBRE": "COLONIA GUARIJÍO SAN JOSÉ", "MONTO ASIGNADO (PESOS)": 84639, "LATITUD": 27.183901, "LONGITUD": -108.673533 }, "geometry": { "type": "Point", "coordinates": [ -108.673533, 27.183901 ] } },
{ "type": "Feature", "properties": { "NO": 9, "ENTIDAD": "SONORA", "MUNICIPIO": "BACUM", "PUEBLO INDIGENA O AFROMEXICANO": "YAQUI", "LOCALIDAD": "LOMA DE BACUM ", "CLAVE LOC": 260120086, "TIPO DE ASENTAMIENTO": "COMUNIDAD INDIGENA", "NOMBRE": "LOMA DE BÁCUM.", "MONTO ASIGNADO (PESOS)": 3213167, "LATITUD": 27.587466, "LONGITUD": -110.085304 }, "geometry": { "type": "Point", "coordinates": [ -110.085304, 27.587466 ] } },
{ "type": "Feature", "properties": { "NO": 10, "ENTIDAD": "SONORA", "MUNICIPIO": "CAJEME", "PUEBLO INDIGENA O AFROMEXICANO": "YAQUI", "LOCALIDAD": "LOMA DE GUAMUCHIL", "CLAVE LOC": 260180329, "TIPO DE ASENTAMIENTO": "COMUNIDAD INDIGENA", "NOMBRE": "CÓCORIT - LOMA DE GUAMÚCHIL", "MONTO ASIGNADO (PESOS)": 3340030, "LATITUD": 27.61169, "LONGITUD": -109.986569 }, "geometry": { "type": "Point", "coordinates": [ -109.986569, 27.61169 ] } },
{ "type": "Feature", "properties": { "NO": 11, "ENTIDAD": "SONORA", "MUNICIPIO": "ETCHOJOA", "PUEBLO INDIGENA O AFROMEXICANO": "MAYO", "LOCALIDAD": "BUAYSIACOBE ", "CLAVE LOC": 260260019, "TIPO DE ASENTAMIENTO": "COMUNIDAD INDIGENA", "NOMBRE": "BUAYSIACOBE", "MONTO ASIGNADO (PESOS)": 7084357, "LATITUD": 27.062292, "LONGITUD": -109.686797 }, "geometry": { "type": "Point", "coordinates": [ -109.686797, 27.062292 ] } },
{ "type": "Feature", "properties": { "NO": 12, "ENTIDAD": "SONORA", "MUNICIPIO": "ETCHOJOA", "PUEBLO INDIGENA O AFROMEXICANO": "MAYO", "LOCALIDAD": "ETCHOJOA ", "CLAVE LOC": 260260001, "TIPO DE ASENTAMIENTO": "COMUNIDAD INDIGENA", "NOMBRE": "ETCHOJOA", "MONTO ASIGNADO (PESOS)": 11569442, "LATITUD": 26.910833, "LONGITUD": -109.625277 }, "geometry": { "type": "Point", "coordinates": [ -109.625277, 26.910833 ] } },
{ "type": "Feature", "properties": { "NO": 13, "ENTIDAD": "SONORA", "MUNICIPIO": "ETCHOJOA", "PUEBLO INDIGENA O AFROMEXICANO": "MAYO", "LOCALIDAD": "SAN PEDRO VIEJO ", "CLAVE LOC": 260260186, "TIPO DE ASENTAMIENTO": "COMUNIDAD INDIGENA", "NOMBRE": "SAN PEDRO VIEJO", "MONTO ASIGNADO (PESOS)": 9984405, "LATITUD": 27.019657, "LONGITUD": -109.621283 }, "geometry": { "type": "Point", "coordinates": [ -109.621283, 27.019657 ] } },
{ "type": "Feature", "properties": { "NO": 14, "ENTIDAD": "SONORA", "MUNICIPIO": "GENERAL PLUTARCO ELIAS CALLES", "PUEBLO INDIGENA O AFROMEXICANO": "TOHONO O’ODHAM\n(PÁPAGO)", "LOCALIDAD": "QUITOVAC ", "CLAVE LOC": 260700049, "TIPO DE ASENTAMIENTO": "COMUNIDAD INDIGENA", "NOMBRE": "COMUNIDAD INDÍGENA QUITOVAC", "MONTO ASIGNADO (PESOS)": 143650, "LATITUD": 31.516695, "LONGITUD": -112.751614 }, "geometry": { "type": "Point", "coordinates": [ -112.751614, 31.516695 ] } },
{ "type": "Feature", "properties": { "NO": 15, "ENTIDAD": "SONORA", "MUNICIPIO": "GUAYMAS", "PUEBLO INDIGENA O AFROMEXICANO": "YAQUI", "LOCALIDAD": "BARRIO PLATANAL", "CLAVE LOC": 260291663, "TIPO DE ASENTAMIENTO": "LOCALIDAD CON POBLACION\nINDIGENA", "NOMBRE": "BARRIO PLATANAL", "MONTO ASIGNADO (PESOS)": 171321, "LATITUD": 27.596927, "LONGITUD": -110.323711 }, "geometry": { "type": "Point", "coordinates": [ -110.323711, 27.596927 ] } },
{ "type": "Feature", "properties": { "NO": 16, "ENTIDAD": "SONORA", "MUNICIPIO": "GUAYMAS", "PUEBLO INDIGENA O AFROMEXICANO": "YAQUI", "LOCALIDAD": "HUIRIBIS ", "CLAVE LOC": 260290120, "TIPO DE ASENTAMIENTO": "COMUNIDAD INDIGENA", "NOMBRE": "HUÍRIVIS", "MONTO ASIGNADO (PESOS)": 410412, "LATITUD": 27.690531, "LONGITUD": -110.476892 }, "geometry": { "type": "Point", "coordinates": [ -110.476892, 27.690531 ] } },
{ "type": "Feature", "properties": { "NO": 17, "ENTIDAD": "SONORA", "MUNICIPIO": "GUAYMAS", "PUEBLO INDIGENA O AFROMEXICANO": "YAQUI", "LOCALIDAD": "PITAHAYA (BELEM) ", "CLAVE LOC": 260290195, "TIPO DE ASENTAMIENTO": "COMUNIDAD INDIGENA", "NOMBRE": "BELEM PITAHAYA", "MONTO ASIGNADO (PESOS)": 2571032, "LATITUD": 27.772084, "LONGITUD": -110.440411 }, "geometry": { "type": "Point", "coordinates": [ -110.440411, 27.772084 ] } },
{ "type": "Feature", "properties": { "NO": 18, "ENTIDAD": "SONORA", "MUNICIPIO": "GUAYMAS", "PUEBLO INDIGENA O AFROMEXICANO": "YAQUI", "LOCALIDAD": "POTAM", "CLAVE LOC": 260290202, "TIPO DE ASENTAMIENTO": "COMUNIDAD INDIGENA", "NOMBRE": "PÓTAM", "MONTO ASIGNADO (PESOS)": 6668199, "LATITUD": 27.62519, "LONGITUD": -110.417067 }, "geometry": { "type": "Point", "coordinates": [ -110.417067, 27.62519 ] } },
{ "type": "Feature", "properties": { "NO": 19, "ENTIDAD": "SONORA", "MUNICIPIO": "GUAYMAS", "PUEBLO INDIGENA O AFROMEXICANO": "YAQUI", "LOCALIDAD": "RAHUM", "CLAVE LOC": 260290211, "TIPO DE ASENTAMIENTO": "COMUNIDAD INDIGENA", "NOMBRE": "RAHÚM", "MONTO ASIGNADO (PESOS)": 535633, "LATITUD": 27.641051, "LONGITUD": -110.453411 }, "geometry": { "type": "Point", "coordinates": [ -110.453411, 27.641051 ] } },
{ "type": "Feature", "properties": { "NO": 20, "ENTIDAD": "SONORA", "MUNICIPIO": "GUAYMAS", "PUEBLO INDIGENA O AFROMEXICANO": "YAQUI", "LOCALIDAD": "TORIM", "CLAVE LOC": 260290307, "TIPO DE ASENTAMIENTO": "COMUNIDAD INDIGENA", "NOMBRE": "TÓRIM", "MONTO ASIGNADO (PESOS)": 3194981, "LATITUD": 27.57901, "LONGITUD": -110.227245 }, "geometry": { "type": "Point", "coordinates": [ -110.227245, 27.57901 ] } },
{ "type": "Feature", "properties": { "NO": 21, "ENTIDAD": "SONORA", "MUNICIPIO": "GUAYMAS", "PUEBLO INDIGENA O AFROMEXICANO": "YAQUI", "LOCALIDAD": "VICAM PUEBLO ", "CLAVE LOC": 260290326, "TIPO DE ASENTAMIENTO": "COMUNIDAD INDIGENA", "NOMBRE": "VÍCAM PUEBLO", "MONTO ASIGNADO (PESOS)": 3515213, "LATITUD": 27.585584, "LONGITUD": -110.320683 }, "geometry": { "type": "Point", "coordinates": [ -110.320683, 27.585584 ] } },
{ "type": "Feature", "properties": { "NO": 22, "ENTIDAD": "SONORA", "MUNICIPIO": "HERMOSILLO", "PUEBLO INDIGENA O AFROMEXICANO": "SERI", "LOCALIDAD": "PUNTA CHUECA ", "CLAVE LOC": 260300136, "TIPO DE ASENTAMIENTO": "COMUNIDAD INDIGENA", "NOMBRE": "PUNTA CHUECA", "MONTO ASIGNADO (PESOS)": 635947, "LATITUD": 29.014729, "LONGITUD": -112.160273 }, "geometry": { "type": "Point", "coordinates": [ -112.160273, 29.014729 ] } },
{ "type": "Feature", "properties": { "NO": 23, "ENTIDAD": "SONORA", "MUNICIPIO": "HUATABAMPO", "PUEBLO INDIGENA O AFROMEXICANO": "MAYO", "LOCALIDAD": "AGIABAMPO UNO", "CLAVE LOC": 260330002, "TIPO DE ASENTAMIENTO": "COMUNIDAD INDIGENA", "NOMBRE": "AGIABAMPO UNO", "MONTO ASIGNADO (PESOS)": 2092388, "LATITUD": 26.366168, "LONGITUD": -109.146521 }, "geometry": { "type": "Point", "coordinates": [ -109.146521, 26.366168 ] } },
{ "type": "Feature", "properties": { "NO": 24, "ENTIDAD": "SONORA", "MUNICIPIO": "HUATABAMPO", "PUEBLO INDIGENA O AFROMEXICANO": "MAYO", "LOCALIDAD": "JUPARE ", "CLAVE LOC": 260330052, "TIPO DE ASENTAMIENTO": "COMUNIDAD INDIGENA", "NOMBRE": "JÚPARE", "MONTO ASIGNADO (PESOS)": 23092120, "LATITUD": 26.802295, "LONGITUD": -109.702668 }, "geometry": { "type": "Point", "coordinates": [ -109.702668, 26.802295 ] } },
{ "type": "Feature", "properties": { "NO": 25, "ENTIDAD": "SONORA", "MUNICIPIO": "NAVOJOA", "PUEBLO INDIGENA O AFROMEXICANO": "MAYO", "LOCALIDAD": "CAMOA ", "CLAVE LOC": 260420022, "TIPO DE ASENTAMIENTO": "COMUNIDAD INDIGENA", "NOMBRE": "CAMOA", "MONTO ASIGNADO (PESOS)": 1269890, "LATITUD": 27.224656, "LONGITUD": -109.259028 }, "geometry": { "type": "Point", "coordinates": [ -109.259028, 27.224656 ] } },
{ "type": "Feature", "properties": { "NO": 26, "ENTIDAD": "SONORA", "MUNICIPIO": "NAVOJOA", "PUEBLO INDIGENA O AFROMEXICANO": "MAYO", "LOCALIDAD": "EL RECODO ", "CLAVE LOC": 260420099, "TIPO DE ASENTAMIENTO": "COMUNIDAD INDIGENA", "NOMBRE": "EL RECODO (COHUIRIMPO)", "MONTO ASIGNADO (PESOS)": 8772795, "LATITUD": 27.077088, "LONGITUD": -109.527703 }, "geometry": { "type": "Point", "coordinates": [ -109.527703, 27.077088 ] } },
{ "type": "Feature", "properties": { "NO": 27, "ENTIDAD": "SONORA", "MUNICIPIO": "NAVOJOA", "PUEBLO INDIGENA O AFROMEXICANO": "MAYO", "LOCALIDAD": "LOS BUAYUMS ", "CLAVE LOC": 260420300, "TIPO DE ASENTAMIENTO": "COMUNIDAD INDIGENA", "NOMBRE": "LOS BUAYUMS", "MONTO ASIGNADO (PESOS)": 5857155, "LATITUD": 26.862734, "LONGITUD": -109.433504 }, "geometry": { "type": "Point", "coordinates": [ -109.433504, 26.862734 ] } },
{ "type": "Feature", "properties": { "NO": 28, "ENTIDAD": "SONORA", "MUNICIPIO": "NAVOJOA", "PUEBLO INDIGENA O AFROMEXICANO": "MAYO", "LOCALIDAD": "MASIACA ", "CLAVE LOC": 260420079, "TIPO DE ASENTAMIENTO": "COMUNIDAD INDIGENA", "NOMBRE": "MASIACA", "MONTO ASIGNADO (PESOS)": 9391970, "LATITUD": 26.763539, "LONGITUD": -109.237406 }, "geometry": { "type": "Point", "coordinates": [ -109.237406, 26.763539 ] } },
{ "type": "Feature", "properties": { "NO": 29, "ENTIDAD": "SONORA", "MUNICIPIO": "NAVOJOA", "PUEBLO INDIGENA O AFROMEXICANO": "MAYO", "LOCALIDAD": "NAVOJOA", "CLAVE LOC": 260420001, "TIPO DE ASENTAMIENTO": "COMUNIDAD INDIGENA", "NOMBRE": "PUEBLO VIEJO", "MONTO ASIGNADO (PESOS)": 6541020, "LATITUD": 27.081597, "LONGITUD": -109.445546 }, "geometry": { "type": "Point", "coordinates": [ -109.445546, 27.081597 ] } },
{ "type": "Feature", "properties": { "NO": 30, "ENTIDAD": "SONORA", "MUNICIPIO": "NAVOJOA", "PUEBLO INDIGENA O AFROMEXICANO": "MAYO", "LOCALIDAD": "TIERRA BLANCA ", "CLAVE LOC": 260420128, "TIPO DE ASENTAMIENTO": "COMUNIDAD INDIGENA", "NOMBRE": "TIERRA BLANCA (TESIA)", "MONTO ASIGNADO (PESOS)": 6247946, "LATITUD": 27.189531, "LONGITUD": -109.344746 }, "geometry": { "type": "Point", "coordinates": [ -109.344746, 27.189531 ] } },
{ "type": "Feature", "properties": { "NO": 31, "ENTIDAD": "SONORA", "MUNICIPIO": "PITIQUITO", "PUEBLO INDIGENA O AFROMEXICANO": "SERI", "LOCALIDAD": "DESEMBOQUE DE LOS SERIS (EL DESEMBOQUE) ", "CLAVE LOC": 260470027, "TIPO DE ASENTAMIENTO": "COMUNIDAD INDIGENA", "NOMBRE": "DESEMBOQUE DE LOS SERIS", "MONTO ASIGNADO (PESOS)": 350593, "LATITUD": 29.505154, "LONGITUD": -112.39613 }, "geometry": { "type": "Point", "coordinates": [ -112.39613, 29.505154 ] } },
{ "type": "Feature", "properties": { "NO": 32, "ENTIDAD": "SONORA", "MUNICIPIO": "QUIRIEGO", "PUEBLO INDIGENA O AFROMEXICANO": "GUARIJÍO", "LOCALIDAD": "LOS BAJIOS (EJIDO LOS CONEJOS)", "CLAVE LOC": 260490352, "TIPO DE ASENTAMIENTO": "COMUNIDAD INDIGENA", "NOMBRE": "LOS BAJÍOS", "MONTO ASIGNADO (PESOS)": 659045, "LATITUD": 27.673451, "LONGITUD": -108.991152 }, "geometry": { "type": "Point", "coordinates": [ -108.991152, 27.673451 ] } },
{ "type": "Feature", "properties": { "NO": 33, "ENTIDAD": "SONORA", "MUNICIPIO": "SAN LUIS RIO COLORADO", "PUEBLO INDIGENA O AFROMEXICANO": "CUCAPÁ", "LOCALIDAD": "POZAS DE ARVIZU (LA RESERVA) ", "CLAVE LOC": 260550024, "TIPO DE ASENTAMIENTO": "COMUNIDAD INDIGENA", "NOMBRE": "EJIDO POZAS DE ARVIZU", "MONTO ASIGNADO (PESOS)": 189727, "LATITUD": 32.373549, "LONGITUD": -114.910002 }, "geometry": { "type": "Point", "coordinates": [ -114.910002, 32.373549 ] } },
{ "type": "Feature", "properties": { "NO": 34, "ENTIDAD": "SONORA", "MUNICIPIO": "YECORA", "PUEBLO INDIGENA O AFROMEXICANO": "PIMA", "LOCALIDAD": "EL KIPUR ", "CLAVE LOC": 260690034, "TIPO DE ASENTAMIENTO": "COMUNIDAD INDIGENA", "NOMBRE": "EL KIPOR", "MONTO ASIGNADO (PESOS)": 1621857, "LATITUD": 28.403829, "LONGITUD": -108.598601 }, "geometry": { "type": "Point", "coordinates": [ -108.598601, 28.403829 ] } }
]
}
