{
"type": "FeatureCollection",
"name": "tabasco_loc_monto",
"crs": { "type": "name", "properties": { "name": "urn:ogc:def:crs:OGC:1.3:CRS84" } },
"features": [
{ "type": "Feature", "properties": { "NO": 1, "ENTIDAD": "TABASCO", "MUNICIPIO": "BALANCÁN", "PUEBLO INDIGENA O AFROMEXICANO": "TSELTAL", "LOCALIDAD": "EL SILENCIO", "CLAVE LOC": 270010760, "TIPO DE ASENTAMIENTO": "COMUNIDAD INDIGENA", "NOMBRE": "EL SILENCIO", "MONTO ASIGNADO (PESOS)": 187302, "LATITUD": 17.778947, "LONGITUD": -91.217814 }, "geometry": { "type": "Point", "coordinates": [ -91.217814, 17.778947 ] } },
{ "type": "Feature", "properties": { "NO": 2, "ENTIDAD": "TABASCO", "MUNICIPIO": "BALANCÁN", "PUEBLO INDIGENA O AFROMEXICANO": "TSELTAL", "LOCALIDAD": "JERUSALÉM - BELÉN", "CLAVE LOC": 270010762, "TIPO DE ASENTAMIENTO": "COMUNIDAD INDIGENA", "NOMBRE": "JERUSALÉM - BELÉN", "MONTO ASIGNADO (PESOS)": 275589, "LATITUD": 17.785448, "LONGITUD": -91.624091 }, "geometry": { "type": "Point", "coordinates": [ -91.624091, 17.785448 ] } },
{ "type": "Feature", "properties": { "NO": 3, "ENTIDAD": "TABASCO", "MUNICIPIO": "BALANCÁN", "PUEBLO INDIGENA O AFROMEXICANO": "TSOTSIL", "LOCALIDAD": "MIGUEL HIDALGO SACAOLAS", "CLAVE LOC": 270010065, "TIPO DE ASENTAMIENTO": "COMUNIDAD INDIGENA", "NOMBRE": "MIGUEL HIDALGO SACAOLAS", "MONTO ASIGNADO (PESOS)": 499332, "LATITUD": 17.64622, "LONGITUD": -91.111848 }, "geometry": { "type": "Point", "coordinates": [ -91.111848, 17.64622 ] } },
{ "type": "Feature", "properties": { "NO": 4, "ENTIDAD": "TABASCO", "MUNICIPIO": "BALANCÁN", "PUEBLO INDIGENA O AFROMEXICANO": "CH'OL", "LOCALIDAD": "SAN JUAN", "CLAVE LOC": 270010064, "TIPO DE ASENTAMIENTO": "COMUNIDAD INDIGENA", "NOMBRE": "SAN JUAN", "MONTO ASIGNADO (PESOS)": 430621, "LATITUD": 17.822191, "LONGITUD": -91.668687 }, "geometry": { "type": "Point", "coordinates": [ -91.668687, 17.822191 ] } },
{ "type": "Feature", "properties": { "NO": 5, "ENTIDAD": "TABASCO", "MUNICIPIO": "BALANCÁN", "PUEBLO INDIGENA O AFROMEXICANO": "CH'OL", "LOCALIDAD": "TIERRA Y LIBERTAD", "CLAVE LOC": 270010748, "TIPO DE ASENTAMIENTO": "COMUNIDAD INDIGENA", "NOMBRE": "TIERRA Y LIBERTAD", "MONTO ASIGNADO (PESOS)": 181644, "LATITUD": 17.772427, "LONGITUD": -91.223867 }, "geometry": { "type": "Point", "coordinates": [ -91.223867, 17.772427 ] } },
{ "type": "Feature", "properties": { "NO": 6, "ENTIDAD": "TABASCO", "MUNICIPIO": "BALANCÁN", "PUEBLO INDIGENA O AFROMEXICANO": "TSELTAL", "LOCALIDAD": "VICENTE GUERRERO", "CLAVE LOC": 270010076, "TIPO DE ASENTAMIENTO": "COMUNIDAD INDIGENA", "NOMBRE": "VICENTE GUERRERO", "MONTO ASIGNADO (PESOS)": 574511, "LATITUD": 17.767379, "LONGITUD": -91.635837 }, "geometry": { "type": "Point", "coordinates": [ -91.635837, 17.767379 ] } },
{ "type": "Feature", "properties": { "NO": 7, "ENTIDAD": "TABASCO", "MUNICIPIO": "CENTLA", "PUEBLO INDIGENA O AFROMEXICANO": "YOKOT'AN\n(CHONTALDE\nTABASCO)", "LOCALIDAD": "ADOLFO LÓPEZ MATEOS", "CLAVE LOC": 270030241, "TIPO DE ASENTAMIENTO": "COMUNIDAD INDIGENA", "NOMBRE": "ADOLFO LÓPEZ MATEOS", "MONTO ASIGNADO (PESOS)": 785495, "LATITUD": 18.415281, "LONGITUD": -92.95199 }, "geometry": { "type": "Point", "coordinates": [ -92.95199, 18.415281 ] } },
{ "type": "Feature", "properties": { "NO": 8, "ENTIDAD": "TABASCO", "MUNICIPIO": "CENTLA", "PUEBLO INDIGENA O AFROMEXICANO": "YOKOT'AN\n(CHONTALDE\nTABASCO)", "LOCALIDAD": "ÁLVARO OBREGÓN (SANTA CRUZ)", "CLAVE LOC": 270030002, "TIPO DE ASENTAMIENTO": "COMUNIDAD INDIGENA", "NOMBRE": "ÁLVARO OBREGÓN (SANTA CRUZ)", "MONTO ASIGNADO (PESOS)": 1037706, "LATITUD": 18.389447, "LONGITUD": -92.799636 }, "geometry": { "type": "Point", "coordinates": [ -92.799636, 18.389447 ] } },
{ "type": "Feature", "properties": { "NO": 9, "ENTIDAD": "TABASCO", "MUNICIPIO": "CENTLA", "PUEBLO INDIGENA O AFROMEXICANO": "YOKOT'AN\n(CHONTALDE\nTABASCO)", "LOCALIDAD": "BENITO JUÁREZ", "CLAVE LOC": 270030003, "TIPO DE ASENTAMIENTO": "COMUNIDAD INDIGENA", "NOMBRE": "BENITO JUÁREZ", "MONTO ASIGNADO (PESOS)": 627055, "LATITUD": 18.450376, "LONGITUD": -92.818797 }, "geometry": { "type": "Point", "coordinates": [ -92.818797, 18.450376 ] } },
{ "type": "Feature", "properties": { "NO": 10, "ENTIDAD": "TABASCO", "MUNICIPIO": "CENTLA", "PUEBLO INDIGENA O AFROMEXICANO": "YOKOT'AN\n(CHONTALDE\nTABASCO)", "LOCALIDAD": "BOCA GRANDE 1RA. SECCIÓN", "CLAVE LOC": 270030064, "TIPO DE ASENTAMIENTO": "COMUNIDAD INDIGENA", "NOMBRE": "BOCA GRANDE 1RA. SECCIÓN", "MONTO ASIGNADO (PESOS)": 191421, "LATITUD": 18.161618, "LONGITUD": -92.536387 }, "geometry": { "type": "Point", "coordinates": [ -92.536387, 18.161618 ] } },
{ "type": "Feature", "properties": { "NO": 11, "ENTIDAD": "TABASCO", "MUNICIPIO": "CENTLA", "PUEBLO INDIGENA O AFROMEXICANO": "YOKOT'AN\n(CHONTALDE\nTABASCO)", "LOCALIDAD": "BUENA VISTA", "CLAVE LOC": 270030006, "TIPO DE ASENTAMIENTO": "COMUNIDAD INDIGENA", "NOMBRE": "BUENA VISTA", "MONTO ASIGNADO (PESOS)": 612504, "LATITUD": 18.356625, "LONGITUD": -92.872479 }, "geometry": { "type": "Point", "coordinates": [ -92.872479, 18.356625 ] } },
{ "type": "Feature", "properties": { "NO": 12, "ENTIDAD": "TABASCO", "MUNICIPIO": "CENTLA", "PUEBLO INDIGENA O AFROMEXICANO": "YOKOT'AN\n(CHONTALDE\nTABASCO)", "LOCALIDAD": "CAÑAVERAL CORCOVADO", "CLAVE LOC": 270030264, "TIPO DE ASENTAMIENTO": "COMUNIDAD INDIGENA", "NOMBRE": "CAÑAVERAL CORCOVADO", "MONTO ASIGNADO (PESOS)": 230364, "LATITUD": 18.193593, "LONGITUD": -92.404881 }, "geometry": { "type": "Point", "coordinates": [ -92.404881, 18.193593 ] } },
{ "type": "Feature", "properties": { "NO": 13, "ENTIDAD": "TABASCO", "MUNICIPIO": "CENTLA", "PUEBLO INDIGENA O AFROMEXICANO": "YOKOT'AN\n(CHONTALDE\nTABASCO)", "LOCALIDAD": "CAPARROSO", "CLAVE LOC": 270030331, "TIPO DE ASENTAMIENTO": "COMUNIDAD INDIGENA", "NOMBRE": "CAPARROSO", "MONTO ASIGNADO (PESOS)": 1751495, "LATITUD": 18.345132, "LONGITUD": -92.803531 }, "geometry": { "type": "Point", "coordinates": [ -92.803531, 18.345132 ] } },
{ "type": "Feature", "properties": { "NO": 14, "ENTIDAD": "TABASCO", "MUNICIPIO": "CENTLA", "PUEBLO INDIGENA O AFROMEXICANO": "YOKOT'AN\n(CHONTALDE\nTABASCO)", "LOCALIDAD": "CARLOS A. MADRAZO", "CLAVE LOC": 270030007, "TIPO DE ASENTAMIENTO": "COMUNIDAD INDIGENA", "NOMBRE": "CARLOS A. MADRAZO", "MONTO ASIGNADO (PESOS)": 688491, "LATITUD": 18.425276, "LONGITUD": -92.9754 }, "geometry": { "type": "Point", "coordinates": [ -92.9754, 18.425276 ] } },
{ "type": "Feature", "properties": { "NO": 15, "ENTIDAD": "TABASCO", "MUNICIPIO": "CENTLA", "PUEBLO INDIGENA O AFROMEXICANO": "YOKOT'AN\n(CHONTALDE\nTABASCO)", "LOCALIDAD": "CHICHICASTLE 1RA. SECCIÓN", "CLAVE LOC": 270030017, "TIPO DE ASENTAMIENTO": "COMUNIDAD INDIGENA", "NOMBRE": "CHICHICASTLE 1RA. SECCIÓN", "MONTO ASIGNADO (PESOS)": 1339227, "LATITUD": 18.309512, "LONGITUD": -92.454446 }, "geometry": { "type": "Point", "coordinates": [ -92.454446, 18.309512 ] } },
{ "type": "Feature", "properties": { "NO": 16, "ENTIDAD": "TABASCO", "MUNICIPIO": "CENTLA", "PUEBLO INDIGENA O AFROMEXICANO": "YOKOT'AN\n(CHONTALDE\nTABASCO)", "LOCALIDAD": "CHICHICASTLE 2DA. SECCIÓN", "CLAVE LOC": 270030018, "TIPO DE ASENTAMIENTO": "COMUNIDAD INDIGENA", "NOMBRE": "CHICHICASTLE 2DA. SECCIÓN", "MONTO ASIGNADO (PESOS)": 319875, "LATITUD": 18.295518, "LONGITUD": -92.371337 }, "geometry": { "type": "Point", "coordinates": [ -92.371337, 18.295518 ] } },
{ "type": "Feature", "properties": { "NO": 17, "ENTIDAD": "TABASCO", "MUNICIPIO": "CENTLA", "PUEBLO INDIGENA O AFROMEXICANO": "YOKOT'AN\n(CHONTALDE\nTABASCO)", "LOCALIDAD": "CHICHICASTLE 3RA. SECCIÓN", "CLAVE LOC": 270030019, "TIPO DE ASENTAMIENTO": "COMUNIDAD INDIGENA", "NOMBRE": "CHICHICASTLE 3RA. SECCIÓN", "MONTO ASIGNADO (PESOS)": 199428, "LATITUD": 18.263189, "LONGITUD": -92.319234 }, "geometry": { "type": "Point", "coordinates": [ -92.319234, 18.263189 ] } },
{ "type": "Feature", "properties": { "NO": 18, "ENTIDAD": "TABASCO", "MUNICIPIO": "CENTLA", "PUEBLO INDIGENA O AFROMEXICANO": "YOKOT'AN\n(CHONTALDE\nTABASCO)", "LOCALIDAD": "CHICOZAPOTE 1RA. SECCIÓN", "CLAVE LOC": 270030016, "TIPO DE ASENTAMIENTO": "COMUNIDAD INDIGENA", "NOMBRE": "CHICOZAPOTE 1RA. SECCIÓN", "MONTO ASIGNADO (PESOS)": 346551, "LATITUD": 18.387642, "LONGITUD": -92.837257 }, "geometry": { "type": "Point", "coordinates": [ -92.837257, 18.387642 ] } },
{ "type": "Feature", "properties": { "NO": 19, "ENTIDAD": "TABASCO", "MUNICIPIO": "CENTLA", "PUEBLO INDIGENA O AFROMEXICANO": "YOKOT'AN\n(CHONTALDE\nTABASCO)", "LOCALIDAD": "CONSTANCIA Y VENECIA", "CLAVE LOC": 270030251, "TIPO DE ASENTAMIENTO": "COMUNIDAD INDIGENA", "NOMBRE": "CONSTANCIA Y VENECIA", "MONTO ASIGNADO (PESOS)": 910792, "LATITUD": 18.435012, "LONGITUD": -92.824573 }, "geometry": { "type": "Point", "coordinates": [ -92.824573, 18.435012 ] } },
{ "type": "Feature", "properties": { "NO": 20, "ENTIDAD": "TABASCO", "MUNICIPIO": "CENTLA", "PUEBLO INDIGENA O AFROMEXICANO": "YOKOT'AN\n(CHONTALDE\nTABASCO)", "LOCALIDAD": "EL CARMEN 1RA. SECCIÓN", "CLAVE LOC": 270030250, "TIPO DE ASENTAMIENTO": "COMUNIDAD INDIGENA", "NOMBRE": "EL CARMEN 1RA. SECCIÓN", "MONTO ASIGNADO (PESOS)": 414454, "LATITUD": 18.433966, "LONGITUD": -92.844044 }, "geometry": { "type": "Point", "coordinates": [ -92.844044, 18.433966 ] } },
{ "type": "Feature", "properties": { "NO": 21, "ENTIDAD": "TABASCO", "MUNICIPIO": "CENTLA", "PUEBLO INDIGENA O AFROMEXICANO": "YOKOT'AN\n(CHONTALDE\nTABASCO)", "LOCALIDAD": "EL CARMEN 2DA. SECCIÓN", "CLAVE LOC": 270030319, "TIPO DE ASENTAMIENTO": "COMUNIDAD INDIGENA", "NOMBRE": "EL CARMEN 2DA. SECCIÓN", "MONTO ASIGNADO (PESOS)": 329575, "LATITUD": 18.42783, "LONGITUD": -92.843627 }, "geometry": { "type": "Point", "coordinates": [ -92.843627, 18.42783 ] } },
{ "type": "Feature", "properties": { "NO": 22, "ENTIDAD": "TABASCO", "MUNICIPIO": "CENTLA", "PUEBLO INDIGENA O AFROMEXICANO": "YOKOT'AN\n(CHONTALDE\nTABASCO)", "LOCALIDAD": "EL GUATOPE", "CLAVE LOC": 270030073, "TIPO DE ASENTAMIENTO": "COMUNIDAD INDIGENA", "NOMBRE": "EL GUATOPE", "MONTO ASIGNADO (PESOS)": 129100, "LATITUD": 18.413701, "LONGITUD": -92.936138 }, "geometry": { "type": "Point", "coordinates": [ -92.936138, 18.413701 ] } },
{ "type": "Feature", "properties": { "NO": 23, "ENTIDAD": "TABASCO", "MUNICIPIO": "CENTLA", "PUEBLO INDIGENA O AFROMEXICANO": "YOKOT'AN\n(CHONTALDE\nTABASCO)", "LOCALIDAD": "EL LIMÓN (DE VICENTE GUERRERO)", "CLAVE LOC": 270030075, "TIPO DE ASENTAMIENTO": "COMUNIDAD INDIGENA", "NOMBRE": "EL LIMÓN (DE VICENTE GUERRERO)", "MONTO ASIGNADO (PESOS)": 425771, "LATITUD": 18.396389, "LONGITUD": -92.883653 }, "geometry": { "type": "Point", "coordinates": [ -92.883653, 18.396389 ] } },
{ "type": "Feature", "properties": { "NO": 24, "ENTIDAD": "TABASCO", "MUNICIPIO": "CENTLA", "PUEBLO INDIGENA O AFROMEXICANO": "YOKOT'AN\n(CHONTALDE\nTABASCO)", "LOCALIDAD": "EL LIMÓN DE SIMÓN SARLAT", "CLAVE LOC": 270030185, "TIPO DE ASENTAMIENTO": "COMUNIDAD INDIGENA", "NOMBRE": "EL LIMÓN DE SIMÓN SARLAT", "MONTO ASIGNADO (PESOS)": 226104, "LATITUD": 18.337808, "LONGITUD": -92.780254 }, "geometry": { "type": "Point", "coordinates": [ -92.780254, 18.337808 ] } },
{ "type": "Feature", "properties": { "NO": 25, "ENTIDAD": "TABASCO", "MUNICIPIO": "CENTLA", "PUEBLO INDIGENA O AFROMEXICANO": "YOKOT'AN\n(CHONTALDE\nTABASCO)", "LOCALIDAD": "EL PORVENIR", "CLAVE LOC": 270030077, "TIPO DE ASENTAMIENTO": "COMUNIDAD INDIGENA", "NOMBRE": "EL PORVENIR", "MONTO ASIGNADO (PESOS)": 395053, "LATITUD": 18.403738, "LONGITUD": -92.887693 }, "geometry": { "type": "Point", "coordinates": [ -92.887693, 18.403738 ] } },
{ "type": "Feature", "properties": { "NO": 26, "ENTIDAD": "TABASCO", "MUNICIPIO": "CENTLA", "PUEBLO INDIGENA O AFROMEXICANO": "YOKOT'AN\n(CHONTALDE\nTABASCO)", "LOCALIDAD": "EL PORVENIR (DE QUINTÍN ARAUZ)", "CLAVE LOC": 270030230, "TIPO DE ASENTAMIENTO": "COMUNIDAD INDIGENA", "NOMBRE": "EL PORVENIR (DE QUINTÍN ARAUZ)", "MONTO ASIGNADO (PESOS)": 104739, "LATITUD": 18.387054, "LONGITUD": -92.362629 }, "geometry": { "type": "Point", "coordinates": [ -92.362629, 18.387054 ] } },
{ "type": "Feature", "properties": { "NO": 27, "ENTIDAD": "TABASCO", "MUNICIPIO": "CENTLA", "PUEBLO INDIGENA O AFROMEXICANO": "YOKOT'AN\n(CHONTALDE\nTABASCO)", "LOCALIDAD": "EMILIANO ZAPATA", "CLAVE LOC": 270030022, "TIPO DE ASENTAMIENTO": "COMUNIDAD INDIGENA", "NOMBRE": "EMILIANO ZAPATA", "MONTO ASIGNADO (PESOS)": 422537, "LATITUD": 18.430213, "LONGITUD": -92.949396 }, "geometry": { "type": "Point", "coordinates": [ -92.949396, 18.430213 ] } },
{ "type": "Feature", "properties": { "NO": 28, "ENTIDAD": "TABASCO", "MUNICIPIO": "CENTLA", "PUEBLO INDIGENA O AFROMEXICANO": "YOKOT'AN\n(CHONTALDE\nTABASCO)", "LOCALIDAD": "ESCOBAS (CHILAPA ESCOBA)", "CLAVE LOC": 270030023, "TIPO DE ASENTAMIENTO": "COMUNIDAD INDIGENA", "NOMBRE": "ESCOBAS (CHILAPA ESCOBA)", "MONTO ASIGNADO (PESOS)": 429813, "LATITUD": 18.191613, "LONGITUD": -92.703903 }, "geometry": { "type": "Point", "coordinates": [ -92.703903, 18.191613 ] } },
{ "type": "Feature", "properties": { "NO": 29, "ENTIDAD": "TABASCO", "MUNICIPIO": "CENTLA", "PUEBLO INDIGENA O AFROMEXICANO": "YOKOT'AN\n(CHONTALDE\nTABASCO)", "LOCALIDAD": "FRANCISCO VILLA", "CLAVE LOC": 270030090, "TIPO DE ASENTAMIENTO": "COMUNIDAD INDIGENA", "NOMBRE": "FRANCISCO VILLA", "MONTO ASIGNADO (PESOS)": 687682, "LATITUD": 18.404058, "LONGITUD": -92.881186 }, "geometry": { "type": "Point", "coordinates": [ -92.881186, 18.404058 ] } },
{ "type": "Feature", "properties": { "NO": 30, "ENTIDAD": "TABASCO", "MUNICIPIO": "CENTLA", "PUEBLO INDIGENA O AFROMEXICANO": "YOKOT'AN\n(CHONTALDE\nTABASCO)", "LOCALIDAD": "FRANCISCO VILLA (GUANO SOLO)", "CLAVE LOC": 270030280, "TIPO DE ASENTAMIENTO": "COMUNIDAD INDIGENA", "NOMBRE": "FRANCISCO VILLA (GUANO SOLO)", "MONTO ASIGNADO (PESOS)": 376460, "LATITUD": 18.427568, "LONGITUD": -92.929887 }, "geometry": { "type": "Point", "coordinates": [ -92.929887, 18.427568 ] } },
{ "type": "Feature", "properties": { "NO": 31, "ENTIDAD": "TABASCO", "MUNICIPIO": "CENTLA", "PUEBLO INDIGENA O AFROMEXICANO": "YOKOT'AN\n(CHONTALDE\nTABASCO)", "LOCALIDAD": "FRONTERITA", "CLAVE LOC": 270030114, "TIPO DE ASENTAMIENTO": "COMUNIDAD INDIGENA", "NOMBRE": "FRONTERITA", "MONTO ASIGNADO (PESOS)": 538943, "LATITUD": 18.418059, "LONGITUD": -92.827255 }, "geometry": { "type": "Point", "coordinates": [ -92.827255, 18.418059 ] } },
{ "type": "Feature", "properties": { "NO": 32, "ENTIDAD": "TABASCO", "MUNICIPIO": "CENTLA", "PUEBLO INDIGENA O AFROMEXICANO": "YOKOT'AN\n(CHONTALDE\nTABASCO)", "LOCALIDAD": "IGNACIO ZARAGOZA", "CLAVE LOC": 270030036, "TIPO DE ASENTAMIENTO": "COMUNIDAD INDIGENA", "NOMBRE": "IGNACIO ZARAGOZA", "MONTO ASIGNADO (PESOS)": 2103136, "LATITUD": 18.402055, "LONGITUD": -92.959386 }, "geometry": { "type": "Point", "coordinates": [ -92.959386, 18.402055 ] } },
{ "type": "Feature", "properties": { "NO": 33, "ENTIDAD": "TABASCO", "MUNICIPIO": "CENTLA", "PUEBLO INDIGENA O AFROMEXICANO": "YOKOT'AN\n(CHONTALDE\nTABASCO)", "LOCALIDAD": "JOSÉ MARÍA MORELOS Y PAVÓN", "CLAVE LOC": 270030043, "TIPO DE ASENTAMIENTO": "COMUNIDAD INDIGENA", "NOMBRE": "JOSÉ MARÍA MORELOS Y PAVÓN", "MONTO ASIGNADO (PESOS)": 569661, "LATITUD": 18.416489, "LONGITUD": -92.844967 }, "geometry": { "type": "Point", "coordinates": [ -92.844967, 18.416489 ] } },
{ "type": "Feature", "properties": { "NO": 34, "ENTIDAD": "TABASCO", "MUNICIPIO": "CENTLA", "PUEBLO INDIGENA O AFROMEXICANO": "YOKOT'AN\n(CHONTALDE\nTABASCO)", "LOCALIDAD": "LA MONTAÑA", "CLAVE LOC": 270030074, "TIPO DE ASENTAMIENTO": "COMUNIDAD INDIGENA", "NOMBRE": "LA MONTAÑA", "MONTO ASIGNADO (PESOS)": 311791, "LATITUD": 18.420789, "LONGITUD": -92.93792 }, "geometry": { "type": "Point", "coordinates": [ -92.93792, 18.420789 ] } },
{ "type": "Feature", "properties": { "NO": 35, "ENTIDAD": "TABASCO", "MUNICIPIO": "CENTLA", "PUEBLO INDIGENA O AFROMEXICANO": "YOKOT'AN\n(CHONTALDE\nTABASCO)", "LOCALIDAD": "LA PIMIENTA", "CLAVE LOC": 270030081, "TIPO DE ASENTAMIENTO": "COMUNIDAD INDIGENA", "NOMBRE": "LA PIMIENTA", "MONTO ASIGNADO (PESOS)": 711125, "LATITUD": 18.428607, "LONGITUD": -92.888886 }, "geometry": { "type": "Point", "coordinates": [ -92.888886, 18.428607 ] } },
{ "type": "Feature", "properties": { "NO": 36, "ENTIDAD": "TABASCO", "MUNICIPIO": "CENTLA", "PUEBLO INDIGENA O AFROMEXICANO": "YOKOT'AN\n(CHONTALDE\nTABASCO)", "LOCALIDAD": "LA SÁBANA", "CLAVE LOC": 270030082, "TIPO DE ASENTAMIENTO": "COMUNIDAD INDIGENA", "NOMBRE": "LA SÁBANA", "MONTO ASIGNADO (PESOS)": 1217972, "LATITUD": 18.444031, "LONGITUD": -92.880337 }, "geometry": { "type": "Point", "coordinates": [ -92.880337, 18.444031 ] } },
{ "type": "Feature", "properties": { "NO": 37, "ENTIDAD": "TABASCO", "MUNICIPIO": "CENTLA", "PUEBLO INDIGENA O AFROMEXICANO": "YOKOT'AN\n(CHONTALDE\nTABASCO)", "LOCALIDAD": "LA UNIÓN", "CLAVE LOC": 270030060, "TIPO DE ASENTAMIENTO": "COMUNIDAD INDIGENA", "NOMBRE": "LA UNIÓN", "MONTO ASIGNADO (PESOS)": 855823, "LATITUD": 18.411797, "LONGITUD": -92.882466 }, "geometry": { "type": "Point", "coordinates": [ -92.882466, 18.411797 ] } },
{ "type": "Feature", "properties": { "NO": 38, "ENTIDAD": "TABASCO", "MUNICIPIO": "CENTLA", "PUEBLO INDIGENA O AFROMEXICANO": "YOKOT'AN\n(CHONTALDE\nTABASCO)", "LOCALIDAD": "LAS PORFÍAS", "CLAVE LOC": 270030087, "TIPO DE ASENTAMIENTO": "COMUNIDAD INDIGENA", "NOMBRE": "LAS PORFÍAS", "MONTO ASIGNADO (PESOS)": 291582, "LATITUD": 18.336757, "LONGITUD": -92.785055 }, "geometry": { "type": "Point", "coordinates": [ -92.785055, 18.336757 ] } },
{ "type": "Feature", "properties": { "NO": 39, "ENTIDAD": "TABASCO", "MUNICIPIO": "CENTLA", "PUEBLO INDIGENA O AFROMEXICANO": "YOKOT'AN\n(CHONTALDE\nTABASCO)", "LOCALIDAD": "LAS TIJERAS", "CLAVE LOC": 270030236, "TIPO DE ASENTAMIENTO": "COMUNIDAD INDIGENA", "NOMBRE": "LAS TIJERAS", "MONTO ASIGNADO (PESOS)": 274606, "LATITUD": 18.261822, "LONGITUD": -92.315728 }, "geometry": { "type": "Point", "coordinates": [ -92.315728, 18.261822 ] } },
{ "type": "Feature", "properties": { "NO": 40, "ENTIDAD": "TABASCO", "MUNICIPIO": "CENTLA", "PUEBLO INDIGENA O AFROMEXICANO": "YOKOT'AN\n(CHONTALDE\nTABASCO)", "LOCALIDAD": "LÁZARO CÁRDENAS", "CLAVE LOC": 270030242, "TIPO DE ASENTAMIENTO": "COMUNIDAD INDIGENA", "NOMBRE": "LÁZARO CÁRDENAS", "MONTO ASIGNADO (PESOS)": 923726, "LATITUD": 18.411519, "LONGITUD": -92.962342 }, "geometry": { "type": "Point", "coordinates": [ -92.962342, 18.411519 ] } },
{ "type": "Feature", "properties": { "NO": 41, "ENTIDAD": "TABASCO", "MUNICIPIO": "CENTLA", "PUEBLO INDIGENA O AFROMEXICANO": "YOKOT'AN\n(CHONTALDE\nTABASCO)", "LOCALIDAD": "LEANDRO ROVIROSA WADE 2DA. SECCIÓN", "CLAVE LOC": 270030249, "TIPO DE ASENTAMIENTO": "COMUNIDAD INDIGENA", "NOMBRE": "LEANDRO ROVIROSA WADE 2DA. SECCIÓN", "MONTO ASIGNADO (PESOS)": 340892, "LATITUD": 18.427212, "LONGITUD": -92.878772 }, "geometry": { "type": "Point", "coordinates": [ -92.878772, 18.427212 ] } },
{ "type": "Feature", "properties": { "NO": 42, "ENTIDAD": "TABASCO", "MUNICIPIO": "CENTLA", "PUEBLO INDIGENA O AFROMEXICANO": "YOKOT'AN\n(CHONTALDE\nTABASCO)", "LOCALIDAD": "LIBERTAD DE ALLENDE", "CLAVE LOC": 270030245, "TIPO DE ASENTAMIENTO": "COMUNIDAD INDIGENA", "NOMBRE": "LIBERTAD DE ALLENDE", "MONTO ASIGNADO (PESOS)": 289965, "LATITUD": 18.531917, "LONGITUD": -92.690854 }, "geometry": { "type": "Point", "coordinates": [ -92.690854, 18.531917 ] } },
{ "type": "Feature", "properties": { "NO": 43, "ENTIDAD": "TABASCO", "MUNICIPIO": "CENTLA", "PUEBLO INDIGENA O AFROMEXICANO": "YOKOT'AN\n(CHONTALDE\nTABASCO)", "LOCALIDAD": "MIGUEL HIDALGO 2DA. SECCIÓN", "CLAVE LOC": 270030091, "TIPO DE ASENTAMIENTO": "COMUNIDAD INDIGENA", "NOMBRE": "MIGUEL HIDALGO 2DA. SECCIÓN", "MONTO ASIGNADO (PESOS)": 798429, "LATITUD": 18.40321, "LONGITUD": -92.840036 }, "geometry": { "type": "Point", "coordinates": [ -92.840036, 18.40321 ] } },
{ "type": "Feature", "properties": { "NO": 44, "ENTIDAD": "TABASCO", "MUNICIPIO": "CENTLA", "PUEBLO INDIGENA O AFROMEXICANO": "YOKOT'AN\n(CHONTALDE\nTABASCO)", "LOCALIDAD": "NIÑOS HÉROES", "CLAVE LOC": 270030253, "TIPO DE ASENTAMIENTO": "COMUNIDAD INDIGENA", "NOMBRE": "NIÑOS HÉROES", "MONTO ASIGNADO (PESOS)": 394245, "LATITUD": 18.437908, "LONGITUD": -92.857054 }, "geometry": { "type": "Point", "coordinates": [ -92.857054, 18.437908 ] } },
{ "type": "Feature", "properties": { "NO": 45, "ENTIDAD": "TABASCO", "MUNICIPIO": "CENTLA", "PUEBLO INDIGENA O AFROMEXICANO": "YOKOT'AN\n(CHONTALDE\nTABASCO)", "LOCALIDAD": "NUEVA ESPERANZA DE QUINTÍN ARÁUZ", "CLAVE LOC": 270030092, "TIPO DE ASENTAMIENTO": "COMUNIDAD INDIGENA", "NOMBRE": "NUEVA ESPERANZA DE QUINTÍN ARÁUZ", "MONTO ASIGNADO (PESOS)": 490440, "LATITUD": 18.325327, "LONGITUD": -92.554278 }, "geometry": { "type": "Point", "coordinates": [ -92.554278, 18.325327 ] } },
{ "type": "Feature", "properties": { "NO": 46, "ENTIDAD": "TABASCO", "MUNICIPIO": "CENTLA", "PUEBLO INDIGENA O AFROMEXICANO": "YOKOT'AN\n(CHONTALDE\nTABASCO)", "LOCALIDAD": "POTRERILLO", "CLAVE LOC": 270030046, "TIPO DE ASENTAMIENTO": "COMUNIDAD INDIGENA", "NOMBRE": "POTRERILLO", "MONTO ASIGNADO (PESOS)": 575319, "LATITUD": 18.350411, "LONGITUD": -92.839353 }, "geometry": { "type": "Point", "coordinates": [ -92.839353, 18.350411 ] } },
{ "type": "Feature", "properties": { "NO": 47, "ENTIDAD": "TABASCO", "MUNICIPIO": "CENTLA", "PUEBLO INDIGENA O AFROMEXICANO": "YOKOT'AN\n(CHONTALDE\nTABASCO)", "LOCALIDAD": "QUINTÍN ARÁUZ", "CLAVE LOC": 270030048, "TIPO DE ASENTAMIENTO": "COMUNIDAD INDIGENA", "NOMBRE": "QUINTÍN ARÁUZ", "MONTO ASIGNADO (PESOS)": 1121776, "LATITUD": 18.323465, "LONGITUD": -92.558953 }, "geometry": { "type": "Point", "coordinates": [ -92.558953, 18.323465 ] } },
{ "type": "Feature", "properties": { "NO": 48, "ENTIDAD": "TABASCO", "MUNICIPIO": "CENTLA", "PUEBLO INDIGENA O AFROMEXICANO": "YOKOT'AN\n(CHONTALDE\nTABASCO)", "LOCALIDAD": "RIBERA ALTA 1RA. SECCIÓN", "CLAVE LOC": 270030049, "TIPO DE ASENTAMIENTO": "COMUNIDAD INDIGENA", "NOMBRE": "RIBERA ALTA 1RA. SECCIÓN", "MONTO ASIGNADO (PESOS)": 87873, "LATITUD": 18.344661, "LONGITUD": -92.54172 }, "geometry": { "type": "Point", "coordinates": [ -92.54172, 18.344661 ] } },
{ "type": "Feature", "properties": { "NO": 49, "ENTIDAD": "TABASCO", "MUNICIPIO": "CENTLA", "PUEBLO INDIGENA O AFROMEXICANO": "YOKOT'AN\n(CHONTALDE\nTABASCO)", "LOCALIDAD": "RIBERA ALTA 2DA. SECCIÓN", "CLAVE LOC": 270030306, "TIPO DE ASENTAMIENTO": "COMUNIDAD INDIGENA", "NOMBRE": "RIBERA ALTA 2DA. SECCIÓN", "MONTO ASIGNADO (PESOS)": 424963, "LATITUD": 18.339232, "LONGITUD": -92.488164 }, "geometry": { "type": "Point", "coordinates": [ -92.488164, 18.339232 ] } },
{ "type": "Feature", "properties": { "NO": 50, "ENTIDAD": "TABASCO", "MUNICIPIO": "CENTLA", "PUEBLO INDIGENA O AFROMEXICANO": "YOKOT'AN\n(CHONTALDE\nTABASCO)", "LOCALIDAD": "RIBERA ALTA 2DA. SECCIÓN (SALSIPUEDES)", "CLAVE LOC": 270030050, "TIPO DE ASENTAMIENTO": "COMUNIDAD INDIGENA", "NOMBRE": "RIBERA ALTA 2DA. SECCIÓN (SALSIPUEDES)", "MONTO ASIGNADO (PESOS)": 579361, "LATITUD": 18.353628, "LONGITUD": -92.503371 }, "geometry": { "type": "Point", "coordinates": [ -92.503371, 18.353628 ] } },
{ "type": "Feature", "properties": { "NO": 51, "ENTIDAD": "TABASCO", "MUNICIPIO": "CENTLA", "PUEBLO INDIGENA O AFROMEXICANO": "YOKOT'AN\n(CHONTALDE\nTABASCO)", "LOCALIDAD": "RIBERA ALTA 3RA. SECCIÓN", "CLAVE LOC": 270030147, "TIPO DE ASENTAMIENTO": "COMUNIDAD INDIGENA", "NOMBRE": "RIBERA ALTA 3RA. SECCIÓN", "MONTO ASIGNADO (PESOS)": 725676, "LATITUD": 18.387983, "LONGITUD": -92.565868 }, "geometry": { "type": "Point", "coordinates": [ -92.565868, 18.387983 ] } },
{ "type": "Feature", "properties": { "NO": 52, "ENTIDAD": "TABASCO", "MUNICIPIO": "CENTLA", "PUEBLO INDIGENA O AFROMEXICANO": "YOKOT'AN\n(CHONTALDE\nTABASCO)", "LOCALIDAD": "RIBERA ALTA DE CUAUHTÉMOC", "CLAVE LOC": 270030240, "TIPO DE ASENTAMIENTO": "COMUNIDAD INDIGENA", "NOMBRE": "RIBERA ALTA DE CUAUHTÉMOC", "MONTO ASIGNADO (PESOS)": 365952, "LATITUD": 18.399115, "LONGITUD": -92.940049 }, "geometry": { "type": "Point", "coordinates": [ -92.940049, 18.399115 ] } },
{ "type": "Feature", "properties": { "NO": 53, "ENTIDAD": "TABASCO", "MUNICIPIO": "CENTLA", "PUEBLO INDIGENA O AFROMEXICANO": "YOKOT'AN\n(CHONTALDE\nTABASCO)", "LOCALIDAD": "RIBERA ALTA SALSIPUEDES (SALSIPUEDES)", "CLAVE LOC": 270030237, "TIPO DE ASENTAMIENTO": "COMUNIDAD INDIGENA", "NOMBRE": "RIBERA ALTA SALSIPUEDES (SALSIPUEDES)", "MONTO ASIGNADO (PESOS)": 171943, "LATITUD": 18.357817, "LONGITUD": -92.493748 }, "geometry": { "type": "Point", "coordinates": [ -92.493748, 18.357817 ] } },
{ "type": "Feature", "properties": { "NO": 54, "ENTIDAD": "TABASCO", "MUNICIPIO": "CENTLA", "PUEBLO INDIGENA O AFROMEXICANO": "YOKOT'AN\n(CHONTALDE\nTABASCO)", "LOCALIDAD": "RÓMULO CACHÓN PONCE (HORMIGUERO)", "CLAVE LOC": 270030227, "TIPO DE ASENTAMIENTO": "COMUNIDAD INDIGENA", "NOMBRE": "RÓMULO CACHÓN PONCE (HORMIGUERO)", "MONTO ASIGNADO (PESOS)": 128608, "LATITUD": 18.158303, "LONGITUD": -92.581506 }, "geometry": { "type": "Point", "coordinates": [ -92.581506, 18.158303 ] } },
{ "type": "Feature", "properties": { "NO": 55, "ENTIDAD": "TABASCO", "MUNICIPIO": "CENTLA", "PUEBLO INDIGENA O AFROMEXICANO": "YOKOT'AN\n(CHONTALDE\nTABASCO)", "LOCALIDAD": "SAN JOSÉ DE SIMÓN SARLAT", "CLAVE LOC": 270030052, "TIPO DE ASENTAMIENTO": "COMUNIDAD INDIGENA", "NOMBRE": "SAN JOSÉ DE SIMÓN SARLAT", "MONTO ASIGNADO (PESOS)": 701425, "LATITUD": 18.351512, "LONGITUD": -92.766507 }, "geometry": { "type": "Point", "coordinates": [ -92.766507, 18.351512 ] } },
{ "type": "Feature", "properties": { "NO": 56, "ENTIDAD": "TABASCO", "MUNICIPIO": "CENTLA", "PUEBLO INDIGENA O AFROMEXICANO": "YOKOT'AN\n(CHONTALDE\nTABASCO)", "LOCALIDAD": "SAN JOSÉ DE SIMÓN SARLAT (EL COCO)", "CLAVE LOC": 270030335, "TIPO DE ASENTAMIENTO": "COMUNIDAD INDIGENA", "NOMBRE": "SAN JOSÉ DE SIMÓN SARLAT (EL COCO)", "MONTO ASIGNADO (PESOS)": 209128, "LATITUD": 18.348157, "LONGITUD": -92.780702 }, "geometry": { "type": "Point", "coordinates": [ -92.780702, 18.348157 ] } },
{ "type": "Feature", "properties": { "NO": 57, "ENTIDAD": "TABASCO", "MUNICIPIO": "CENTLA", "PUEBLO INDIGENA O AFROMEXICANO": "YOKOT'AN\n(CHONTALDE\nTABASCO)", "LOCALIDAD": "SAN JUANITO DE TRES BRAZOS", "CLAVE LOC": 270030152, "TIPO DE ASENTAMIENTO": "COMUNIDAD INDIGENA", "NOMBRE": "SAN JUANITO DE TRES BRAZOS", "MONTO ASIGNADO (PESOS)": 163051, "LATITUD": 18.393136, "LONGITUD": -92.651859 }, "geometry": { "type": "Point", "coordinates": [ -92.651859, 18.393136 ] } },
{ "type": "Feature", "properties": { "NO": 58, "ENTIDAD": "TABASCO", "MUNICIPIO": "CENTLA", "PUEBLO INDIGENA O AFROMEXICANO": "YOKOT'AN\n(CHONTALDE\nTABASCO)", "LOCALIDAD": "SAN ROQUE", "CLAVE LOC": 270030054, "TIPO DE ASENTAMIENTO": "COMUNIDAD INDIGENA", "NOMBRE": "SAN ROQUE", "MONTO ASIGNADO (PESOS)": 147692, "LATITUD": 18.322867, "LONGITUD": -92.666529 }, "geometry": { "type": "Point", "coordinates": [ -92.666529, 18.322867 ] } },
{ "type": "Feature", "properties": { "NO": 59, "ENTIDAD": "TABASCO", "MUNICIPIO": "CENTLA", "PUEBLO INDIGENA O AFROMEXICANO": "YOKOT'AN\n(CHONTALDE\nTABASCO)", "LOCALIDAD": "TABASQUILLO 1RA. SECCIÓN", "CLAVE LOC": 270030057, "TIPO DE ASENTAMIENTO": "COMUNIDAD INDIGENA", "NOMBRE": "TABASQUILLO 1RA. SECCIÓN", "MONTO ASIGNADO (PESOS)": 580978, "LATITUD": 18.359949, "LONGITUD": -92.724452 }, "geometry": { "type": "Point", "coordinates": [ -92.724452, 18.359949 ] } },
{ "type": "Feature", "properties": { "NO": 60, "ENTIDAD": "TABASCO", "MUNICIPIO": "CENTLA", "PUEBLO INDIGENA O AFROMEXICANO": "YOKOT'AN\n(CHONTALDE\nTABASCO)", "LOCALIDAD": "TABASQUILLO 2DA. SECCIÓN", "CLAVE LOC": 270030058, "TIPO DE ASENTAMIENTO": "COMUNIDAD INDIGENA", "NOMBRE": "TABASQUILLO 2DA. SECCIÓN", "MONTO ASIGNADO (PESOS)": 249547, "LATITUD": 18.375332, "LONGITUD": -92.787531 }, "geometry": { "type": "Point", "coordinates": [ -92.787531, 18.375332 ] } },
{ "type": "Feature", "properties": { "NO": 61, "ENTIDAD": "TABASCO", "MUNICIPIO": "CENTLA", "PUEBLO INDIGENA O AFROMEXICANO": "YOKOT'AN\n(CHONTALDE\nTABASCO)", "LOCALIDAD": "TRES BRAZOS", "CLAVE LOC": 270030059, "TIPO DE ASENTAMIENTO": "COMUNIDAD INDIGENA", "NOMBRE": "TRES BRAZOS", "MONTO ASIGNADO (PESOS)": 522775, "LATITUD": 18.389848, "LONGITUD": -92.612164 }, "geometry": { "type": "Point", "coordinates": [ -92.612164, 18.389848 ] } },
{ "type": "Feature", "properties": { "NO": 62, "ENTIDAD": "TABASCO", "MUNICIPIO": "CENTLA", "PUEBLO INDIGENA O AFROMEXICANO": "YOKOT'AN\n(CHONTALDE\nTABASCO)", "LOCALIDAD": "VEINTISIETE DE FEBRERO", "CLAVE LOC": 270030248, "TIPO DE ASENTAMIENTO": "COMUNIDAD INDIGENA", "NOMBRE": "VEINTISIETE DE FEBRERO", "MONTO ASIGNADO (PESOS)": 295624, "LATITUD": 18.424564, "LONGITUD": -92.858514 }, "geometry": { "type": "Point", "coordinates": [ -92.858514, 18.424564 ] } },
{ "type": "Feature", "properties": { "NO": 63, "ENTIDAD": "TABASCO", "MUNICIPIO": "CENTRO", "PUEBLO INDIGENA O AFROMEXICANO": "YOKOT'AN\n(CHONTALDE\nTABASCO)", "LOCALIDAD": "ANICETO", "CLAVE LOC": 270040291, "TIPO DE ASENTAMIENTO": "COMUNIDAD INDIGENA", "NOMBRE": "ANICETO", "MONTO ASIGNADO (PESOS)": 301282, "LATITUD": 18.155938, "LONGITUD": -92.790674 }, "geometry": { "type": "Point", "coordinates": [ -92.790674, 18.155938 ] } },
{ "type": "Feature", "properties": { "NO": 64, "ENTIDAD": "TABASCO", "MUNICIPIO": "CENTRO", "PUEBLO INDIGENA O AFROMEXICANO": "YOKOT'AN\n(CHONTALDE\nTABASCO)", "LOCALIDAD": "AZTLÁN 4TA. SECCIÓN (CORCHO Y CHILAPILLA)", "CLAVE LOC": 270040083, "TIPO DE ASENTAMIENTO": "COMUNIDAD INDIGENA", "NOMBRE": "AZTLÁN 4TA. SECCIÓN (CORCHO Y CHILAPILLA)", "MONTO ASIGNADO (PESOS)": 278648, "LATITUD": 18.144011, "LONGITUD": -92.708231 }, "geometry": { "type": "Point", "coordinates": [ -92.708231, 18.144011 ] } },
{ "type": "Feature", "properties": { "NO": 65, "ENTIDAD": "TABASCO", "MUNICIPIO": "CENTRO", "PUEBLO INDIGENA O AFROMEXICANO": "YOKOT'AN\n(CHONTALDE\nTABASCO)", "LOCALIDAD": "AZTLÁN 4TA. SECCIÓN (EL BAJÍO)", "CLAVE LOC": 270040313, "TIPO DE ASENTAMIENTO": "COMUNIDAD INDIGENA", "NOMBRE": "AZTLÁN 4TA. SECCIÓN (EL BAJÍO)", "MONTO ASIGNADO (PESOS)": 275414, "LATITUD": 18.167961, "LONGITUD": -92.71378 }, "geometry": { "type": "Point", "coordinates": [ -92.71378, 18.167961 ] } },
{ "type": "Feature", "properties": { "NO": 66, "ENTIDAD": "TABASCO", "MUNICIPIO": "CENTRO", "PUEBLO INDIGENA O AFROMEXICANO": "YOKOT'AN\n(CHONTALDE\nTABASCO)", "LOCALIDAD": "BUENA VISTA 2DA. SECCIÓN", "CLAVE LOC": 270040062, "TIPO DE ASENTAMIENTO": "COMUNIDAD INDIGENA", "NOMBRE": "BUENA VISTA 2DA. SECCIÓN", "MONTO ASIGNADO (PESOS)": 499093, "LATITUD": 18.150056, "LONGITUD": -92.752189 }, "geometry": { "type": "Point", "coordinates": [ -92.752189, 18.150056 ] } },
{ "type": "Feature", "properties": { "NO": 67, "ENTIDAD": "TABASCO", "MUNICIPIO": "CENTRO", "PUEBLO INDIGENA O AFROMEXICANO": "YOKOT'AN\n(CHONTALDE\nTABASCO)", "LOCALIDAD": "BUENA VISTA 3RA. SECCIÓN (BOCA DE ESCOBA)", "CLAVE LOC": 270040063, "TIPO DE ASENTAMIENTO": "COMUNIDAD INDIGENA", "NOMBRE": "BUENA VISTA 3RA. SECCIÓN (BOCA DE ESCOBA)", "MONTO ASIGNADO (PESOS)": 222062, "LATITUD": 18.174795, "LONGITUD": -92.717331 }, "geometry": { "type": "Point", "coordinates": [ -92.717331, 18.174795 ] } },
{ "type": "Feature", "properties": { "NO": 68, "ENTIDAD": "TABASCO", "MUNICIPIO": "CENTRO", "PUEBLO INDIGENA O AFROMEXICANO": "YOKOT'AN\n(CHONTALDE\nTABASCO)", "LOCALIDAD": "EL ALAMBRADO", "CLAVE LOC": 270040252, "TIPO DE ASENTAMIENTO": "COMUNIDAD INDIGENA", "NOMBRE": "EL ALAMBRADO", "MONTO ASIGNADO (PESOS)": 992437, "LATITUD": 18.161353, "LONGITUD": -92.79149 }, "geometry": { "type": "Point", "coordinates": [ -92.79149, 18.161353 ] } },
{ "type": "Feature", "properties": { "NO": 69, "ENTIDAD": "TABASCO", "MUNICIPIO": "CENTRO", "PUEBLO INDIGENA O AFROMEXICANO": "YOKOT'AN\n(CHONTALDE\nTABASCO)", "LOCALIDAD": "EL ESPINO", "CLAVE LOC": 270040088, "TIPO DE ASENTAMIENTO": "COMUNIDAD INDIGENA", "NOMBRE": "EL ESPINO", "MONTO ASIGNADO (PESOS)": 629480, "LATITUD": 18.249629, "LONGITUD": -92.832744 }, "geometry": { "type": "Point", "coordinates": [ -92.832744, 18.249629 ] } },
{ "type": "Feature", "properties": { "NO": 70, "ENTIDAD": "TABASCO", "MUNICIPIO": "CENTRO", "PUEBLO INDIGENA O AFROMEXICANO": "YOKOT'AN\n(CHONTALDE\nTABASCO)", "LOCALIDAD": "ESTANCIA", "CLAVE LOC": 270040089, "TIPO DE ASENTAMIENTO": "COMUNIDAD INDIGENA", "NOMBRE": "ESTANCIA", "MONTO ASIGNADO (PESOS)": 1566140, "LATITUD": 18.180904, "LONGITUD": -92.813151 }, "geometry": { "type": "Point", "coordinates": [ -92.813151, 18.180904 ] } },
{ "type": "Feature", "properties": { "NO": 71, "ENTIDAD": "TABASCO", "MUNICIPIO": "CENTRO", "PUEBLO INDIGENA O AFROMEXICANO": "YOKOT'AN\n(CHONTALDE\nTABASCO)", "LOCALIDAD": "GARCÍA", "CLAVE LOC": 270040315, "TIPO DE ASENTAMIENTO": "COMUNIDAD INDIGENA", "NOMBRE": "GARCÍA", "MONTO ASIGNADO (PESOS)": 133950, "LATITUD": 18.131969, "LONGITUD": -92.762298 }, "geometry": { "type": "Point", "coordinates": [ -92.762298, 18.131969 ] } },
{ "type": "Feature", "properties": { "NO": 72, "ENTIDAD": "TABASCO", "MUNICIPIO": "CENTRO", "PUEBLO INDIGENA O AFROMEXICANO": "YOKOT'AN\n(CHONTALDE\nTABASCO)", "LOCALIDAD": "JOLOCHERO (BOCA DE CULEBRA)", "CLAVE LOC": 270040300, "TIPO DE ASENTAMIENTO": "COMUNIDAD INDIGENA", "NOMBRE": "JOLOCHERO (BOCA DE CULEBRA)", "MONTO ASIGNADO (PESOS)": 349784, "LATITUD": 18.135211, "LONGITUD": -92.788332 }, "geometry": { "type": "Point", "coordinates": [ -92.788332, 18.135211 ] } },
{ "type": "Feature", "properties": { "NO": 73, "ENTIDAD": "TABASCO", "MUNICIPIO": "CENTRO", "PUEBLO INDIGENA O AFROMEXICANO": "YOKOT'AN\n(CHONTALDE\nTABASCO)", "LOCALIDAD": "JOLOCHERO 2DA. SECCIÓN", "CLAVE LOC": 270040119, "TIPO DE ASENTAMIENTO": "COMUNIDAD INDIGENA", "NOMBRE": "JOLOCHERO 2DA. SECCIÓN", "MONTO ASIGNADO (PESOS)": 1297192, "LATITUD": 18.121124, "LONGITUD": -92.798212 }, "geometry": { "type": "Point", "coordinates": [ -92.798212, 18.121124 ] } },
{ "type": "Feature", "properties": { "NO": 74, "ENTIDAD": "TABASCO", "MUNICIPIO": "CENTRO", "PUEBLO INDIGENA O AFROMEXICANO": "YOKOT'AN\n(CHONTALDE\nTABASCO)", "LOCALIDAD": "LA CEIBA", "CLAVE LOC": 270040196, "TIPO DE ASENTAMIENTO": "COMUNIDAD INDIGENA", "NOMBRE": "LA CEIBA", "MONTO ASIGNADO (PESOS)": 1054682, "LATITUD": 18.143794, "LONGITUD": -92.778037 }, "geometry": { "type": "Point", "coordinates": [ -92.778037, 18.143794 ] } },
{ "type": "Feature", "properties": { "NO": 75, "ENTIDAD": "TABASCO", "MUNICIPIO": "CENTRO", "PUEBLO INDIGENA O AFROMEXICANO": "YOKOT'AN\n(CHONTALDE\nTABASCO)", "LOCALIDAD": "LA LOMA", "CLAVE LOC": 270040194, "TIPO DE ASENTAMIENTO": "COMUNIDAD INDIGENA", "NOMBRE": "LA LOMA", "MONTO ASIGNADO (PESOS)": 816213, "LATITUD": 18.170392, "LONGITUD": -92.804783 }, "geometry": { "type": "Point", "coordinates": [ -92.804783, 18.170392 ] } },
{ "type": "Feature", "properties": { "NO": 76, "ENTIDAD": "TABASCO", "MUNICIPIO": "CENTRO", "PUEBLO INDIGENA O AFROMEXICANO": "YOKOT'AN\n(CHONTALDE\nTABASCO)", "LOCALIDAD": "LA MANGA", "CLAVE LOC": 270040193, "TIPO DE ASENTAMIENTO": "COMUNIDAD INDIGENA", "NOMBRE": "LA MANGA", "MONTO ASIGNADO (PESOS)": 931810, "LATITUD": 18.142527, "LONGITUD": -92.765046 }, "geometry": { "type": "Point", "coordinates": [ -92.765046, 18.142527 ] } },
{ "type": "Feature", "properties": { "NO": 77, "ENTIDAD": "TABASCO", "MUNICIPIO": "CENTRO", "PUEBLO INDIGENA O AFROMEXICANO": "YOKOT'AN\n(CHONTALDE\nTABASCO)", "LOCALIDAD": "MIRAMAR", "CLAVE LOC": 270040141, "TIPO DE ASENTAMIENTO": "COMUNIDAD INDIGENA", "NOMBRE": "MIRAMAR", "MONTO ASIGNADO (PESOS)": 1215547, "LATITUD": 18.134495, "LONGITUD": -92.760636 }, "geometry": { "type": "Point", "coordinates": [ -92.760636, 18.134495 ] } },
{ "type": "Feature", "properties": { "NO": 78, "ENTIDAD": "TABASCO", "MUNICIPIO": "CENTRO", "PUEBLO INDIGENA O AFROMEXICANO": "YOKOT'AN\n(CHONTALDE\nTABASCO)", "LOCALIDAD": "ROVIROSA", "CLAVE LOC": 270040253, "TIPO DE ASENTAMIENTO": "COMUNIDAD INDIGENA", "NOMBRE": "ROVIROSA", "MONTO ASIGNADO (PESOS)": 846931, "LATITUD": 18.16103, "LONGITUD": -92.768619 }, "geometry": { "type": "Point", "coordinates": [ -92.768619, 18.16103 ] } },
{ "type": "Feature", "properties": { "NO": 79, "ENTIDAD": "TABASCO", "MUNICIPIO": "COMALCALCO", "PUEBLO INDIGENA O AFROMEXICANO": "NAHUA", "LOCALIDAD": "LAGARTERA", "CLAVE LOC": 270050039, "TIPO DE ASENTAMIENTO": "COMUNIDAD INDIGENA", "NOMBRE": "LAGARTERA", "MONTO ASIGNADO (PESOS)": 101615, "LATITUD": 18.2333, "LONGITUD": -93.138133 }, "geometry": { "type": "Point", "coordinates": [ -93.138133, 18.2333 ] } },
{ "type": "Feature", "properties": { "NO": 80, "ENTIDAD": "TABASCO", "MUNICIPIO": "JALPA DE MÉNDEZ", "PUEBLO INDIGENA O AFROMEXICANO": "AYAPANECO", "LOCALIDAD": "AYAPA", "CLAVE LOC": 270100003, "TIPO DE ASENTAMIENTO": "COMUNIDAD INDIGENA", "NOMBRE": "AYAPA", "MONTO ASIGNADO (PESOS)": 237421, "LATITUD": 18.223522, "LONGITUD": -93.111308 }, "geometry": { "type": "Point", "coordinates": [ -93.111308, 18.223522 ] } },
{ "type": "Feature", "properties": { "NO": 81, "ENTIDAD": "TABASCO", "MUNICIPIO": "JALPA DE MÉNDEZ", "PUEBLO INDIGENA O AFROMEXICANO": "YOKOT'AN\n(CHONTALDE\nTABASCO)", "LOCALIDAD": "EL CARMEN", "CLAVE LOC": 270100059, "TIPO DE ASENTAMIENTO": "COMUNIDAD INDIGENA", "NOMBRE": "EL CARMEN", "MONTO ASIGNADO (PESOS)": 603612, "LATITUD": 18.214764, "LONGITUD": -93.151915 }, "geometry": { "type": "Point", "coordinates": [ -93.151915, 18.214764 ] } },
{ "type": "Feature", "properties": { "NO": 82, "ENTIDAD": "TABASCO", "MUNICIPIO": "JALPA DE MÉNDEZ", "PUEBLO INDIGENA O AFROMEXICANO": "YOKOT'AN\n(CHONTALDE\nTABASCO)", "LOCALIDAD": "EL NOVILLERO", "CLAVE LOC": 270100046, "TIPO DE ASENTAMIENTO": "COMUNIDAD INDIGENA", "NOMBRE": "EL NOVILLERO", "MONTO ASIGNADO (PESOS)": 960911, "LATITUD": 18.249514, "LONGITUD": -93.092645 }, "geometry": { "type": "Point", "coordinates": [ -93.092645, 18.249514 ] } },
{ "type": "Feature", "properties": { "NO": 83, "ENTIDAD": "TABASCO", "MUNICIPIO": "JALPA DE MÉNDEZ", "PUEBLO INDIGENA O AFROMEXICANO": "YOKOT'AN\n(CHONTALDE\nTABASCO)", "LOCALIDAD": "EL RECREO", "CLAVE LOC": 270100027, "TIPO DE ASENTAMIENTO": "COMUNIDAD INDIGENA", "NOMBRE": "EL RECREO", "MONTO ASIGNADO (PESOS)": 1038514, "LATITUD": 18.280838, "LONGITUD": -93.09391 }, "geometry": { "type": "Point", "coordinates": [ -93.09391, 18.280838 ] } },
{ "type": "Feature", "properties": { "NO": 84, "ENTIDAD": "TABASCO", "MUNICIPIO": "JALPA DE MÉNDEZ", "PUEBLO INDIGENA O AFROMEXICANO": "YOKOT'AN\n(CHONTALDE\nTABASCO)", "LOCALIDAD": "EL RÍO", "CLAVE LOC": 270100031, "TIPO DE ASENTAMIENTO": "COMUNIDAD INDIGENA", "NOMBRE": "EL RÍO", "MONTO ASIGNADO (PESOS)": 1567996, "LATITUD": 18.148957, "LONGITUD": -93.059854 }, "geometry": { "type": "Point", "coordinates": [ -93.059854, 18.148957 ] } },
{ "type": "Feature", "properties": { "NO": 85, "ENTIDAD": "TABASCO", "MUNICIPIO": "JALPA DE MÉNDEZ", "PUEBLO INDIGENA O AFROMEXICANO": "YOKOT'AN\n(CHONTALDE\nTABASCO)", "LOCALIDAD": "IQUINUAPA (EL CLAVO)", "CLAVE LOC": 270100018, "TIPO DE ASENTAMIENTO": "COMUNIDAD INDIGENA", "NOMBRE": "IQUINUAPA (EL CLAVO)", "MONTO ASIGNADO (PESOS)": 1466141, "LATITUD": 18.192057, "LONGITUD": -93.124904 }, "geometry": { "type": "Point", "coordinates": [ -93.124904, 18.192057 ] } },
{ "type": "Feature", "properties": { "NO": 86, "ENTIDAD": "TABASCO", "MUNICIPIO": "JALPA DE MÉNDEZ", "PUEBLO INDIGENA O AFROMEXICANO": "YOKOT'AN\n(CHONTALDE\nTABASCO)", "LOCALIDAD": "LA CEIBA", "CLAVE LOC": 270100008, "TIPO DE ASENTAMIENTO": "COMUNIDAD INDIGENA", "NOMBRE": "LA CEIBA", "MONTO ASIGNADO (PESOS)": 593103, "LATITUD": 18.250519, "LONGITUD": -93.075946 }, "geometry": { "type": "Point", "coordinates": [ -93.075946, 18.250519 ] } },
{ "type": "Feature", "properties": { "NO": 87, "ENTIDAD": "TABASCO", "MUNICIPIO": "JALPA DE MÉNDEZ", "PUEBLO INDIGENA O AFROMEXICANO": "YOKOT'AN\n(CHONTALDE\nTABASCO)", "LOCALIDAD": "LA GUADALUPE", "CLAVE LOC": 270100075, "TIPO DE ASENTAMIENTO": "COMUNIDAD INDIGENA", "NOMBRE": "LA GUADALUPE", "MONTO ASIGNADO (PESOS)": 587445, "LATITUD": 18.273932, "LONGITUD": -93.077568 }, "geometry": { "type": "Point", "coordinates": [ -93.077568, 18.273932 ] } },
{ "type": "Feature", "properties": { "NO": 88, "ENTIDAD": "TABASCO", "MUNICIPIO": "JALPA DE MÉNDEZ", "PUEBLO INDIGENA O AFROMEXICANO": "YOKOT'AN\n(CHONTALDE\nTABASCO)", "LOCALIDAD": "MECOACÁN", "CLAVE LOC": 270100023, "TIPO DE ASENTAMIENTO": "COMUNIDAD INDIGENA", "NOMBRE": "MECOACÁN", "MONTO ASIGNADO (PESOS)": 112932, "LATITUD": 18.237576, "LONGITUD": -93.082803 }, "geometry": { "type": "Point", "coordinates": [ -93.082803, 18.237576 ] } },
{ "type": "Feature", "properties": { "NO": 89, "ENTIDAD": "TABASCO", "MUNICIPIO": "JALPA DE MÉNDEZ", "PUEBLO INDIGENA O AFROMEXICANO": "YOKOT'AN\n(CHONTALDE\nTABASCO)", "LOCALIDAD": "NABOR CORNELIO ÁLVAREZ", "CLAVE LOC": 270100061, "TIPO DE ASENTAMIENTO": "COMUNIDAD INDIGENA", "NOMBRE": "NABOR CORNELIO ÁLVAREZ", "MONTO ASIGNADO (PESOS)": 284306, "LATITUD": 18.139554, "LONGITUD": -93.114223 }, "geometry": { "type": "Point", "coordinates": [ -93.114223, 18.139554 ] } },
{ "type": "Feature", "properties": { "NO": 90, "ENTIDAD": "TABASCO", "MUNICIPIO": "JALPA DE MÉNDEZ", "PUEBLO INDIGENA O AFROMEXICANO": "YOKOT'AN\n(CHONTALDE\nTABASCO)", "LOCALIDAD": "PUEBLO VIEJO", "CLAVE LOC": 270100026, "TIPO DE ASENTAMIENTO": "COMUNIDAD INDIGENA", "NOMBRE": "PUEBLO VIEJO", "MONTO ASIGNADO (PESOS)": 1112884, "LATITUD": 18.201459, "LONGITUD": -93.086428 }, "geometry": { "type": "Point", "coordinates": [ -93.086428, 18.201459 ] } },
{ "type": "Feature", "properties": { "NO": 91, "ENTIDAD": "TABASCO", "MUNICIPIO": "JALPA DE MÉNDEZ", "PUEBLO INDIGENA O AFROMEXICANO": "YOKOT'AN\n(CHONTALDE\nTABASCO)", "LOCALIDAD": "SAN HIPÓLITO", "CLAVE LOC": 270100048, "TIPO DE ASENTAMIENTO": "COMUNIDAD INDIGENA", "NOMBRE": "SAN HIPÓLITO", "MONTO ASIGNADO (PESOS)": 833189, "LATITUD": 18.119596, "LONGITUD": -93.121792 }, "geometry": { "type": "Point", "coordinates": [ -93.121792, 18.119596 ] } },
{ "type": "Feature", "properties": { "NO": 92, "ENTIDAD": "TABASCO", "MUNICIPIO": "JALPA DE MÉNDEZ", "PUEBLO INDIGENA O AFROMEXICANO": "YOKOT'AN\n(CHONTALDE\nTABASCO)", "LOCALIDAD": "SANTUARIO 1RA. SECCIÓN", "CLAVE LOC": 270100035, "TIPO DE ASENTAMIENTO": "COMUNIDAD INDIGENA", "NOMBRE": "SANTUARIO 1RA. SECCIÓN", "MONTO ASIGNADO (PESOS)": 969803, "LATITUD": 18.198941, "LONGITUD": -93.057713 }, "geometry": { "type": "Point", "coordinates": [ -93.057713, 18.198941 ] } },
{ "type": "Feature", "properties": { "NO": 93, "ENTIDAD": "TABASCO", "MUNICIPIO": "JALPA DE MÉNDEZ", "PUEBLO INDIGENA O AFROMEXICANO": "YOKOT'AN\n(CHONTALDE\nTABASCO)", "LOCALIDAD": "SANTUARIO 2DA. SECCIÓN", "CLAVE LOC": 270100037, "TIPO DE ASENTAMIENTO": "COMUNIDAD INDIGENA", "NOMBRE": "SANTUARIO 2DA. SECCIÓN", "MONTO ASIGNADO (PESOS)": 871990, "LATITUD": 18.198226, "LONGITUD": -93.035425 }, "geometry": { "type": "Point", "coordinates": [ -93.035425, 18.198226 ] } },
{ "type": "Feature", "properties": { "NO": 94, "ENTIDAD": "TABASCO", "MUNICIPIO": "JONUTA", "PUEBLO INDIGENA O AFROMEXICANO": "YOKOT'AN\n(CHONTALDE\nTABASCO)", "LOCALIDAD": "LÁZARO CÁRDENAS", "CLAVE LOC": 270110041, "TIPO DE ASENTAMIENTO": "COMUNIDAD INDIGENA", "NOMBRE": "LÁZARO CÁRDENAS", "MONTO ASIGNADO (PESOS)": 170326, "LATITUD": 17.901759, "LONGITUD": -92.167304 }, "geometry": { "type": "Point", "coordinates": [ -92.167304, 17.901759 ] } },
{ "type": "Feature", "properties": { "NO": 95, "ENTIDAD": "TABASCO", "MUNICIPIO": "JONUTA", "PUEBLO INDIGENA O AFROMEXICANO": "YOKOT'AN\n(CHONTALDE\nTABASCO)", "LOCALIDAD": "MONTE GRANDE", "CLAVE LOC": 270110019, "TIPO DE ASENTAMIENTO": "COMUNIDAD INDIGENA", "NOMBRE": "MONTE GRANDE", "MONTO ASIGNADO (PESOS)": 1762004, "LATITUD": 17.935675, "LONGITUD": -92.26405 }, "geometry": { "type": "Point", "coordinates": [ -92.26405, 17.935675 ] } },
{ "type": "Feature", "properties": { "NO": 96, "ENTIDAD": "TABASCO", "MUNICIPIO": "MACUSPANA", "PUEBLO INDIGENA O AFROMEXICANO": "YOKOT'AN\n(CHONTALDE\nTABASCO)", "LOCALIDAD": "BAYONA", "CLAVE LOC": 270120125, "TIPO DE ASENTAMIENTO": "COMUNIDAD INDIGENA", "NOMBRE": "BAYONA", "MONTO ASIGNADO (PESOS)": 305324, "LATITUD": 17.837766, "LONGITUD": -92.581521 }, "geometry": { "type": "Point", "coordinates": [ -92.581521, 17.837766 ] } },
{ "type": "Feature", "properties": { "NO": 97, "ENTIDAD": "TABASCO", "MUNICIPIO": "MACUSPANA", "PUEBLO INDIGENA O AFROMEXICANO": "YOKOT'AN\n(CHONTALDE\nTABASCO)", "LOCALIDAD": "BENITO JUÁREZ", "CLAVE LOC": 270120210, "TIPO DE ASENTAMIENTO": "COMUNIDAD INDIGENA", "NOMBRE": "BENITO JUÁREZ", "MONTO ASIGNADO (PESOS)": 366760, "LATITUD": 17.835875, "LONGITUD": -92.542307 }, "geometry": { "type": "Point", "coordinates": [ -92.542307, 17.835875 ] } },
{ "type": "Feature", "properties": { "NO": 98, "ENTIDAD": "TABASCO", "MUNICIPIO": "MACUSPANA", "PUEBLO INDIGENA O AFROMEXICANO": "YOKOT'AN\n(CHONTALDE\nTABASCO)", "LOCALIDAD": "CACAHUATALILLO", "CLAVE LOC": 270120165, "TIPO DE ASENTAMIENTO": "COMUNIDAD INDIGENA", "NOMBRE": "CACAHUATALILLO", "MONTO ASIGNADO (PESOS)": 823488, "LATITUD": 17.814821, "LONGITUD": -92.529315 }, "geometry": { "type": "Point", "coordinates": [ -92.529315, 17.814821 ] } },
{ "type": "Feature", "properties": { "NO": 99, "ENTIDAD": "TABASCO", "MUNICIPIO": "MACUSPANA", "PUEBLO INDIGENA O AFROMEXICANO": "CH'OL", "LOCALIDAD": "CHIVALITO 2DA. SECCIÓN", "CLAVE LOC": 270120041, "TIPO DE ASENTAMIENTO": "COMUNIDAD INDIGENA", "NOMBRE": "CHIVALITO 2DA. SECCIÓN", "MONTO ASIGNADO (PESOS)": 492057, "LATITUD": 17.598624, "LONGITUD": -92.427257 }, "geometry": { "type": "Point", "coordinates": [ -92.427257, 17.598624 ] } },
{ "type": "Feature", "properties": { "NO": 100, "ENTIDAD": "TABASCO", "MUNICIPIO": "MACUSPANA", "PUEBLO INDIGENA O AFROMEXICANO": "CH'OL", "LOCALIDAD": "CHIVALITO 4TA. SECCIÓN", "CLAVE LOC": 270120139, "TIPO DE ASENTAMIENTO": "COMUNIDAD INDIGENA", "NOMBRE": "CHIVALITO 4TA. SECCIÓN", "MONTO ASIGNADO (PESOS)": 326342, "LATITUD": 17.590901, "LONGITUD": -92.423477 }, "geometry": { "type": "Point", "coordinates": [ -92.423477, 17.590901 ] } },
{ "type": "Feature", "properties": { "NO": 101, "ENTIDAD": "TABASCO", "MUNICIPIO": "MACUSPANA", "PUEBLO INDIGENA O AFROMEXICANO": "CH'OL", "LOCALIDAD": "LA CANDELARIA", "CLAVE LOC": 270120276, "TIPO DE ASENTAMIENTO": "LOCALIDAD CON POBLACION INDIGENA", "NOMBRE": "LA CANDELARIA", "MONTO ASIGNADO (PESOS)": 162527, "LATITUD": 17.562898, "LONGITUD": -92.542961 }, "geometry": { "type": "Point", "coordinates": [ -92.542961, 17.562898 ] } },
{ "type": "Feature", "properties": { "NO": 102, "ENTIDAD": "TABASCO", "MUNICIPIO": "MACUSPANA", "PUEBLO INDIGENA O AFROMEXICANO": "YOKOT'AN\n(CHONTALDE\nTABASCO)", "LOCALIDAD": "LAS FERIAS", "CLAVE LOC": 270120209, "TIPO DE ASENTAMIENTO": "COMUNIDAD INDIGENA", "NOMBRE": "LAS FERIAS", "MONTO ASIGNADO (PESOS)": 710317, "LATITUD": 17.854986, "LONGITUD": -92.530707 }, "geometry": { "type": "Point", "coordinates": [ -92.530707, 17.854986 ] } },
{ "type": "Feature", "properties": { "NO": 103, "ENTIDAD": "TABASCO", "MUNICIPIO": "MACUSPANA", "PUEBLO INDIGENA O AFROMEXICANO": "CH'OL", "LOCALIDAD": "MELCHOR OCAMPO 1RA. SECCIÓN", "CLAVE LOC": 270120077, "TIPO DE ASENTAMIENTO": "COMUNIDAD INDIGENA", "NOMBRE": "MELCHOR OCAMPO 1RA. SECCIÓN", "MONTO ASIGNADO (PESOS)": 475890, "LATITUD": 17.576917, "LONGITUD": -92.484754 }, "geometry": { "type": "Point", "coordinates": [ -92.484754, 17.576917 ] } },
{ "type": "Feature", "properties": { "NO": 104, "ENTIDAD": "TABASCO", "MUNICIPIO": "MACUSPANA", "PUEBLO INDIGENA O AFROMEXICANO": "CH'OL", "LOCALIDAD": "MELCHOR OCAMPO 2DA. SECCIÓN", "CLAVE LOC": 270120134, "TIPO DE ASENTAMIENTO": "COMUNIDAD INDIGENA", "NOMBRE": "MELCHOR OCAMPO 2DA. SECCIÓN", "MONTO ASIGNADO (PESOS)": 634330, "LATITUD": 17.57829, "LONGITUD": -92.452058 }, "geometry": { "type": "Point", "coordinates": [ -92.452058, 17.57829 ] } },
{ "type": "Feature", "properties": { "NO": 105, "ENTIDAD": "TABASCO", "MUNICIPIO": "MACUSPANA", "PUEBLO INDIGENA O AFROMEXICANO": "CH'OL", "LOCALIDAD": "MELCHOR OCAMPO 3RA. SECCIÓN", "CLAVE LOC": 270120226, "TIPO DE ASENTAMIENTO": "COMUNIDAD INDIGENA", "NOMBRE": "MELCHOR OCAMPO 3RA. SECCIÓN", "MONTO ASIGNADO (PESOS)": 325533, "LATITUD": 17.577478, "LONGITUD": -92.428647 }, "geometry": { "type": "Point", "coordinates": [ -92.428647, 17.577478 ] } },
{ "type": "Feature", "properties": { "NO": 106, "ENTIDAD": "TABASCO", "MUNICIPIO": "MACUSPANA", "PUEBLO INDIGENA O AFROMEXICANO": "YOKOT'AN\n(CHONTALDE\nTABASCO)", "LOCALIDAD": "NUEVA ESPERANZA", "CLAVE LOC": 270120233, "TIPO DE ASENTAMIENTO": "COMUNIDAD INDIGENA", "NOMBRE": "NUEVA ESPERANZA", "MONTO ASIGNADO (PESOS)": 691724, "LATITUD": 17.873582, "LONGITUD": -92.543327 }, "geometry": { "type": "Point", "coordinates": [ -92.543327, 17.873582 ] } },
{ "type": "Feature", "properties": { "NO": 107, "ENTIDAD": "TABASCO", "MUNICIPIO": "MACUSPANA", "PUEBLO INDIGENA O AFROMEXICANO": "CH'OL", "LOCALIDAD": "PALOMAS", "CLAVE LOC": 270120087, "TIPO DE ASENTAMIENTO": "COMUNIDAD INDIGENA", "NOMBRE": "PALOMAS", "MONTO ASIGNADO (PESOS)": 1352161, "LATITUD": 17.655593, "LONGITUD": -92.476837 }, "geometry": { "type": "Point", "coordinates": [ -92.476837, 17.655593 ] } },
{ "type": "Feature", "properties": { "NO": 108, "ENTIDAD": "TABASCO", "MUNICIPIO": "MACUSPANA", "PUEBLO INDIGENA O AFROMEXICANO": "CH'OL", "LOCALIDAD": "PROFESOR CAPARROSO 1RA. SECCIÓN", "CLAVE LOC": 270120095, "TIPO DE ASENTAMIENTO": "COMUNIDAD INDIGENA", "NOMBRE": "PROFESOR CAPARROSO 1RA. SECCIÓN", "MONTO ASIGNADO (PESOS)": 690107, "LATITUD": 17.623297, "LONGITUD": -92.498144 }, "geometry": { "type": "Point", "coordinates": [ -92.498144, 17.623297 ] } },
{ "type": "Feature", "properties": { "NO": 109, "ENTIDAD": "TABASCO", "MUNICIPIO": "MACUSPANA", "PUEBLO INDIGENA O AFROMEXICANO": "CH'OL", "LOCALIDAD": "PROFESOR CAPARROSO 2DA. SECCIÓN", "CLAVE LOC": 270120096, "TIPO DE ASENTAMIENTO": "COMUNIDAD INDIGENA", "NOMBRE": "PROFESOR CAPARROSO 2DA. SECCIÓN", "MONTO ASIGNADO (PESOS)": 1028814, "LATITUD": 17.615428, "LONGITUD": -92.515928 }, "geometry": { "type": "Point", "coordinates": [ -92.515928, 17.615428 ] } },
{ "type": "Feature", "properties": { "NO": 110, "ENTIDAD": "TABASCO", "MUNICIPIO": "MACUSPANA", "PUEBLO INDIGENA O AFROMEXICANO": "CH'OL", "LOCALIDAD": "SAN JOSÉ", "CLAVE LOC": 270120256, "TIPO DE ASENTAMIENTO": "COMUNIDAD INDIGENA", "NOMBRE": "SAN JOSÉ", "MONTO ASIGNADO (PESOS)": 297240, "LATITUD": 17.624585, "LONGITUD": -92.411323 }, "geometry": { "type": "Point", "coordinates": [ -92.411323, 17.624585 ] } },
{ "type": "Feature", "properties": { "NO": 111, "ENTIDAD": "TABASCO", "MUNICIPIO": "MACUSPANA", "PUEBLO INDIGENA O AFROMEXICANO": "YOKOT'AN\n(CHONTALDE\nTABASCO)", "LOCALIDAD": "SAN JUAN BAUTISTA", "CLAVE LOC": 270120239, "TIPO DE ASENTAMIENTO": "COMUNIDAD INDIGENA", "NOMBRE": "SAN JUAN BAUTISTA", "MONTO ASIGNADO (PESOS)": 576127, "LATITUD": 17.849169, "LONGITUD": -92.535635 }, "geometry": { "type": "Point", "coordinates": [ -92.535635, 17.849169 ] } },
{ "type": "Feature", "properties": { "NO": 112, "ENTIDAD": "TABASCO", "MUNICIPIO": "MACUSPANA", "PUEBLO INDIGENA O AFROMEXICANO": "YOKOT'AN\n(CHONTALDE\nTABASCO)", "LOCALIDAD": "SIMÓN SARLAT 2DA. SECCIÓN (SAN MARTÍN)", "CLAVE LOC": 270120269, "TIPO DE ASENTAMIENTO": "COMUNIDAD INDIGENA", "NOMBRE": "SIMÓN SARLAT 2DA. SECCIÓN (SAN MARTÍN)", "MONTO ASIGNADO (PESOS)": 285115, "LATITUD": 17.800848, "LONGITUD": -92.519595 }, "geometry": { "type": "Point", "coordinates": [ -92.519595, 17.800848 ] } },
{ "type": "Feature", "properties": { "NO": 113, "ENTIDAD": "TABASCO", "MUNICIPIO": "MACUSPANA", "PUEBLO INDIGENA O AFROMEXICANO": "YOKOT'AN\n(CHONTALDE\nTABASCO)", "LOCALIDAD": "TEPETITÁN", "CLAVE LOC": 270120104, "TIPO DE ASENTAMIENTO": "COMUNIDAD INDIGENA", "NOMBRE": "TEPETITÁN", "MONTO ASIGNADO (PESOS)": 1285067, "LATITUD": 17.819131, "LONGITUD": -92.372237 }, "geometry": { "type": "Point", "coordinates": [ -92.372237, 17.819131 ] } },
{ "type": "Feature", "properties": { "NO": 114, "ENTIDAD": "TABASCO", "MUNICIPIO": "MACUSPANA", "PUEBLO INDIGENA O AFROMEXICANO": "YOKOT'AN\n(CHONTALDE\nTABASCO)", "LOCALIDAD": "VERNET 3RA. SECCIÓN", "CLAVE LOC": 270120111, "TIPO DE ASENTAMIENTO": "COMUNIDAD INDIGENA", "NOMBRE": "VERNET 3RA. SECCIÓN", "MONTO ASIGNADO (PESOS)": 1851733, "LATITUD": 17.868997, "LONGITUD": -92.557438 }, "geometry": { "type": "Point", "coordinates": [ -92.557438, 17.868997 ] } },
{ "type": "Feature", "properties": { "NO": 115, "ENTIDAD": "TABASCO", "MUNICIPIO": "MACUSPANA", "PUEBLO INDIGENA O AFROMEXICANO": "CH'OL", "LOCALIDAD": "ZOPO NORTE", "CLAVE LOC": 270120118, "TIPO DE ASENTAMIENTO": "COMUNIDAD INDIGENA", "NOMBRE": "ZOPO NORTE", "MONTO ASIGNADO (PESOS)": 851781, "LATITUD": 17.641516, "LONGITUD": -92.423678 }, "geometry": { "type": "Point", "coordinates": [ -92.423678, 17.641516 ] } },
{ "type": "Feature", "properties": { "NO": 116, "ENTIDAD": "TABASCO", "MUNICIPIO": "MACUSPANA", "PUEBLO INDIGENA O AFROMEXICANO": "CH'OL", "LOCALIDAD": "ZOPO SUR", "CLAVE LOC": 270120155, "TIPO DE ASENTAMIENTO": "COMUNIDAD INDIGENA", "NOMBRE": "ZOPO SUR", "MONTO ASIGNADO (PESOS)": 282690, "LATITUD": 17.608716, "LONGITUD": -92.402769 }, "geometry": { "type": "Point", "coordinates": [ -92.402769, 17.608716 ] } },
{ "type": "Feature", "properties": { "NO": 117, "ENTIDAD": "TABASCO", "MUNICIPIO": "NACAJUCA", "PUEBLO INDIGENA O AFROMEXICANO": "YOKOT'AN\n(CHONTALDE\nTABASCO)", "LOCALIDAD": "BANDERAS (GUATACALCA 2DA. SECCIÓN)", "CLAVE LOC": 270130004, "TIPO DE ASENTAMIENTO": "COMUNIDAD INDIGENA", "NOMBRE": "BANDERAS (GUATACALCA 2DA. SECCIÓN)", "MONTO ASIGNADO (PESOS)": 1250307, "LATITUD": 18.151973, "LONGITUD": -92.900111 }, "geometry": { "type": "Point", "coordinates": [ -92.900111, 18.151973 ] } },
{ "type": "Feature", "properties": { "NO": 118, "ENTIDAD": "TABASCO", "MUNICIPIO": "NACAJUCA", "PUEBLO INDIGENA O AFROMEXICANO": "YOKOT'AN\n(CHONTALDE\nTABASCO)", "LOCALIDAD": "BELÉN", "CLAVE LOC": 270130040, "TIPO DE ASENTAMIENTO": "COMUNIDAD INDIGENA", "NOMBRE": "BELÉN", "MONTO ASIGNADO (PESOS)": 377269, "LATITUD": 18.201858, "LONGITUD": -92.953441 }, "geometry": { "type": "Point", "coordinates": [ -92.953441, 18.201858 ] } },
{ "type": "Feature", "properties": { "NO": 119, "ENTIDAD": "TABASCO", "MUNICIPIO": "NACAJUCA", "PUEBLO INDIGENA O AFROMEXICANO": "YOKOT'AN\n(CHONTALDE\nTABASCO)", "LOCALIDAD": "CANTEMOC 1RA. SECCIÓN", "CLAVE LOC": 270130047, "TIPO DE ASENTAMIENTO": "COMUNIDAD INDIGENA", "NOMBRE": "CANTEMOC 1RA. SECCIÓN", "MONTO ASIGNADO (PESOS)": 458914, "LATITUD": 18.22266, "LONGITUD": -92.884717 }, "geometry": { "type": "Point", "coordinates": [ -92.884717, 18.22266 ] } },
{ "type": "Feature", "properties": { "NO": 120, "ENTIDAD": "TABASCO", "MUNICIPIO": "NACAJUCA", "PUEBLO INDIGENA O AFROMEXICANO": "YOKOT'AN\n(CHONTALDE\nTABASCO)", "LOCALIDAD": "CANTEMOC 2DA. SECCIÓN", "CLAVE LOC": 270130048, "TIPO DE ASENTAMIENTO": "COMUNIDAD INDIGENA", "NOMBRE": "CANTEMOC 2DA. SECCIÓN", "MONTO ASIGNADO (PESOS)": 237421, "LATITUD": 18.21682, "LONGITUD": -92.87808 }, "geometry": { "type": "Point", "coordinates": [ -92.87808, 18.21682 ] } },
{ "type": "Feature", "properties": { "NO": 121, "ENTIDAD": "TABASCO", "MUNICIPIO": "NACAJUCA", "PUEBLO INDIGENA O AFROMEXICANO": "YOKOT'AN\n(CHONTALDE\nTABASCO)", "LOCALIDAD": "CHICOZAPOTE", "CLAVE LOC": 270130010, "TIPO DE ASENTAMIENTO": "COMUNIDAD INDIGENA", "NOMBRE": "CHICOZAPOTE", "MONTO ASIGNADO (PESOS)": 207511, "LATITUD": 18.230797, "LONGITUD": -92.901092 }, "geometry": { "type": "Point", "coordinates": [ -92.901092, 18.230797 ] } },
{ "type": "Feature", "properties": { "NO": 122, "ENTIDAD": "TABASCO", "MUNICIPIO": "NACAJUCA", "PUEBLO INDIGENA O AFROMEXICANO": "YOKOT'AN\n(CHONTALDE\nTABASCO)", "LOCALIDAD": "CHICOZAPOTE", "CLAVE LOC": 270130043, "TIPO DE ASENTAMIENTO": "COMUNIDAD INDIGENA", "NOMBRE": "CHICOZAPOTE", "MONTO ASIGNADO (PESOS)": 597145, "LATITUD": 18.212349, "LONGITUD": -92.917173 }, "geometry": { "type": "Point", "coordinates": [ -92.917173, 18.212349 ] } },
{ "type": "Feature", "properties": { "NO": 123, "ENTIDAD": "TABASCO", "MUNICIPIO": "NACAJUCA", "PUEBLO INDIGENA O AFROMEXICANO": "YOKOT'AN\n(CHONTALDE\nTABASCO)", "LOCALIDAD": "EL CHIFLÓN", "CLAVE LOC": 270130065, "TIPO DE ASENTAMIENTO": "COMUNIDAD INDIGENA", "NOMBRE": "EL CHIFLÓN", "MONTO ASIGNADO (PESOS)": 386969, "LATITUD": 18.209531, "LONGITUD": -92.943383 }, "geometry": { "type": "Point", "coordinates": [ -92.943383, 18.209531 ] } },
{ "type": "Feature", "properties": { "NO": 124, "ENTIDAD": "TABASCO", "MUNICIPIO": "NACAJUCA", "PUEBLO INDIGENA O AFROMEXICANO": "YOKOT'AN\n(CHONTALDE\nTABASCO)", "LOCALIDAD": "EL COMETA", "CLAVE LOC": 270130050, "TIPO DE ASENTAMIENTO": "COMUNIDAD INDIGENA", "NOMBRE": "EL COMETA", "MONTO ASIGNADO (PESOS)": 145267, "LATITUD": 18.195486, "LONGITUD": -92.909525 }, "geometry": { "type": "Point", "coordinates": [ -92.909525, 18.195486 ] } },
{ "type": "Feature", "properties": { "NO": 125, "ENTIDAD": "TABASCO", "MUNICIPIO": "NACAJUCA", "PUEBLO INDIGENA O AFROMEXICANO": "YOKOT'AN\n(CHONTALDE\nTABASCO)", "LOCALIDAD": "EL PASTAL", "CLAVE LOC": 270130021, "TIPO DE ASENTAMIENTO": "COMUNIDAD INDIGENA", "NOMBRE": "EL PASTAL", "MONTO ASIGNADO (PESOS)": 504991, "LATITUD": 18.201642, "LONGITUD": -92.932888 }, "geometry": { "type": "Point", "coordinates": [ -92.932888, 18.201642 ] } },
{ "type": "Feature", "properties": { "NO": 126, "ENTIDAD": "TABASCO", "MUNICIPIO": "NACAJUCA", "PUEBLO INDIGENA O AFROMEXICANO": "YOKOT'AN\n(CHONTALDE\nTABASCO)", "LOCALIDAD": "EL SITIO", "CLAVE LOC": 270130052, "TIPO DE ASENTAMIENTO": "COMUNIDAD INDIGENA", "NOMBRE": "EL SITIO", "MONTO ASIGNADO (PESOS)": 324725, "LATITUD": 18.219204, "LONGITUD": -92.936708 }, "geometry": { "type": "Point", "coordinates": [ -92.936708, 18.219204 ] } },
{ "type": "Feature", "properties": { "NO": 127, "ENTIDAD": "TABASCO", "MUNICIPIO": "NACAJUCA", "PUEBLO INDIGENA O AFROMEXICANO": "YOKOT'AN\n(CHONTALDE\nTABASCO)", "LOCALIDAD": "GUATACALCA", "CLAVE LOC": 270130041, "TIPO DE ASENTAMIENTO": "COMUNIDAD INDIGENA", "NOMBRE": "GUATACALCA", "MONTO ASIGNADO (PESOS)": 378077, "LATITUD": 18.163165, "LONGITUD": -92.960003 }, "geometry": { "type": "Point", "coordinates": [ -92.960003, 18.163165 ] } },
{ "type": "Feature", "properties": { "NO": 128, "ENTIDAD": "TABASCO", "MUNICIPIO": "NACAJUCA", "PUEBLO INDIGENA O AFROMEXICANO": "YOKOT'AN\n(CHONTALDE\nTABASCO)", "LOCALIDAD": "GUAYTALPA", "CLAVE LOC": 270130014, "TIPO DE ASENTAMIENTO": "COMUNIDAD INDIGENA", "NOMBRE": "GUAYTALPA", "MONTO ASIGNADO (PESOS)": 2566900, "LATITUD": 18.21528, "LONGITUD": -93.031679 }, "geometry": { "type": "Point", "coordinates": [ -93.031679, 18.21528 ] } },
{ "type": "Feature", "properties": { "NO": 129, "ENTIDAD": "TABASCO", "MUNICIPIO": "NACAJUCA", "PUEBLO INDIGENA O AFROMEXICANO": "YOKOT'AN\n(CHONTALDE\nTABASCO)", "LOCALIDAD": "ISLA GUADALUPE", "CLAVE LOC": 270130042, "TIPO DE ASENTAMIENTO": "COMUNIDAD INDIGENA", "NOMBRE": "ISLA GUADALUPE", "MONTO ASIGNADO (PESOS)": 680407, "LATITUD": 18.215124, "LONGITUD": -92.943415 }, "geometry": { "type": "Point", "coordinates": [ -92.943415, 18.215124 ] } },
{ "type": "Feature", "properties": { "NO": 130, "ENTIDAD": "TABASCO", "MUNICIPIO": "NACAJUCA", "PUEBLO INDIGENA O AFROMEXICANO": "YOKOT'AN\n(CHONTALDE\nTABASCO)", "LOCALIDAD": "LA CRUZ DE OLCUATITÁN", "CLAVE LOC": 270130045, "TIPO DE ASENTAMIENTO": "COMUNIDAD INDIGENA", "NOMBRE": "LA CRUZ DE OLCUATITÁN", "MONTO ASIGNADO (PESOS)": 562385, "LATITUD": 18.178378, "LONGITUD": -92.967619 }, "geometry": { "type": "Point", "coordinates": [ -92.967619, 18.178378 ] } },
{ "type": "Feature", "properties": { "NO": 131, "ENTIDAD": "TABASCO", "MUNICIPIO": "NACAJUCA", "PUEBLO INDIGENA O AFROMEXICANO": "YOKOT'AN\n(CHONTALDE\nTABASCO)", "LOCALIDAD": "LA CRUZ DEL SANDIAL", "CLAVE LOC": 270130091, "TIPO DE ASENTAMIENTO": "COMUNIDAD INDIGENA", "NOMBRE": "LA CRUZ DEL SANDIAL", "MONTO ASIGNADO (PESOS)": 811363, "LATITUD": 18.171255, "LONGITUD": -92.889251 }, "geometry": { "type": "Point", "coordinates": [ -92.889251, 18.171255 ] } },
{ "type": "Feature", "properties": { "NO": 132, "ENTIDAD": "TABASCO", "MUNICIPIO": "NACAJUCA", "PUEBLO INDIGENA O AFROMEXICANO": "YOKOT'AN\n(CHONTALDE\nTABASCO)", "LOCALIDAD": "LA LOMA", "CLAVE LOC": 270130066, "TIPO DE ASENTAMIENTO": "COMUNIDAD INDIGENA", "NOMBRE": "LA LOMA", "MONTO ASIGNADO (PESOS)": 758010, "LATITUD": 18.171217, "LONGITUD": -92.989124 }, "geometry": { "type": "Point", "coordinates": [ -92.989124, 18.171217 ] } },
{ "type": "Feature", "properties": { "NO": 133, "ENTIDAD": "TABASCO", "MUNICIPIO": "NACAJUCA", "PUEBLO INDIGENA O AFROMEXICANO": "YOKOT'AN\n(CHONTALDE\nTABASCO)", "LOCALIDAD": "OLCUATITÁN", "CLAVE LOC": 270130019, "TIPO DE ASENTAMIENTO": "COMUNIDAD INDIGENA", "NOMBRE": "OLCUATITÁN", "MONTO ASIGNADO (PESOS)": 1499284, "LATITUD": 18.190956, "LONGITUD": -92.960779 }, "geometry": { "type": "Point", "coordinates": [ -92.960779, 18.190956 ] } },
{ "type": "Feature", "properties": { "NO": 134, "ENTIDAD": "TABASCO", "MUNICIPIO": "NACAJUCA", "PUEBLO INDIGENA O AFROMEXICANO": "YOKOT'AN\n(CHONTALDE\nTABASCO)", "LOCALIDAD": "OXIACAQUE", "CLAVE LOC": 270130020, "TIPO DE ASENTAMIENTO": "COMUNIDAD INDIGENA", "NOMBRE": "OXIACAQUE", "MONTO ASIGNADO (PESOS)": 1755537, "LATITUD": 18.215729, "LONGITUD": -92.94571 }, "geometry": { "type": "Point", "coordinates": [ -92.94571, 18.215729 ] } },
{ "type": "Feature", "properties": { "NO": 135, "ENTIDAD": "TABASCO", "MUNICIPIO": "NACAJUCA", "PUEBLO INDIGENA O AFROMEXICANO": "YOKOT'AN\n(CHONTALDE\nTABASCO)", "LOCALIDAD": "SALVADOR ALLENDE", "CLAVE LOC": 270130067, "TIPO DE ASENTAMIENTO": "COMUNIDAD INDIGENA", "NOMBRE": "SALVADOR ALLENDE", "MONTO ASIGNADO (PESOS)": 475081, "LATITUD": 18.155981, "LONGITUD": -93.034277 }, "geometry": { "type": "Point", "coordinates": [ -93.034277, 18.155981 ] } },
{ "type": "Feature", "properties": { "NO": 136, "ENTIDAD": "TABASCO", "MUNICIPIO": "NACAJUCA", "PUEBLO INDIGENA O AFROMEXICANO": "YOKOT'AN\n(CHONTALDE\nTABASCO)", "LOCALIDAD": "SAN ISIDRO 1RA. SECCIÓN", "CLAVE LOC": 270130029, "TIPO DE ASENTAMIENTO": "COMUNIDAD INDIGENA", "NOMBRE": "SAN ISIDRO 1RA. SECCIÓN", "MONTO ASIGNADO (PESOS)": 1083783, "LATITUD": 18.222669, "LONGITUD": -93.030284 }, "geometry": { "type": "Point", "coordinates": [ -93.030284, 18.222669 ] } },
{ "type": "Feature", "properties": { "NO": 137, "ENTIDAD": "TABASCO", "MUNICIPIO": "NACAJUCA", "PUEBLO INDIGENA O AFROMEXICANO": "YOKOT'AN\n(CHONTALDE\nTABASCO)", "LOCALIDAD": "SAN ISIDRO 2DA. SECCIÓN", "CLAVE LOC": 270130038, "TIPO DE ASENTAMIENTO": "COMUNIDAD INDIGENA", "NOMBRE": "SAN ISIDRO 2DA. SECCIÓN", "MONTO ASIGNADO (PESOS)": 536517, "LATITUD": 18.233506, "LONGITUD": -93.025874 }, "geometry": { "type": "Point", "coordinates": [ -93.025874, 18.233506 ] } },
{ "type": "Feature", "properties": { "NO": 138, "ENTIDAD": "TABASCO", "MUNICIPIO": "NACAJUCA", "PUEBLO INDIGENA O AFROMEXICANO": "YOKOT'AN\n(CHONTALDE\nTABASCO)", "LOCALIDAD": "SAN JOSÉ PAJONAL", "CLAVE LOC": 270130046, "TIPO DE ASENTAMIENTO": "COMUNIDAD INDIGENA", "NOMBRE": "SAN JOSÉ PAJONAL", "MONTO ASIGNADO (PESOS)": 377269, "LATITUD": 18.234579, "LONGITUD": -93.008151 }, "geometry": { "type": "Point", "coordinates": [ -93.008151, 18.234579 ] } },
{ "type": "Feature", "properties": { "NO": 139, "ENTIDAD": "TABASCO", "MUNICIPIO": "NACAJUCA", "PUEBLO INDIGENA O AFROMEXICANO": "YOKOT'AN\n(CHONTALDE\nTABASCO)", "LOCALIDAD": "SAN SIMÓN", "CLAVE LOC": 270130022, "TIPO DE ASENTAMIENTO": "COMUNIDAD INDIGENA", "NOMBRE": "SAN SIMÓN", "MONTO ASIGNADO (PESOS)": 1189679, "LATITUD": 18.236934, "LONGITUD": -93.03403 }, "geometry": { "type": "Point", "coordinates": [ -93.03403, 18.236934 ] } },
{ "type": "Feature", "properties": { "NO": 140, "ENTIDAD": "TABASCO", "MUNICIPIO": "NACAJUCA", "PUEBLO INDIGENA O AFROMEXICANO": "YOKOT'AN\n(CHONTALDE\nTABASCO)", "LOCALIDAD": "SANDIAL", "CLAVE LOC": 270130028, "TIPO DE ASENTAMIENTO": "COMUNIDAD INDIGENA", "NOMBRE": "SANDIAL", "MONTO ASIGNADO (PESOS)": 179219, "LATITUD": 18.167377, "LONGITUD": -92.903487 }, "geometry": { "type": "Point", "coordinates": [ -92.903487, 18.167377 ] } },
{ "type": "Feature", "properties": { "NO": 141, "ENTIDAD": "TABASCO", "MUNICIPIO": "NACAJUCA", "PUEBLO INDIGENA O AFROMEXICANO": "YOKOT'AN\n(CHONTALDE\nTABASCO)", "LOCALIDAD": "SIMÓN BOLÍVAR", "CLAVE LOC": 270130090, "TIPO DE ASENTAMIENTO": "COMUNIDAD INDIGENA", "NOMBRE": "SIMÓN BOLÍVAR", "MONTO ASIGNADO (PESOS)": 580169, "LATITUD": 18.157062, "LONGITUD": -93.009946 }, "geometry": { "type": "Point", "coordinates": [ -93.009946, 18.157062 ] } },
{ "type": "Feature", "properties": { "NO": 142, "ENTIDAD": "TABASCO", "MUNICIPIO": "NACAJUCA", "PUEBLO INDIGENA O AFROMEXICANO": "YOKOT'AN\n(CHONTALDE\nTABASCO)", "LOCALIDAD": "TECOLUTA 1RA. SECCIÓN", "CLAVE LOC": 270130033, "TIPO DE ASENTAMIENTO": "COMUNIDAD INDIGENA", "NOMBRE": "TECOLUTA 1RA. SECCIÓN", "MONTO ASIGNADO (PESOS)": 1096717, "LATITUD": 18.253917, "LONGITUD": -93.018561 }, "geometry": { "type": "Point", "coordinates": [ -93.018561, 18.253917 ] } },
{ "type": "Feature", "properties": { "NO": 143, "ENTIDAD": "TABASCO", "MUNICIPIO": "NACAJUCA", "PUEBLO INDIGENA O AFROMEXICANO": "YOKOT'AN\n(CHONTALDE\nTABASCO)", "LOCALIDAD": "TECOLUTA 2DA. SECCIÓN", "CLAVE LOC": 270130051, "TIPO DE ASENTAMIENTO": "COMUNIDAD INDIGENA", "NOMBRE": "TECOLUTA 2DA. SECCIÓN", "MONTO ASIGNADO (PESOS)": 1595480, "LATITUD": 18.249033, "LONGITUD": -93.019803 }, "geometry": { "type": "Point", "coordinates": [ -93.019803, 18.249033 ] } },
{ "type": "Feature", "properties": { "NO": 144, "ENTIDAD": "TABASCO", "MUNICIPIO": "NACAJUCA", "PUEBLO INDIGENA O AFROMEXICANO": "YOKOT'AN\n(CHONTALDE\nTABASCO)", "LOCALIDAD": "TUCTA", "CLAVE LOC": 270130035, "TIPO DE ASENTAMIENTO": "COMUNIDAD INDIGENA", "NOMBRE": "TUCTA", "MONTO ASIGNADO (PESOS)": 1949546, "LATITUD": 18.193741, "LONGITUD": -92.994618 }, "geometry": { "type": "Point", "coordinates": [ -92.994618, 18.193741 ] } },
{ "type": "Feature", "properties": { "NO": 145, "ENTIDAD": "TABASCO", "MUNICIPIO": "TACOTALPA", "PUEBLO INDIGENA O AFROMEXICANO": "CH'OL", "LOCALIDAD": "AGUA BLANCA", "CLAVE LOC": 270150002, "TIPO DE ASENTAMIENTO": "COMUNIDAD INDIGENA", "NOMBRE": "AGUA BLANCA", "MONTO ASIGNADO (PESOS)": 537326, "LATITUD": 17.485578, "LONGITUD": -92.62145 }, "geometry": { "type": "Point", "coordinates": [ -92.62145, 17.485578 ] } },
{ "type": "Feature", "properties": { "NO": 146, "ENTIDAD": "TABASCO", "MUNICIPIO": "TACOTALPA", "PUEBLO INDIGENA O AFROMEXICANO": "CH'OL", "LOCALIDAD": "AGUA ESCONDIDA", "CLAVE LOC": 270150094, "TIPO DE ASENTAMIENTO": "COMUNIDAD INDIGENA", "NOMBRE": "AGUA ESCONDIDA", "MONTO ASIGNADO (PESOS)": 209128, "LATITUD": 17.509831, "LONGITUD": -92.77539 }, "geometry": { "type": "Point", "coordinates": [ -92.77539, 17.509831 ] } },
{ "type": "Feature", "properties": { "NO": 147, "ENTIDAD": "TABASCO", "MUNICIPIO": "TACOTALPA", "PUEBLO INDIGENA O AFROMEXICANO": "CH'OL", "LOCALIDAD": "ARROYO CHISPA", "CLAVE LOC": 270150095, "TIPO DE ASENTAMIENTO": "COMUNIDAD INDIGENA", "NOMBRE": "ARROYO CHISPA", "MONTO ASIGNADO (PESOS)": 249547, "LATITUD": 17.445645, "LONGITUD": -92.760995 }, "geometry": { "type": "Point", "coordinates": [ -92.760995, 17.445645 ] } },
{ "type": "Feature", "properties": { "NO": 148, "ENTIDAD": "TABASCO", "MUNICIPIO": "TACOTALPA", "PUEBLO INDIGENA O AFROMEXICANO": "CH'OL", "LOCALIDAD": "ARROYO SECO MIRAFLORES", "CLAVE LOC": 270150039, "TIPO DE ASENTAMIENTO": "COMUNIDAD INDIGENA", "NOMBRE": "ARROYO SECO MIRAFLORES", "MONTO ASIGNADO (PESOS)": 758819, "LATITUD": 17.463115, "LONGITUD": -92.68325 }, "geometry": { "type": "Point", "coordinates": [ -92.68325, 17.463115 ] } },
{ "type": "Feature", "properties": { "NO": 149, "ENTIDAD": "TABASCO", "MUNICIPIO": "TACOTALPA", "PUEBLO INDIGENA O AFROMEXICANO": "CH'OL", "LOCALIDAD": "BENITO JUÁREZ", "CLAVE LOC": 270150071, "TIPO DE ASENTAMIENTO": "COMUNIDAD INDIGENA", "NOMBRE": "BENITO JUÁREZ", "MONTO ASIGNADO (PESOS)": 203470, "LATITUD": 17.380122, "LONGITUD": -92.716859 }, "geometry": { "type": "Point", "coordinates": [ -92.716859, 17.380122 ] } },
{ "type": "Feature", "properties": { "NO": 150, "ENTIDAD": "TABASCO", "MUNICIPIO": "TACOTALPA", "PUEBLO INDIGENA O AFROMEXICANO": "CH'OL", "LOCALIDAD": "BUENA VISTA 1RA. SECCIÓN", "CLAVE LOC": 270150007, "TIPO DE ASENTAMIENTO": "COMUNIDAD INDIGENA", "NOMBRE": "BUENA VISTA 1RA. SECCIÓN", "MONTO ASIGNADO (PESOS)": 239038, "LATITUD": 17.393381, "LONGITUD": -92.757786 }, "geometry": { "type": "Point", "coordinates": [ -92.757786, 17.393381 ] } },
{ "type": "Feature", "properties": { "NO": 151, "ENTIDAD": "TABASCO", "MUNICIPIO": "TACOTALPA", "PUEBLO INDIGENA O AFROMEXICANO": "CH'OL", "LOCALIDAD": "BUENOS AIRES", "CLAVE LOC": 270150008, "TIPO DE ASENTAMIENTO": "COMUNIDAD INDIGENA", "NOMBRE": "BUENOS AIRES", "MONTO ASIGNADO (PESOS)": 302899, "LATITUD": 17.361747, "LONGITUD": -92.710653 }, "geometry": { "type": "Point", "coordinates": [ -92.710653, 17.361747 ] } },
{ "type": "Feature", "properties": { "NO": 152, "ENTIDAD": "TABASCO", "MUNICIPIO": "TACOTALPA", "PUEBLO INDIGENA O AFROMEXICANO": "CH'OL", "LOCALIDAD": "CARIDAD GUERRERO", "CLAVE LOC": 270150009, "TIPO DE ASENTAMIENTO": "COMUNIDAD INDIGENA", "NOMBRE": "CARIDAD GUERRERO", "MONTO ASIGNADO (PESOS)": 399095, "LATITUD": 17.410248, "LONGITUD": -92.754519 }, "geometry": { "type": "Point", "coordinates": [ -92.754519, 17.410248 ] } },
{ "type": "Feature", "properties": { "NO": 153, "ENTIDAD": "TABASCO", "MUNICIPIO": "TACOTALPA", "PUEBLO INDIGENA O AFROMEXICANO": "CH'OL", "LOCALIDAD": "CARLOS A. MADRAZO", "CLAVE LOC": 270150112, "TIPO DE ASENTAMIENTO": "COMUNIDAD INDIGENA", "NOMBRE": "CARLOS A. MADRAZO", "MONTO ASIGNADO (PESOS)": 312599, "LATITUD": 17.533341, "LONGITUD": -92.598521 }, "geometry": { "type": "Point", "coordinates": [ -92.598521, 17.533341 ] } },
{ "type": "Feature", "properties": { "NO": 154, "ENTIDAD": "TABASCO", "MUNICIPIO": "TACOTALPA", "PUEBLO INDIGENA O AFROMEXICANO": "ZOQUE", "LOCALIDAD": "CERRO BLANCO 2DA. SECCIÓN", "CLAVE LOC": 270150015, "TIPO DE ASENTAMIENTO": "COMUNIDAD INDIGENA", "NOMBRE": "CERRO BLANCO 2DA. SECCIÓN", "MONTO ASIGNADO (PESOS)": 595528, "LATITUD": 17.421206, "LONGITUD": -92.794469 }, "geometry": { "type": "Point", "coordinates": [ -92.794469, 17.421206 ] } },
{ "type": "Feature", "properties": { "NO": 155, "ENTIDAD": "TABASCO", "MUNICIPIO": "TACOTALPA", "PUEBLO INDIGENA O AFROMEXICANO": "ZOQUE", "LOCALIDAD": "CERRO BLANCO 3RA. SECCIÓN", "CLAVE LOC": 270150016, "TIPO DE ASENTAMIENTO": "COMUNIDAD INDIGENA", "NOMBRE": "CERRO BLANCO 3RA. SECCIÓN", "MONTO ASIGNADO (PESOS)": 251163, "LATITUD": 17.432943, "LONGITUD": -92.808238 }, "geometry": { "type": "Point", "coordinates": [ -92.808238, 17.432943 ] } },
{ "type": "Feature", "properties": { "NO": 156, "ENTIDAD": "TABASCO", "MUNICIPIO": "TACOTALPA", "PUEBLO INDIGENA O AFROMEXICANO": "ZOQUE", "LOCALIDAD": "CERRO BLANCO 4TA. SECCIÓN", "CLAVE LOC": 270150017, "TIPO DE ASENTAMIENTO": "COMUNIDAD INDIGENA", "NOMBRE": "CERRO BLANCO 4TA. SECCIÓN", "MONTO ASIGNADO (PESOS)": 487207, "LATITUD": 17.430229, "LONGITUD": -92.812244 }, "geometry": { "type": "Point", "coordinates": [ -92.812244, 17.430229 ] } },
{ "type": "Feature", "properties": { "NO": 157, "ENTIDAD": "TABASCO", "MUNICIPIO": "TACOTALPA", "PUEBLO INDIGENA O AFROMEXICANO": "TSOTSIL", "LOCALIDAD": "CERRO BLANCO 5TA. SECCIÓN", "CLAVE LOC": 270150018, "TIPO DE ASENTAMIENTO": "COMUNIDAD INDIGENA", "NOMBRE": "CERRO BLANCO 5TA. SECCIÓN", "MONTO ASIGNADO (PESOS)": 548643, "LATITUD": 17.444314, "LONGITUD": -92.812503 }, "geometry": { "type": "Point", "coordinates": [ -92.812503, 17.444314 ] } },
{ "type": "Feature", "properties": { "NO": 158, "ENTIDAD": "TABASCO", "MUNICIPIO": "TACOTALPA", "PUEBLO INDIGENA O AFROMEXICANO": "CH'OL", "LOCALIDAD": "CUAUHTÉMOC BARREAL", "CLAVE LOC": 270150006, "TIPO DE ASENTAMIENTO": "COMUNIDAD INDIGENA", "NOMBRE": "CUAUHTÉMOC BARREAL", "MONTO ASIGNADO (PESOS)": 735376, "LATITUD": 17.427283, "LONGITUD": -92.722985 }, "geometry": { "type": "Point", "coordinates": [ -92.722985, 17.427283 ] } },
{ "type": "Feature", "properties": { "NO": 159, "ENTIDAD": "TABASCO", "MUNICIPIO": "TACOTALPA", "PUEBLO INDIGENA O AFROMEXICANO": "CH'OL", "LOCALIDAD": "CUITLÁHUAC", "CLAVE LOC": 270150020, "TIPO DE ASENTAMIENTO": "COMUNIDAD INDIGENA", "NOMBRE": "CUITLÁHUAC", "MONTO ASIGNADO (PESOS)": 648881, "LATITUD": 17.35603, "LONGITUD": -92.729972 }, "geometry": { "type": "Point", "coordinates": [ -92.729972, 17.35603 ] } },
{ "type": "Feature", "properties": { "NO": 160, "ENTIDAD": "TABASCO", "MUNICIPIO": "TACOTALPA", "PUEBLO INDIGENA O AFROMEXICANO": "CH'OL", "LOCALIDAD": "CUVIAC", "CLAVE LOC": 270150022, "TIPO DE ASENTAMIENTO": "COMUNIDAD INDIGENA", "NOMBRE": "CUVIAC", "MONTO ASIGNADO (PESOS)": 375652, "LATITUD": 17.397666, "LONGITUD": -92.733086 }, "geometry": { "type": "Point", "coordinates": [ -92.733086, 17.397666 ] } },
{ "type": "Feature", "properties": { "NO": 161, "ENTIDAD": "TABASCO", "MUNICIPIO": "TACOTALPA", "PUEBLO INDIGENA O AFROMEXICANO": "CH'OL", "LOCALIDAD": "EL LIMÓN", "CLAVE LOC": 270150028, "TIPO DE ASENTAMIENTO": "COMUNIDAD INDIGENA", "NOMBRE": "EL LIMÓN", "MONTO ASIGNADO (PESOS)": 437896, "LATITUD": 17.570179, "LONGITUD": -92.578825 }, "geometry": { "type": "Point", "coordinates": [ -92.578825, 17.570179 ] } },
{ "type": "Feature", "properties": { "NO": 162, "ENTIDAD": "TABASCO", "MUNICIPIO": "TACOTALPA", "PUEBLO INDIGENA O AFROMEXICANO": "CH'OL", "LOCALIDAD": "EMILIANO ZAPATA", "CLAVE LOC": 270150099, "TIPO DE ASENTAMIENTO": "COMUNIDAD INDIGENA", "NOMBRE": "EMILIANO ZAPATA", "MONTO ASIGNADO (PESOS)": 369185, "LATITUD": 17.495174, "LONGITUD": -92.817946 }, "geometry": { "type": "Point", "coordinates": [ -92.817946, 17.495174 ] } },
{ "type": "Feature", "properties": { "NO": 163, "ENTIDAD": "TABASCO", "MUNICIPIO": "TACOTALPA", "PUEBLO INDIGENA O AFROMEXICANO": "CH'OL", "LOCALIDAD": "FRANCISCO I. MADERO 1RA. SECCIÓN", "CLAVE LOC": 270150032, "TIPO DE ASENTAMIENTO": "COMUNIDAD INDIGENA", "NOMBRE": "FRANCISCO I. MADERO 1RA. SECCIÓN", "MONTO ASIGNADO (PESOS)": 308557, "LATITUD": 17.386323, "LONGITUD": -92.726474 }, "geometry": { "type": "Point", "coordinates": [ -92.726474, 17.386323 ] } },
{ "type": "Feature", "properties": { "NO": 164, "ENTIDAD": "TABASCO", "MUNICIPIO": "TACOTALPA", "PUEBLO INDIGENA O AFROMEXICANO": "CH'OL", "LOCALIDAD": "FRANCISCO I. MADERO 2DA. SECCIÓN", "CLAVE LOC": 270150033, "TIPO DE ASENTAMIENTO": "COMUNIDAD INDIGENA", "NOMBRE": "FRANCISCO I. MADERO 2DA. SECCIÓN", "MONTO ASIGNADO (PESOS)": 1063574, "LATITUD": 17.38538, "LONGITUD": -92.699576 }, "geometry": { "type": "Point", "coordinates": [ -92.699576, 17.38538 ] } },
{ "type": "Feature", "properties": { "NO": 165, "ENTIDAD": "TABASCO", "MUNICIPIO": "TACOTALPA", "PUEBLO INDIGENA O AFROMEXICANO": "CH'OL", "LOCALIDAD": "GRAN PODER", "CLAVE LOC": 270150083, "TIPO DE ASENTAMIENTO": "COMUNIDAD INDIGENA", "NOMBRE": "GRAN PODER", "MONTO ASIGNADO (PESOS)": 165476, "LATITUD": 17.52486, "LONGITUD": -92.637969 }, "geometry": { "type": "Point", "coordinates": [ -92.637969, 17.52486 ] } },
{ "type": "Feature", "properties": { "NO": 166, "ENTIDAD": "TABASCO", "MUNICIPIO": "TACOTALPA", "PUEBLO INDIGENA O AFROMEXICANO": "CH'OL", "LOCALIDAD": "GUAYAL", "CLAVE LOC": 270150026, "TIPO DE ASENTAMIENTO": "COMUNIDAD INDIGENA", "NOMBRE": "GUAYAL", "MONTO ASIGNADO (PESOS)": 762052, "LATITUD": 17.535833, "LONGITUD": -92.599514 }, "geometry": { "type": "Point", "coordinates": [ -92.599514, 17.535833 ] } },
{ "type": "Feature", "properties": { "NO": 167, "ENTIDAD": "TABASCO", "MUNICIPIO": "TACOTALPA", "PUEBLO INDIGENA O AFROMEXICANO": "CH'OL", "LOCALIDAD": "JOSÉ MARÍA MORELOS Y PAVÓN", "CLAVE LOC": 270150003, "TIPO DE ASENTAMIENTO": "COMUNIDAD INDIGENA", "NOMBRE": "JOSÉ MARÍA MORELOS Y PAVÓN", "MONTO ASIGNADO (PESOS)": 455681, "LATITUD": 17.595807, "LONGITUD": -92.614151 }, "geometry": { "type": "Point", "coordinates": [ -92.614151, 17.595807 ] } },
{ "type": "Feature", "properties": { "NO": 168, "ENTIDAD": "TABASCO", "MUNICIPIO": "TACOTALPA", "PUEBLO INDIGENA O AFROMEXICANO": "CH'OL", "LOCALIDAD": "LA CUMBRE", "CLAVE LOC": 270150021, "TIPO DE ASENTAMIENTO": "COMUNIDAD INDIGENA", "NOMBRE": "LA CUMBRE", "MONTO ASIGNADO (PESOS)": 261672, "LATITUD": 17.438604, "LONGITUD": -92.734534 }, "geometry": { "type": "Point", "coordinates": [ -92.734534, 17.438604 ] } },
{ "type": "Feature", "properties": { "NO": 169, "ENTIDAD": "TABASCO", "MUNICIPIO": "TACOTALPA", "PUEBLO INDIGENA O AFROMEXICANO": "CH'OL", "LOCALIDAD": "LA PILA", "CLAVE LOC": 270150096, "TIPO DE ASENTAMIENTO": "COMUNIDAD INDIGENA", "NOMBRE": "LA PILA", "MONTO ASIGNADO (PESOS)": 214787, "LATITUD": 17.437909, "LONGITUD": -92.75327 }, "geometry": { "type": "Point", "coordinates": [ -92.75327, 17.437909 ] } },
{ "type": "Feature", "properties": { "NO": 170, "ENTIDAD": "TABASCO", "MUNICIPIO": "TACOTALPA", "PUEBLO INDIGENA O AFROMEXICANO": "CH'OL", "LOCALIDAD": "LA RAYA ZARAGOZA", "CLAVE LOC": 270150056, "TIPO DE ASENTAMIENTO": "COMUNIDAD INDIGENA", "NOMBRE": "LA RAYA ZARAGOZA", "MONTO ASIGNADO (PESOS)": 1250307, "LATITUD": 17.404675, "LONGITUD": -92.684491 }, "geometry": { "type": "Point", "coordinates": [ -92.684491, 17.404675 ] } },
{ "type": "Feature", "properties": { "NO": 171, "ENTIDAD": "TABASCO", "MUNICIPIO": "TACOTALPA", "PUEBLO INDIGENA O AFROMEXICANO": "CH'OL", "LOCALIDAD": "LIBERTAD", "CLAVE LOC": 270150027, "TIPO DE ASENTAMIENTO": "COMUNIDAD INDIGENA", "NOMBRE": "LIBERTAD", "MONTO ASIGNADO (PESOS)": 968186, "LATITUD": 17.410188, "LONGITUD": -92.714569 }, "geometry": { "type": "Point", "coordinates": [ -92.714569, 17.410188 ] } },
{ "type": "Feature", "properties": { "NO": 172, "ENTIDAD": "TABASCO", "MUNICIPIO": "TACOTALPA", "PUEBLO INDIGENA O AFROMEXICANO": "CH'OL", "LOCALIDAD": "MEXIQUITO", "CLAVE LOC": 270150068, "TIPO DE ASENTAMIENTO": "COMUNIDAD INDIGENA", "NOMBRE": "MEXIQUITO", "MONTO ASIGNADO (PESOS)": 287540, "LATITUD": 17.394977, "LONGITUD": -92.738416 }, "geometry": { "type": "Point", "coordinates": [ -92.738416, 17.394977 ] } },
{ "type": "Feature", "properties": { "NO": 173, "ENTIDAD": "TABASCO", "MUNICIPIO": "TACOTALPA", "PUEBLO INDIGENA O AFROMEXICANO": "CH'OL", "LOCALIDAD": "NOYPAC", "CLAVE LOC": 270150040, "TIPO DE ASENTAMIENTO": "COMUNIDAD INDIGENA", "NOMBRE": "NOYPAC", "MONTO ASIGNADO (PESOS)": 272181, "LATITUD": 17.423601, "LONGITUD": -92.740641 }, "geometry": { "type": "Point", "coordinates": [ -92.740641, 17.423601 ] } },
{ "type": "Feature", "properties": { "NO": 174, "ENTIDAD": "TABASCO", "MUNICIPIO": "TACOTALPA", "PUEBLO INDIGENA O AFROMEXICANO": "CH'OL", "LOCALIDAD": "NUEVA ESPERANZA", "CLAVE LOC": 270150067, "TIPO DE ASENTAMIENTO": "COMUNIDAD INDIGENA", "NOMBRE": "NUEVA ESPERANZA", "MONTO ASIGNADO (PESOS)": 211553, "LATITUD": 17.365721, "LONGITUD": -92.752315 }, "geometry": { "type": "Point", "coordinates": [ -92.752315, 17.365721 ] } },
{ "type": "Feature", "properties": { "NO": 175, "ENTIDAD": "TABASCO", "MUNICIPIO": "TACOTALPA", "PUEBLO INDIGENA O AFROMEXICANO": "CH'OL", "LOCALIDAD": "NUEVA REFORMA", "CLAVE LOC": 270150101, "TIPO DE ASENTAMIENTO": "COMUNIDAD INDIGENA", "NOMBRE": "NUEVA REFORMA", "MONTO ASIGNADO (PESOS)": 167093, "LATITUD": 17.384996, "LONGITUD": -92.739094 }, "geometry": { "type": "Point", "coordinates": [ -92.739094, 17.384996 ] } },
{ "type": "Feature", "properties": { "NO": 176, "ENTIDAD": "TABASCO", "MUNICIPIO": "TACOTALPA", "PUEBLO INDIGENA O AFROMEXICANO": "CH'OL", "LOCALIDAD": "OXOLOTÁN", "CLAVE LOC": 270150041, "TIPO DE ASENTAMIENTO": "COMUNIDAD INDIGENA", "NOMBRE": "OXOLOTÁN", "MONTO ASIGNADO (PESOS)": 1660150, "LATITUD": 17.380782, "LONGITUD": -92.750003 }, "geometry": { "type": "Point", "coordinates": [ -92.750003, 17.380782 ] } },
{ "type": "Feature", "properties": { "NO": 177, "ENTIDAD": "TABASCO", "MUNICIPIO": "TACOTALPA", "PUEBLO INDIGENA O AFROMEXICANO": "ZOQUE", "LOCALIDAD": "PALO QUEMADO", "CLAVE LOC": 270150042, "TIPO DE ASENTAMIENTO": "COMUNIDAD INDIGENA", "NOMBRE": "PALO QUEMADO", "MONTO ASIGNADO (PESOS)": 298049, "LATITUD": 17.415578, "LONGITUD": -92.843371 }, "geometry": { "type": "Point", "coordinates": [ -92.843371, 17.415578 ] } },
{ "type": "Feature", "properties": { "NO": 178, "ENTIDAD": "TABASCO", "MUNICIPIO": "TACOTALPA", "PUEBLO INDIGENA O AFROMEXICANO": "CH'OL", "LOCALIDAD": "PASAMONOS", "CLAVE LOC": 270150043, "TIPO DE ASENTAMIENTO": "COMUNIDAD INDIGENA", "NOMBRE": "PASAMONOS", "MONTO ASIGNADO (PESOS)": 505799, "LATITUD": 17.545944, "LONGITUD": -92.625162 }, "geometry": { "type": "Point", "coordinates": [ -92.625162, 17.545944 ] } },
{ "type": "Feature", "properties": { "NO": 179, "ENTIDAD": "TABASCO", "MUNICIPIO": "TACOTALPA", "PUEBLO INDIGENA O AFROMEXICANO": "CH'OL", "LOCALIDAD": "POMOCA", "CLAVE LOC": 270150049, "TIPO DE ASENTAMIENTO": "COMUNIDAD INDIGENA", "NOMBRE": "POMOCA", "MONTO ASIGNADO (PESOS)": 673132, "LATITUD": 17.500153, "LONGITUD": -92.657658 }, "geometry": { "type": "Point", "coordinates": [ -92.657658, 17.500153 ] } },
{ "type": "Feature", "properties": { "NO": 180, "ENTIDAD": "TABASCO", "MUNICIPIO": "TACOTALPA", "PUEBLO INDIGENA O AFROMEXICANO": "CH'OL", "LOCALIDAD": "POMOQUITA", "CLAVE LOC": 270150050, "TIPO DE ASENTAMIENTO": "COMUNIDAD INDIGENA", "NOMBRE": "POMOQUITA", "MONTO ASIGNADO (PESOS)": 309366, "LATITUD": 17.372217, "LONGITUD": -92.728906 }, "geometry": { "type": "Point", "coordinates": [ -92.728906, 17.372217 ] } },
{ "type": "Feature", "properties": { "NO": 181, "ENTIDAD": "TABASCO", "MUNICIPIO": "TACOTALPA", "PUEBLO INDIGENA O AFROMEXICANO": "CH'OL", "LOCALIDAD": "PUXCATÁN", "CLAVE LOC": 270150053, "TIPO DE ASENTAMIENTO": "COMUNIDAD INDIGENA", "NOMBRE": "PUXCATÁN", "MONTO ASIGNADO (PESOS)": 1123393, "LATITUD": 17.451278, "LONGITUD": -92.686782 }, "geometry": { "type": "Point", "coordinates": [ -92.686782, 17.451278 ] } },
{ "type": "Feature", "properties": { "NO": 182, "ENTIDAD": "TABASCO", "MUNICIPIO": "TACOTALPA", "PUEBLO INDIGENA O AFROMEXICANO": "CH'OL", "LOCALIDAD": "SAN MANUEL", "CLAVE LOC": 270150057, "TIPO DE ASENTAMIENTO": "COMUNIDAD INDIGENA", "NOMBRE": "SAN MANUEL", "MONTO ASIGNADO (PESOS)": 213978, "LATITUD": 17.501871, "LONGITUD": -92.758919 }, "geometry": { "type": "Point", "coordinates": [ -92.758919, 17.501871 ] } },
{ "type": "Feature", "properties": { "NO": 183, "ENTIDAD": "TABASCO", "MUNICIPIO": "TACOTALPA", "PUEBLO INDIGENA O AFROMEXICANO": "CH'OL", "LOCALIDAD": "TAPIJULAPA", "CLAVE LOC": 270150060, "TIPO DE ASENTAMIENTO": "COMUNIDAD INDIGENA", "NOMBRE": "TAPIJULAPA", "MONTO ASIGNADO (PESOS)": 855823, "LATITUD": 17.45988, "LONGITUD": -92.778969 }, "geometry": { "type": "Point", "coordinates": [ -92.778969, 17.45988 ] } },
{ "type": "Feature", "properties": { "NO": 184, "ENTIDAD": "TABASCO", "MUNICIPIO": "TACOTALPA", "PUEBLO INDIGENA O AFROMEXICANO": "CH'OL", "LOCALIDAD": "TOMÁS GARRIDO CANABAL", "CLAVE LOC": 270150061, "TIPO DE ASENTAMIENTO": "COMUNIDAD INDIGENA", "NOMBRE": "TOMÁS GARRIDO CANABAL", "MONTO ASIGNADO (PESOS)": 424963, "LATITUD": 17.359545, "LONGITUD": -92.728477 }, "geometry": { "type": "Point", "coordinates": [ -92.728477, 17.359545 ] } },
{ "type": "Feature", "properties": { "NO": 185, "ENTIDAD": "TABASCO", "MUNICIPIO": "TACOTALPA", "PUEBLO INDIGENA O AFROMEXICANO": "CH'OL", "LOCALIDAD": "VILLA LUZ", "CLAVE LOC": 270150106, "TIPO DE ASENTAMIENTO": "COMUNIDAD INDIGENA", "NOMBRE": "VILLA LUZ", "MONTO ASIGNADO (PESOS)": 213978, "LATITUD": 17.442149, "LONGITUD": -92.764919 }, "geometry": { "type": "Point", "coordinates": [ -92.764919, 17.442149 ] } },
{ "type": "Feature", "properties": { "NO": 186, "ENTIDAD": "TABASCO", "MUNICIPIO": "TACOTALPA", "PUEBLO INDIGENA O AFROMEXICANO": "CH'OL", "LOCALIDAD": "YAJALÓN RÍO SECO", "CLAVE LOC": 270150005, "TIPO DE ASENTAMIENTO": "COMUNIDAD INDIGENA", "NOMBRE": "YAJALÓN RÍO SECO", "MONTO ASIGNADO (PESOS)": 301282, "LATITUD": 17.455098, "LONGITUD": -92.707325 }, "geometry": { "type": "Point", "coordinates": [ -92.707325, 17.455098 ] } },
{ "type": "Feature", "properties": { "NO": 187, "ENTIDAD": "TABASCO", "MUNICIPIO": "TENOSIQUE", "PUEBLO INDIGENA O AFROMEXICANO": "TSELTAL", "LOCALIDAD": "ÁLVARO OBREGÓN", "CLAVE LOC": 270170097, "TIPO DE ASENTAMIENTO": "COMUNIDAD INDIGENA", "NOMBRE": "ÁLVARO OBREGÓN", "MONTO ASIGNADO (PESOS)": 578553, "LATITUD": 17.289881, "LONGITUD": -91.228842 }, "geometry": { "type": "Point", "coordinates": [ -91.228842, 17.289881 ] } },
{ "type": "Feature", "properties": { "NO": 188, "ENTIDAD": "TABASCO", "MUNICIPIO": "TENOSIQUE", "PUEBLO INDIGENA O AFROMEXICANO": "CH'OL", "LOCALIDAD": "CARLOS PELLICER CÁMARA", "CLAVE LOC": 270170182, "TIPO DE ASENTAMIENTO": "COMUNIDAD INDIGENA", "NOMBRE": "CARLOS PELLICER CÁMARA", "MONTO ASIGNADO (PESOS)": 233379, "LATITUD": 17.252984, "LONGITUD": -91.025502 }, "geometry": { "type": "Point", "coordinates": [ -91.025502, 17.252984 ] } },
{ "type": "Feature", "properties": { "NO": 189, "ENTIDAD": "TABASCO", "MUNICIPIO": "TENOSIQUE", "PUEBLO INDIGENA O AFROMEXICANO": "CH'OL", "LOCALIDAD": "CERRO NORTE", "CLAVE LOC": 270170155, "TIPO DE ASENTAMIENTO": "COMUNIDAD INDIGENA", "NOMBRE": "CERRO NORTE", "MONTO ASIGNADO (PESOS)": 148501, "LATITUD": 17.431652, "LONGITUD": -91.498806 }, "geometry": { "type": "Point", "coordinates": [ -91.498806, 17.431652 ] } },
{ "type": "Feature", "properties": { "NO": 190, "ENTIDAD": "TABASCO", "MUNICIPIO": "TENOSIQUE", "PUEBLO INDIGENA O AFROMEXICANO": "TSELTAL", "LOCALIDAD": "CORREGIDORA ORTIZ DE DOMÍNGUEZ", "CLAVE LOC": 270170016, "TIPO DE ASENTAMIENTO": "COMUNIDAD INDIGENA", "NOMBRE": "CORREGIDORA ORTIZ DE DOMÍNGUEZ", "MONTO ASIGNADO (PESOS)": 352209, "LATITUD": 17.256795, "LONGITUD": -91.362245 }, "geometry": { "type": "Point", "coordinates": [ -91.362245, 17.256795 ] } },
{ "type": "Feature", "properties": { "NO": 191, "ENTIDAD": "TABASCO", "MUNICIPIO": "TENOSIQUE", "PUEBLO INDIGENA O AFROMEXICANO": "CH'OL", "LOCALIDAD": "CORTIJO NUEVO 1RA. SECCIÓN", "CLAVE LOC": 270170015, "TIPO DE ASENTAMIENTO": "COMUNIDAD INDIGENA", "NOMBRE": "CORTIJO NUEVO 1RA. SECCIÓN", "MONTO ASIGNADO (PESOS)": 260864, "LATITUD": 17.288061, "LONGITUD": -91.335239 }, "geometry": { "type": "Point", "coordinates": [ -91.335239, 17.288061 ] } },
{ "type": "Feature", "properties": { "NO": 192, "ENTIDAD": "TABASCO", "MUNICIPIO": "TENOSIQUE", "PUEBLO INDIGENA O AFROMEXICANO": "CH'OL", "LOCALIDAD": "CORTIJO NUEVO 2DA. SECCIÓN", "CLAVE LOC": 270170114, "TIPO DE ASENTAMIENTO": "COMUNIDAD INDIGENA", "NOMBRE": "CORTIJO NUEVO 2DA. SECCIÓN", "MONTO ASIGNADO (PESOS)": 192961, "LATITUD": 17.303319, "LONGITUD": -91.385884 }, "geometry": { "type": "Point", "coordinates": [ -91.385884, 17.303319 ] } },
{ "type": "Feature", "properties": { "NO": 193, "ENTIDAD": "TABASCO", "MUNICIPIO": "TENOSIQUE", "PUEBLO INDIGENA O AFROMEXICANO": "CH'OL", "LOCALIDAD": "EL BEJUCAL", "CLAVE LOC": 270170006, "TIPO DE ASENTAMIENTO": "COMUNIDAD INDIGENA", "NOMBRE": "EL BEJUCAL", "MONTO ASIGNADO (PESOS)": 404753, "LATITUD": 17.306718, "LONGITUD": -91.249636 }, "geometry": { "type": "Point", "coordinates": [ -91.249636, 17.306718 ] } },
{ "type": "Feature", "properties": { "NO": 194, "ENTIDAD": "TABASCO", "MUNICIPIO": "TENOSIQUE", "PUEBLO INDIGENA O AFROMEXICANO": "CH'OL", "LOCALIDAD": "EL PALMAR", "CLAVE LOC": 270170062, "TIPO DE ASENTAMIENTO": "COMUNIDAD INDIGENA", "NOMBRE": "EL PALMAR", "MONTO ASIGNADO (PESOS)": 662623, "LATITUD": 17.447122, "LONGITUD": -91.038247 }, "geometry": { "type": "Point", "coordinates": [ -91.038247, 17.447122 ] } },
{ "type": "Feature", "properties": { "NO": 195, "ENTIDAD": "TABASCO", "MUNICIPIO": "TENOSIQUE", "PUEBLO INDIGENA O AFROMEXICANO": "CH'OL", "LOCALIDAD": "FRANCISCO I. MADERO CORTAZAR", "CLAVE LOC": 270170099, "TIPO DE ASENTAMIENTO": "COMUNIDAD INDIGENA", "NOMBRE": "FRANCISCO I. MADERO CORTAZAR", "MONTO ASIGNADO (PESOS)": 281073, "LATITUD": 17.302143, "LONGITUD": -91.16689 }, "geometry": { "type": "Point", "coordinates": [ -91.16689, 17.302143 ] } },
{ "type": "Feature", "properties": { "NO": 196, "ENTIDAD": "TABASCO", "MUNICIPIO": "TENOSIQUE", "PUEBLO INDIGENA O AFROMEXICANO": "CH'OL", "LOCALIDAD": "FRANCISCO I. MADERO RÍOS", "CLAVE LOC": 270170027, "TIPO DE ASENTAMIENTO": "COMUNIDAD INDIGENA", "NOMBRE": "FRANCISCO I. MADERO RÍOS", "MONTO ASIGNADO (PESOS)": 193769, "LATITUD": 17.29922, "LONGITUD": -91.387254 }, "geometry": { "type": "Point", "coordinates": [ -91.387254, 17.29922 ] } },
{ "type": "Feature", "properties": { "NO": 197, "ENTIDAD": "TABASCO", "MUNICIPIO": "TENOSIQUE", "PUEBLO INDIGENA O AFROMEXICANO": "CH'OL", "LOCALIDAD": "FRANCISCO VILLA", "CLAVE LOC": 270170030, "TIPO DE ASENTAMIENTO": "COMUNIDAD INDIGENA", "NOMBRE": "FRANCISCO VILLA", "MONTO ASIGNADO (PESOS)": 298049, "LATITUD": 17.287268, "LONGITUD": -91.210902 }, "geometry": { "type": "Point", "coordinates": [ -91.210902, 17.287268 ] } },
{ "type": "Feature", "properties": { "NO": 198, "ENTIDAD": "TABASCO", "MUNICIPIO": "TENOSIQUE", "PUEBLO INDIGENA O AFROMEXICANO": "CH'OL", "LOCALIDAD": "ICORSA", "CLAVE LOC": 270170159, "TIPO DE ASENTAMIENTO": "COMUNIDAD INDIGENA", "NOMBRE": "ICORSA", "MONTO ASIGNADO (PESOS)": 182627, "LATITUD": 17.427356, "LONGITUD": -91.48861 }, "geometry": { "type": "Point", "coordinates": [ -91.48861, 17.427356 ] } },
{ "type": "Feature", "properties": { "NO": 199, "ENTIDAD": "TABASCO", "MUNICIPIO": "TENOSIQUE", "PUEBLO INDIGENA O AFROMEXICANO": "TSELTAL", "LOCALIDAD": "IGNACIO ALLENDE", "CLAVE LOC": 270170096, "TIPO DE ASENTAMIENTO": "COMUNIDAD INDIGENA", "NOMBRE": "IGNACIO ALLENDE", "MONTO ASIGNADO (PESOS)": 690916, "LATITUD": 17.300669, "LONGITUD": -91.220337 }, "geometry": { "type": "Point", "coordinates": [ -91.220337, 17.300669 ] } },
{ "type": "Feature", "properties": { "NO": 200, "ENTIDAD": "TABASCO", "MUNICIPIO": "TENOSIQUE", "PUEBLO INDIGENA O AFROMEXICANO": "TSELTAL", "LOCALIDAD": "LA ESTANCIA", "CLAVE LOC": 270170098, "TIPO DE ASENTAMIENTO": "COMUNIDAD INDIGENA", "NOMBRE": "LA ESTANCIA", "MONTO ASIGNADO (PESOS)": 266522, "LATITUD": 17.283206, "LONGITUD": -91.213316 }, "geometry": { "type": "Point", "coordinates": [ -91.213316, 17.283206 ] } },
{ "type": "Feature", "properties": { "NO": 201, "ENTIDAD": "TABASCO", "MUNICIPIO": "TENOSIQUE", "PUEBLO INDIGENA O AFROMEXICANO": "CH'OL", "LOCALIDAD": "LOS RIELES DE SAN JOSÉ", "CLAVE LOC": 270170091, "TIPO DE ASENTAMIENTO": "COMUNIDAD INDIGENA", "NOMBRE": "LOS RIELES DE SAN JOSÉ", "MONTO ASIGNADO (PESOS)": 359485, "LATITUD": 17.359223, "LONGITUD": -91.373145 }, "geometry": { "type": "Point", "coordinates": [ -91.373145, 17.359223 ] } },
{ "type": "Feature", "properties": { "NO": 202, "ENTIDAD": "TABASCO", "MUNICIPIO": "TENOSIQUE", "PUEBLO INDIGENA O AFROMEXICANO": "CH'OL", "LOCALIDAD": "MIGUEL HIDALGO", "CLAVE LOC": 270170050, "TIPO DE ASENTAMIENTO": "COMUNIDAD INDIGENA", "NOMBRE": "MIGUEL HIDALGO", "MONTO ASIGNADO (PESOS)": 247121, "LATITUD": 17.277997, "LONGITUD": -91.158512 }, "geometry": { "type": "Point", "coordinates": [ -91.158512, 17.277997 ] } },
{ "type": "Feature", "properties": { "NO": 203, "ENTIDAD": "TABASCO", "MUNICIPIO": "TENOSIQUE", "PUEBLO INDIGENA O AFROMEXICANO": "TSELTAL", "LOCALIDAD": "NIÑOS HÉROES", "CLAVE LOC": 270170053, "TIPO DE ASENTAMIENTO": "COMUNIDAD INDIGENA", "NOMBRE": "NIÑOS HÉROES", "MONTO ASIGNADO (PESOS)": 180835, "LATITUD": 17.273828, "LONGITUD": -91.398116 }, "geometry": { "type": "Point", "coordinates": [ -91.398116, 17.273828 ] } },
{ "type": "Feature", "properties": { "NO": 204, "ENTIDAD": "TABASCO", "MUNICIPIO": "TENOSIQUE", "PUEBLO INDIGENA O AFROMEXICANO": "CH'OL", "LOCALIDAD": "NUEVA JERUSALÉN", "CLAVE LOC": 270170183, "TIPO DE ASENTAMIENTO": "COMUNIDAD INDIGENA", "NOMBRE": "NUEVA JERUSALÉN", "MONTO ASIGNADO (PESOS)": 227852, "LATITUD": 17.257635, "LONGITUD": -91.067414 }, "geometry": { "type": "Point", "coordinates": [ -91.067414, 17.257635 ] } },
{ "type": "Feature", "properties": { "NO": 205, "ENTIDAD": "TABASCO", "MUNICIPIO": "TENOSIQUE", "PUEBLO INDIGENA O AFROMEXICANO": "TSELTAL", "LOCALIDAD": "PUNTA DE MONTAÑA", "CLAVE LOC": 270170208, "TIPO DE ASENTAMIENTO": "COMUNIDAD INDIGENA", "NOMBRE": "PUNTA DE MONTAÑA", "MONTO ASIGNADO (PESOS)": 137183, "LATITUD": 17.440943, "LONGITUD": -91.118103 }, "geometry": { "type": "Point", "coordinates": [ -91.118103, 17.440943 ] } },
{ "type": "Feature", "properties": { "NO": 206, "ENTIDAD": "TABASCO", "MUNICIPIO": "TENOSIQUE", "PUEBLO INDIGENA O AFROMEXICANO": "CH'OL", "LOCALIDAD": "REDENCIÓN DEL CAMPESINO", "CLAVE LOC": 270170069, "TIPO DE ASENTAMIENTO": "COMUNIDAD INDIGENA", "NOMBRE": "REDENCIÓN DEL CAMPESINO", "MONTO ASIGNADO (PESOS)": 820255, "LATITUD": 17.32815, "LONGITUD": -91.283615 }, "geometry": { "type": "Point", "coordinates": [ -91.283615, 17.32815 ] } },
{ "type": "Feature", "properties": { "NO": 207, "ENTIDAD": "TABASCO", "MUNICIPIO": "TENOSIQUE", "PUEBLO INDIGENA O AFROMEXICANO": "CH'OL", "LOCALIDAD": "SAN CARLOS", "CLAVE LOC": 270170154, "TIPO DE ASENTAMIENTO": "COMUNIDAD INDIGENA", "NOMBRE": "SAN CARLOS", "MONTO ASIGNADO (PESOS)": 373227, "LATITUD": 17.430434, "LONGITUD": -91.491376 }, "geometry": { "type": "Point", "coordinates": [ -91.491376, 17.430434 ] } },
{ "type": "Feature", "properties": { "NO": 208, "ENTIDAD": "TABASCO", "MUNICIPIO": "TENOSIQUE", "PUEBLO INDIGENA O AFROMEXICANO": "CH'OL", "LOCALIDAD": "SAN FRANCISCO", "CLAVE LOC": 270170101, "TIPO DE ASENTAMIENTO": "COMUNIDAD INDIGENA", "NOMBRE": "SAN FRANCISCO", "MONTO ASIGNADO (PESOS)": 309366, "LATITUD": 17.256021, "LONGITUD": -91.135064 }, "geometry": { "type": "Point", "coordinates": [ -91.135064, 17.256021 ] } },
{ "type": "Feature", "properties": { "NO": 209, "ENTIDAD": "TABASCO", "MUNICIPIO": "TENOSIQUE", "PUEBLO INDIGENA O AFROMEXICANO": "CH'OL", "LOCALIDAD": "SAN MARCOS", "CLAVE LOC": 270170092, "TIPO DE ASENTAMIENTO": "COMUNIDAD INDIGENA", "NOMBRE": "SAN MARCOS", "MONTO ASIGNADO (PESOS)": 316641, "LATITUD": 17.343403, "LONGITUD": -91.352538 }, "geometry": { "type": "Point", "coordinates": [ -91.352538, 17.343403 ] } },
{ "type": "Feature", "properties": { "NO": 210, "ENTIDAD": "TABASCO", "MUNICIPIO": "TENOSIQUE", "PUEBLO INDIGENA O AFROMEXICANO": "CH'OL", "LOCALIDAD": "SANTA CRUZ", "CLAVE LOC": 270170078, "TIPO DE ASENTAMIENTO": "COMUNIDAD INDIGENA", "NOMBRE": "SANTA CRUZ", "MONTO ASIGNADO (PESOS)": 541368, "LATITUD": 17.418914, "LONGITUD": -91.024398 }, "geometry": { "type": "Point", "coordinates": [ -91.024398, 17.418914 ] } },
{ "type": "Feature", "properties": { "NO": 211, "ENTIDAD": "TABASCO", "MUNICIPIO": "TENOSIQUE", "PUEBLO INDIGENA O AFROMEXICANO": "CH'OL", "LOCALIDAD": "SANTA ROSA", "CLAVE LOC": 270170081, "TIPO DE ASENTAMIENTO": "COMUNIDAD INDIGENA", "NOMBRE": "SANTA ROSA", "MONTO ASIGNADO (PESOS)": 287540, "LATITUD": 17.359826, "LONGITUD": -91.337458 }, "geometry": { "type": "Point", "coordinates": [ -91.337458, 17.359826 ] } },
{ "type": "Feature", "properties": { "NO": 212, "ENTIDAD": "TABASCO", "MUNICIPIO": "TENOSIQUE", "PUEBLO INDIGENA O AFROMEXICANO": "TSELTAL", "LOCALIDAD": "SANTO TOMÁS", "CLAVE LOC": 270170082, "TIPO DE ASENTAMIENTO": "COMUNIDAD INDIGENA", "NOMBRE": "SANTO TOMÁS", "MONTO ASIGNADO (PESOS)": 273798, "LATITUD": 17.305018, "LONGITUD": -91.354222 }, "geometry": { "type": "Point", "coordinates": [ -91.354222, 17.305018 ] } }
]
}
