{
"type": "FeatureCollection",
"name": "tlaxcala_loc_monto",
"crs": { "type": "name", "properties": { "name": "urn:ogc:def:crs:OGC:1.3:CRS84" } },
"features": [
{ "type": "Feature", "properties": { "NO": 1, "ENTIDAD": "TLAXCALA", "MUNICIPIO": "ATLTZAYANCA", "PUEBLO INDIGENA O AFROMEXICANO": "NAHUA", "LOCALIDAD": "SAN JOSE PILANCON ", "CLAVE LOC": 290040028, "TIPO DE ASENTAMIENTO": "COMUNIDAD INDIGENA", "NOMBRE": "SAN JOSÉ PILANCÓN", "MONTO ASIGNADO (PESOS)": 323916, "LATITUD": 19.423375, "LONGITUD": -97.833738 }, "geometry": { "type": "Point", "coordinates": [ -97.833738, 19.423375 ] } },
{ "type": "Feature", "properties": { "NO": 2, "ENTIDAD": "TLAXCALA", "MUNICIPIO": "ATLTZAYANCA", "PUEBLO INDIGENA O AFROMEXICANO": "NAHUA", "LOCALIDAD": "SANTA MARIA LAS CUEVAS ", "CLAVE LOC": 290040021, "TIPO DE ASENTAMIENTO": "COMUNIDAD INDIGENA", "NOMBRE": "SANTA MARÍA LAS CUEVAS", "MONTO ASIGNADO (PESOS)": 875224, "LATITUD": 19.386202, "LONGITUD": -97.738491 }, "geometry": { "type": "Point", "coordinates": [ -97.738491, 19.386202 ] } },
{ "type": "Feature", "properties": { "NO": 3, "ENTIDAD": "TLAXCALA", "MUNICIPIO": "CALPULALPAN", "PUEBLO INDIGENA O AFROMEXICANO": "NAHUA", "LOCALIDAD": "LA SOLEDAD", "CLAVE LOC": 290060019, "TIPO DE ASENTAMIENTO": "COMUNIDAD INDIGENA", "NOMBRE": "LA SOLEDAD", "MONTO ASIGNADO (PESOS)": 1158153, "LATITUD": 19.538347, "LONGITUD": -98.61826 }, "geometry": { "type": "Point", "coordinates": [ -98.61826, 19.538347 ] } },
{ "type": "Feature", "properties": { "NO": 4, "ENTIDAD": "TLAXCALA", "MUNICIPIO": "CALPULALPAN", "PUEBLO INDIGENA O AFROMEXICANO": "NAHUA", "LOCALIDAD": "LA VENTA ", "CLAVE LOC": 290060038, "TIPO DE ASENTAMIENTO": "COMUNIDAD INDIGENA", "NOMBRE": "LA VENTA", "MONTO ASIGNADO (PESOS)": 209937, "LATITUD": 19.567777, "LONGITUD": -98.683611 }, "geometry": { "type": "Point", "coordinates": [ -98.683611, 19.567777 ] } },
{ "type": "Feature", "properties": { "NO": 5, "ENTIDAD": "TLAXCALA", "MUNICIPIO": "CALPULALPAN", "PUEBLO INDIGENA O AFROMEXICANO": "NAHUA", "LOCALIDAD": "LOS MOGOTES", "CLAVE LOC": 290060093, "TIPO DE ASENTAMIENTO": "COMUNIDAD INDIGENA", "NOMBRE": "SAN FELIPE SULTEPEC", "MONTO ASIGNADO (PESOS)": 1187015, "LATITUD": 19.589306, "LONGITUD": -98.607115 }, "geometry": { "type": "Point", "coordinates": [ -98.607115, 19.589306 ] } },
{ "type": "Feature", "properties": { "NO": 6, "ENTIDAD": "TLAXCALA", "MUNICIPIO": "CALPULALPAN", "PUEBLO INDIGENA O AFROMEXICANO": "NAHUA", "LOCALIDAD": "MAZAPA", "CLAVE LOC": 290060008, "TIPO DE ASENTAMIENTO": "COMUNIDAD INDIGENA", "NOMBRE": "SAN ANTONIO MAZAPA", "MONTO ASIGNADO (PESOS)": 1904277, "LATITUD": 19.540759, "LONGITUD": -98.556657 }, "geometry": { "type": "Point", "coordinates": [ -98.556657, 19.540759 ] } },
{ "type": "Feature", "properties": { "NO": 7, "ENTIDAD": "TLAXCALA", "MUNICIPIO": "CALPULALPAN", "PUEBLO INDIGENA O AFROMEXICANO": "NAHUA", "LOCALIDAD": "NCPE GUSTAVO DIAZ ORDAZ", "CLAVE LOC": 290060024, "TIPO DE ASENTAMIENTO": "COMUNIDAD INDIGENA", "NOMBRE": "GUSTAVO DÍAZ ORDAZ", "MONTO ASIGNADO (PESOS)": 606845, "LATITUD": 19.567262, "LONGITUD": -98.465653 }, "geometry": { "type": "Point", "coordinates": [ -98.465653, 19.567262 ] } },
{ "type": "Feature", "properties": { "NO": 8, "ENTIDAD": "TLAXCALA", "MUNICIPIO": "CALPULALPAN", "PUEBLO INDIGENA O AFROMEXICANO": "NAHUA", "LOCALIDAD": "SAN CRISTOBAL ZACACALCO", "CLAVE LOC": 290060010, "TIPO DE ASENTAMIENTO": "COMUNIDAD INDIGENA", "NOMBRE": "SAN CRISTOBAL ZACACALCO", "MONTO ASIGNADO (PESOS)": 797620, "LATITUD": 19.568985, "LONGITUD": -98.66229 }, "geometry": { "type": "Point", "coordinates": [ -98.66229, 19.568985 ] } },
{ "type": "Feature", "properties": { "NO": 9, "ENTIDAD": "TLAXCALA", "MUNICIPIO": "CALPULALPAN", "PUEBLO INDIGENA O AFROMEXICANO": "NAHUA", "LOCALIDAD": "SANTA ISABEL MIXTITLAN", "CLAVE LOC": 290060228, "TIPO DE ASENTAMIENTO": "COMUNIDAD INDIGENA", "NOMBRE": "SANTA ISABEL MIXTITLÁN", "MONTO ASIGNADO (PESOS)": 205895, "LATITUD": 19.510525, "LONGITUD": -98.596104 }, "geometry": { "type": "Point", "coordinates": [ -98.596104, 19.510525 ] } },
{ "type": "Feature", "properties": { "NO": 10, "ENTIDAD": "TLAXCALA", "MUNICIPIO": "CHIAUTEMPAN", "PUEBLO INDIGENA O AFROMEXICANO": "NAHUA", "LOCALIDAD": "SAN RAFAEL TEPATLAXCO ", "CLAVE LOC": 290100008, "TIPO DE ASENTAMIENTO": "COMUNIDAD INDIGENA", "NOMBRE": "SAN RAFAEL TEPATLAXCO", "MONTO ASIGNADO (PESOS)": 1873559, "LATITUD": 19.298176, "LONGITUD": -98.119491 }, "geometry": { "type": "Point", "coordinates": [ -98.119491, 19.298176 ] } },
{ "type": "Feature", "properties": { "NO": 11, "ENTIDAD": "TLAXCALA", "MUNICIPIO": "CONTLA DE JUAN CUAMATZI", "PUEBLO INDIGENA O AFROMEXICANO": "NAHUA", "LOCALIDAD": "LA LUZ [BARRIO] ", "CLAVE LOC": 290180007, "TIPO DE ASENTAMIENTO": "COMUNIDAD INDIGENA", "NOMBRE": "SECCIÓN DOCEAVA BARRIO DE LA LUZ", "MONTO ASIGNADO (PESOS)": 804087, "LATITUD": 19.317347, "LONGITUD": -98.116588 }, "geometry": { "type": "Point", "coordinates": [ -98.116588, 19.317347 ] } },
{ "type": "Feature", "properties": { "NO": 12, "ENTIDAD": "TLAXCALA", "MUNICIPIO": "CONTLA DE JUAN CUAMATZI", "PUEBLO INDIGENA O AFROMEXICANO": "NAHUA", "LOCALIDAD": "SAN FELIPE CUAUHTENCO ", "CLAVE LOC": 290180002, "TIPO DE ASENTAMIENTO": "COMUNIDAD INDIGENA", "NOMBRE": "SAN FELIPE CUAUHTENCO", "MONTO ASIGNADO (PESOS)": 1965713, "LATITUD": 19.313839, "LONGITUD": -98.118907 }, "geometry": { "type": "Point", "coordinates": [ -98.118907, 19.313839 ] } },
{ "type": "Feature", "properties": { "NO": 13, "ENTIDAD": "TLAXCALA", "MUNICIPIO": "CONTLA DE JUAN CUAMATZI", "PUEBLO INDIGENA O AFROMEXICANO": "NAHUA", "LOCALIDAD": "(SIN NOMBRE)", "CLAVE LOC": 290180005, "TIPO DE ASENTAMIENTO": "COMUNIDAD INDIGENA", "NOMBRE": "OCOTLÁN TEPATLAXCO", "MONTO ASIGNADO (PESOS)": 627055, "LATITUD": 19.301941, "LONGITUD": -98.116949 }, "geometry": { "type": "Point", "coordinates": [ -98.116949, 19.301941 ] } },
{ "type": "Feature", "properties": { "NO": 14, "ENTIDAD": "TLAXCALA", "MUNICIPIO": "EL CARMEN TEQUEXQUITLA", "PUEBLO INDIGENA O AFROMEXICANO": "NAHUA", "LOCALIDAD": "OCOTLAN TEMALACAYUCAN", "CLAVE LOC": 290070003, "TIPO DE ASENTAMIENTO": "COMUNIDAD INDIGENA", "NOMBRE": "OCOTLÁN TEMALACAYUCAN", "MONTO ASIGNADO (PESOS)": 216403, "LATITUD": 19.298939, "LONGITUD": -97.698485 }, "geometry": { "type": "Point", "coordinates": [ -97.698485, 19.298939 ] } },
{ "type": "Feature", "properties": { "NO": 15, "ENTIDAD": "TLAXCALA", "MUNICIPIO": "ESPAÑITA", "PUEBLO INDIGENA O AFROMEXICANO": "NAHUA", "LOCALIDAD": "ALVARO OBREGON ", "CLAVE LOC": 290120002, "TIPO DE ASENTAMIENTO": "COMUNIDAD INDIGENA", "NOMBRE": "ÁLVARO OBREGÓN", "MONTO ASIGNADO (PESOS)": 308557, "LATITUD": 19.464448, "LONGITUD": -98.473922 }, "geometry": { "type": "Point", "coordinates": [ -98.473922, 19.464448 ] } },
{ "type": "Feature", "properties": { "NO": 16, "ENTIDAD": "TLAXCALA", "MUNICIPIO": "ESPAÑITA", "PUEBLO INDIGENA O AFROMEXICANO": "NAHUA", "LOCALIDAD": "LA MAGDALENA CUEXTOTITLA ", "CLAVE LOC": 290120009, "TIPO DE ASENTAMIENTO": "COMUNIDAD INDIGENA", "NOMBRE": "LA MAGDALENA CUEXTOTITLA", "MONTO ASIGNADO (PESOS)": 956869, "LATITUD": 19.463697, "LONGITUD": -98.449296 }, "geometry": { "type": "Point", "coordinates": [ -98.449296, 19.463697 ] } },
{ "type": "Feature", "properties": { "NO": 17, "ENTIDAD": "TLAXCALA", "MUNICIPIO": "HUAMANTLA", "PUEBLO INDIGENA O AFROMEXICANO": "NAHUA", "LOCALIDAD": "COLONIA AGRICOLA SAN MARTIN NOTARIO", "CLAVE LOC": 290130054, "TIPO DE ASENTAMIENTO": "COMUNIDAD INDIGENA", "NOMBRE": "AGRÍCOLA SAN MARTÍN NOTARIO", "MONTO ASIGNADO (PESOS)": 168710, "LATITUD": 19.347737, "LONGITUD": -97.918439 }, "geometry": { "type": "Point", "coordinates": [ -97.918439, 19.347737 ] } },
{ "type": "Feature", "properties": { "NO": 18, "ENTIDAD": "TLAXCALA", "MUNICIPIO": "HUAMANTLA", "PUEBLO INDIGENA O AFROMEXICANO": "NAHUA", "LOCALIDAD": "COLONIA FRANCISCO I. MADERO TECOAC", "CLAVE LOC": 290130090, "TIPO DE ASENTAMIENTO": "COMUNIDAD INDIGENA", "NOMBRE": "FRANCISCO I. MADERO TECÓAC", "MONTO ASIGNADO (PESOS)": 247930, "LATITUD": 19.394669, "LONGITUD": -97.920495 }, "geometry": { "type": "Point", "coordinates": [ -97.920495, 19.394669 ] } },
{ "type": "Feature", "properties": { "NO": 19, "ENTIDAD": "TLAXCALA", "MUNICIPIO": "HUAMANTLA", "PUEBLO INDIGENA O AFROMEXICANO": "NAHUA", "LOCALIDAD": "COLONIA FRANCISCO VILLA TECOAC ", "CLAVE LOC": 290130077, "TIPO DE ASENTAMIENTO": "COMUNIDAD INDIGENA", "NOMBRE": "FRANCISCO VILLA TECOAC", "MONTO ASIGNADO (PESOS)": 996479, "LATITUD": 19.386693, "LONGITUD": -97.92329 }, "geometry": { "type": "Point", "coordinates": [ -97.92329, 19.386693 ] } },
{ "type": "Feature", "properties": { "NO": 20, "ENTIDAD": "TLAXCALA", "MUNICIPIO": "HUAMANTLA", "PUEBLO INDIGENA O AFROMEXICANO": "NAHUA", "LOCALIDAD": "COLONIA LICENCIADO MAURO ANGULO", "CLAVE LOC": 290130048, "TIPO DE ASENTAMIENTO": "COMUNIDAD INDIGENA", "NOMBRE": "COLONIA LICENCIADO MAURO ANGULO", "MONTO ASIGNADO (PESOS)": 184069, "LATITUD": 19.331306, "LONGITUD": -98.007138 }, "geometry": { "type": "Point", "coordinates": [ -98.007138, 19.331306 ] } },
{ "type": "Feature", "properties": { "NO": 21, "ENTIDAD": "TLAXCALA", "MUNICIPIO": "HUAMANTLA", "PUEBLO INDIGENA O AFROMEXICANO": "NAHUA", "LOCALIDAD": "EL MOLINO [RANCHERIA] ", "CLAVE LOC": 290130097, "TIPO DE ASENTAMIENTO": "COMUNIDAD INDIGENA", "NOMBRE": "RANCHERÍA EL MOLINO", "MONTO ASIGNADO (PESOS)": 205086, "LATITUD": 19.433002, "LONGITUD": -97.902021 }, "geometry": { "type": "Point", "coordinates": [ -97.902021, 19.433002 ] } },
{ "type": "Feature", "properties": { "NO": 22, "ENTIDAD": "TLAXCALA", "MUNICIPIO": "HUAMANTLA", "PUEBLO INDIGENA O AFROMEXICANO": "NAHUA", "LOCALIDAD": "NCP SAN JOSE TEACALCO ", "CLAVE LOC": 290130039, "TIPO DE ASENTAMIENTO": "COMUNIDAD INDIGENA", "NOMBRE": "NCP SAN JOSÉ TEACALCO", "MONTO ASIGNADO (PESOS)": 327958, "LATITUD": 19.327227, "LONGITUD": -97.99999 }, "geometry": { "type": "Point", "coordinates": [ -97.99999, 19.327227 ] } },
{ "type": "Feature", "properties": { "NO": 23, "ENTIDAD": "TLAXCALA", "MUNICIPIO": "HUAMANTLA", "PUEBLO INDIGENA O AFROMEXICANO": "NAHUA", "LOCALIDAD": "SAN DIEGO XALPATLAHUAYA ", "CLAVE LOC": 290130129, "TIPO DE ASENTAMIENTO": "COMUNIDAD INDIGENA", "NOMBRE": "COLONIA SAN DIEGO XALPATLAHUAYA", "MONTO ASIGNADO (PESOS)": 302899, "LATITUD": 19.373032, "LONGITUD": -97.955925 }, "geometry": { "type": "Point", "coordinates": [ -97.955925, 19.373032 ] } },
{ "type": "Feature", "properties": { "NO": 24, "ENTIDAD": "TLAXCALA", "MUNICIPIO": "HUAMANTLA", "PUEBLO INDIGENA O AFROMEXICANO": "NAHUA", "LOCALIDAD": "SAN FRANCISCO NOTARIO ", "CLAVE LOC": 290130079, "TIPO DE ASENTAMIENTO": "COMUNIDAD INDIGENA", "NOMBRE": "SAN FRANCISCO NOTARIO", "MONTO ASIGNADO (PESOS)": 130716, "LATITUD": 19.359585, "LONGITUD": -97.994225 }, "geometry": { "type": "Point", "coordinates": [ -97.994225, 19.359585 ] } },
{ "type": "Feature", "properties": { "NO": 25, "ENTIDAD": "TLAXCALA", "MUNICIPIO": "HUEYOTLIPAN", "PUEBLO INDIGENA O AFROMEXICANO": "NAHUA", "LOCALIDAD": "NCP SAN ANTONIO TECHALOTE", "CLAVE LOC": 290140035, "TIPO DE ASENTAMIENTO": "COMUNIDAD INDIGENA", "NOMBRE": "SAN ANTONIO TECHALOTE", "MONTO ASIGNADO (PESOS)": 579930, "LATITUD": 19.536071, "LONGITUD": -98.361893 }, "geometry": { "type": "Point", "coordinates": [ -98.361893, 19.536071 ] } },
{ "type": "Feature", "properties": { "NO": 26, "ENTIDAD": "TLAXCALA", "MUNICIPIO": "IXTENCO", "PUEBLO INDIGENA O AFROMEXICANO": "OTOMÍ", "LOCALIDAD": "IXTENCO", "CLAVE LOC": 290160001, "TIPO DE ASENTAMIENTO": "COMUNIDAD INDIGENA", "NOMBRE": "IXTENCO", "MONTO ASIGNADO (PESOS)": 740146, "LATITUD": 19.251144, "LONGITUD": -97.895111 }, "geometry": { "type": "Point", "coordinates": [ -97.895111, 19.251144 ] } },
{ "type": "Feature", "properties": { "NO": 27, "ENTIDAD": "TLAXCALA", "MUNICIPIO": "PANOTLA", "PUEBLO INDIGENA O AFROMEXICANO": "NAHUA", "LOCALIDAD": "SAN MATEO HUEXOYUCAN", "CLAVE LOC": 290240008, "TIPO DE ASENTAMIENTO": "COMUNIDAD INDIGENA", "NOMBRE": "SAN MATEO HUEXOYUCAN", "MONTO ASIGNADO (PESOS)": 1450782, "LATITUD": 19.376165, "LONGITUD": -98.284592 }, "geometry": { "type": "Point", "coordinates": [ -98.284592, 19.376165 ] } },
{ "type": "Feature", "properties": { "NO": 28, "ENTIDAD": "TLAXCALA", "MUNICIPIO": "SAN PABLO DEL MONTE", "PUEBLO INDIGENA O AFROMEXICANO": "NAHUA", "LOCALIDAD": "SAN ISIDRO BUEN SUCESO ", "CLAVE LOC": 290250002, "TIPO DE ASENTAMIENTO": "COMUNIDAD INDIGENA", "NOMBRE": "SAN ISIDRO BUEN SUCESO", "MONTO ASIGNADO (PESOS)": 8632974, "LATITUD": 19.156543, "LONGITUD": -98.10553 }, "geometry": { "type": "Point", "coordinates": [ -98.10553, 19.156543 ] } },
{ "type": "Feature", "properties": { "NO": 29, "ENTIDAD": "TLAXCALA", "MUNICIPIO": "SANTA CRUZ TLAXCALA", "PUEBLO INDIGENA O AFROMEXICANO": "NAHUA", "LOCALIDAD": "JESUS HUITZNAHUAC", "CLAVE LOC": 290260003, "TIPO DE ASENTAMIENTO": "COMUNIDAD INDIGENA", "NOMBRE": "JESÚS HUITZNÁHUAC", "MONTO ASIGNADO (PESOS)": 1284258, "LATITUD": 19.34116, "LONGITUD": -98.12907 }, "geometry": { "type": "Point", "coordinates": [ -98.12907, 19.34116 ] } },
{ "type": "Feature", "properties": { "NO": 30, "ENTIDAD": "TLAXCALA", "MUNICIPIO": "TEOLOCHOLCO", "PUEBLO INDIGENA O AFROMEXICANO": "NAHUA", "LOCALIDAD": "CUAXINCA", "CLAVE LOC": 290280004, "TIPO DE ASENTAMIENTO": "COMUNIDAD INDIGENA", "NOMBRE": "CUAXINCA", "MONTO ASIGNADO (PESOS)": 566427, "LATITUD": 19.245386, "LONGITUD": -98.165999 }, "geometry": { "type": "Point", "coordinates": [ -98.165999, 19.245386 ] } },
{ "type": "Feature", "properties": { "NO": 31, "ENTIDAD": "TLAXCALA", "MUNICIPIO": "TEOLOCHOLCO", "PUEBLO INDIGENA O AFROMEXICANO": "NAHUA", "LOCALIDAD": "TEPETUMAYO", "CLAVE LOC": 290280044, "TIPO DE ASENTAMIENTO": "LOCALIDAD CON POBLACION\nINDIGENA", "NOMBRE": "TEPETUMAYO", "MONTO ASIGNADO (PESOS)": 289408, "LATITUD": 19.164743, "LONGITUD": -98.098363 }, "geometry": { "type": "Point", "coordinates": [ -98.098363, 19.164743 ] } },
{ "type": "Feature", "properties": { "NO": 32, "ENTIDAD": "TLAXCALA", "MUNICIPIO": "TEOLOCHOLCO", "PUEBLO INDIGENA O AFROMEXICANO": "NAHUA", "LOCALIDAD": "TEPIZILA ", "CLAVE LOC": 290280032, "TIPO DE ASENTAMIENTO": "LOCALIDAD CON POBLACION\nINDIGENA", "NOMBRE": "TEPIZILA", "MONTO ASIGNADO (PESOS)": 183883, "LATITUD": 19.172658, "LONGITUD": -98.098402 }, "geometry": { "type": "Point", "coordinates": [ -98.098402, 19.172658 ] } },
{ "type": "Feature", "properties": { "NO": 33, "ENTIDAD": "TLAXCALA", "MUNICIPIO": "TOTOLAC", "PUEBLO INDIGENA O AFROMEXICANO": "NAHUA", "LOCALIDAD": "LA TRINIDAD CHIMALPA", "CLAVE LOC": 290360009, "TIPO DE ASENTAMIENTO": "COMUNIDAD INDIGENA", "NOMBRE": "LA TRINIDAD CHIMALPA", "MONTO ASIGNADO (PESOS)": 999713, "LATITUD": 19.329793, "LONGITUD": -98.244671 }, "geometry": { "type": "Point", "coordinates": [ -98.244671, 19.329793 ] } },
{ "type": "Feature", "properties": { "NO": 34, "ENTIDAD": "TLAXCALA", "MUNICIPIO": "TOTOLAC", "PUEBLO INDIGENA O AFROMEXICANO": "NAHUA", "LOCALIDAD": "SAN FRANCISCO OCOTELULCO", "CLAVE LOC": 290360006, "TIPO DE ASENTAMIENTO": "COMUNIDAD INDIGENA", "NOMBRE": "SAN FRANCISCO OCOTELULCO", "MONTO ASIGNADO (PESOS)": 1956821, "LATITUD": 19.330168, "LONGITUD": -98.238345 }, "geometry": { "type": "Point", "coordinates": [ -98.238345, 19.330168 ] } },
{ "type": "Feature", "properties": { "NO": 35, "ENTIDAD": "TLAXCALA", "MUNICIPIO": "TOTOLAC", "PUEBLO INDIGENA O AFROMEXICANO": "NAHUA", "LOCALIDAD": "SAN MIGUEL TLAMAHUCO", "CLAVE LOC": 290360007, "TIPO DE ASENTAMIENTO": "COMUNIDAD INDIGENA", "NOMBRE": "SAN MIGUEL TLAMAHUCO", "MONTO ASIGNADO (PESOS)": 980312, "LATITUD": 19.323986, "LONGITUD": -98.239869 }, "geometry": { "type": "Point", "coordinates": [ -98.239869, 19.323986 ] } },
{ "type": "Feature", "properties": { "NO": 36, "ENTIDAD": "TLAXCALA", "MUNICIPIO": "TOTOLAC", "PUEBLO INDIGENA O AFROMEXICANO": "NAHUA", "LOCALIDAD": "SANTIAGO TEPETICPAC", "CLAVE LOC": 290360008, "TIPO DE ASENTAMIENTO": "COMUNIDAD INDIGENA", "NOMBRE": "SANTIAGO TEPETICPAC", "MONTO ASIGNADO (PESOS)": 1342461, "LATITUD": 19.334939, "LONGITUD": -98.226902 }, "geometry": { "type": "Point", "coordinates": [ -98.226902, 19.334939 ] } },
{ "type": "Feature", "properties": { "NO": 37, "ENTIDAD": "TLAXCALA", "MUNICIPIO": "XALTOCAN", "PUEBLO INDIGENA O AFROMEXICANO": "NAHUA", "LOCALIDAD": "LA ASCENSION HUITZCOLOTEPEC ", "CLAVE LOC": 290400004, "TIPO DE ASENTAMIENTO": "COMUNIDAD INDIGENA", "NOMBRE": "LA ASCENSIÓN HUITZCOLOTEPEC", "MONTO ASIGNADO (PESOS)": 799237, "LATITUD": 19.384174, "LONGITUD": -98.237845 }, "geometry": { "type": "Point", "coordinates": [ -98.237845, 19.384174 ] } },
{ "type": "Feature", "properties": { "NO": 38, "ENTIDAD": "TLAXCALA", "MUNICIPIO": "XALTOCAN", "PUEBLO INDIGENA O AFROMEXICANO": "NAHUA", "LOCALIDAD": "TOPILCO DE JUAREZ", "CLAVE LOC": 290400013, "TIPO DE ASENTAMIENTO": "COMUNIDAD INDIGENA", "NOMBRE": "TOPILCO DE JUÁREZ", "MONTO ASIGNADO (PESOS)": 2012598, "LATITUD": 19.422906, "LONGITUD": -98.203783 }, "geometry": { "type": "Point", "coordinates": [ -98.203783, 19.422906 ] } }
]
}
