{
"type": "FeatureCollection",
"name": "zacatecas_loc_monto",
"crs": { "type": "name", "properties": { "name": "urn:ogc:def:crs:OGC:1.3:CRS84" } },
"features": [
{ "type": "Feature", "properties": { "NO": 1, "ENTIDAD": "ZACATECAS", "MUNICIPIO": "BENITO JUAREZ", "PUEBLO INDIGENA O AFROMEXICANO": "CAXCAN", "LOCALIDAD": "SAN LUCAS TEPETITLAN", "CLAVE LOC": 320040022, "TIPO DE ASENTAMIENTO": "COMUNIDAD INDIGENA", "NOMBRE": "SAN LUCAS TEPETITLÁN", "MONTO ASIGNADO (PESOS)": 253588, "LATITUD": 21.517318, "LONGITUD": -103.631018 }, "geometry": { "type": "Point", "coordinates": [ -103.631018, 21.517318 ] } },
{ "type": "Feature", "properties": { "NO": 2, "ENTIDAD": "ZACATECAS", "MUNICIPIO": "JALPA", "PUEBLO INDIGENA O AFROMEXICANO": "CAXCAN", "LOCALIDAD": "TENAYUCA", "CLAVE LOC": 320190148, "TIPO DE ASENTAMIENTO": "COMUNIDAD INDIGENA", "NOMBRE": "TENAYUCA", "MONTO ASIGNADO (PESOS)": 165476, "LATITUD": 21.68422, "LONGITUD": -103.070862 }, "geometry": { "type": "Point", "coordinates": [ -103.070862, 21.68422 ] } },
{ "type": "Feature", "properties": { "NO": 3, "ENTIDAD": "ZACATECAS", "MUNICIPIO": "TEPECHITLAN", "PUEBLO INDIGENA O AFROMEXICANO": "CAXCAN", "LOCALIDAD": "SAN PEDRO OCOTLAN", "CLAVE LOC": 320450028, "TIPO DE ASENTAMIENTO": "COMUNIDAD INDIGENA", "NOMBRE": "SAN PEDRO OCOTLÁN", "MONTO ASIGNADO (PESOS)": 1116208, "LATITUD": 21.533223, "LONGITUD": -103.310133 }, "geometry": { "type": "Point", "coordinates": [ -103.310133, 21.533223 ] } },
{ "type": "Feature", "properties": { "NO": 4, "ENTIDAD": "ZACATECAS", "MUNICIPIO": "TLALTENANGO DE SANCHEZ ROMAN", "PUEBLO INDIGENA O AFROMEXICANO": "CAXCAN", "LOCALIDAD": "CICACALCO", "CLAVE LOC": 320480011, "TIPO DE ASENTAMIENTO": "COMUNIDAD INDIGENA", "NOMBRE": "CICACALCO", "MONTO ASIGNADO (PESOS)": 3345690, "LATITUD": 21.715743, "LONGITUD": -103.313465 }, "geometry": { "type": "Point", "coordinates": [ -103.313465, 21.715743 ] } }
]
}
